,gsId,name,type,gradeRange,enrollment,city,state,address,phone,fax,website,ncesId,lat,lon,overviewLink,ratingsLink,reviewsLink,schoolStatsLink,parentRating,districtId,district,districtNCESId,gsRating
0,25212,4Points Academy,private,1-9,6,Austin,TX,"5145 Ranch Road 620 North, 
Austin, TX  78732",(512) 991-7950,,WWW.4POINTSACADEMY.COM,,30.389547,-97.88448,https://www.greatschools.org/texas/austin/25212-4Points-Academy/?s_cid=gsapi,https://www.greatschools.org/school/rating.page?state=TX&id=25212&s_cid=gsapi,https://www.greatschools.org/school/parentReviews.page?state=TX&id=25212&s_cid=gsapi,https://www.greatschools.org/cgi-bin/TX/otherprivate/25212,,,,,
1,11998,ACE Academy,private,PK-8,140,Austin,TX,"3901 Shoal Creek Boulevard, 
Austin, TX  78756",(512) 206-4070,(512) 532-6188,http://www.AustinGifted.org,A0790159,30.308155,-97.74721,https://www.greatschools.org/texas/austin/11998-ACE-Academy/?s_cid=gsapi,https://www.greatschools.org/school/rating.page?state=TX&id=11998&s_cid=gsapi,https://www.greatschools.org/school/parentReviews.page?state=TX&id=11998&s_cid=gsapi,https://www.greatschools.org/cgi-bin/TX/otherprivate/11998,4,,,,
2,25177,AESA Prep Academy,private,4-12,100,Austin,TX,"14101 Canonade, 
Austin, TX  78737",(512) 774-4822,(512) 829-4921,http://www.aesaprepacademy.com,,30.199083,-98.00528,https://www.greatschools.org/texas/austin/25177-AESA-Prep-Academy/?s_cid=gsapi,https://www.greatschools.org/school/rating.page?state=TX&id=25177&s_cid=gsapi,https://www.greatschools.org/school/parentReviews.page?state=TX&id=25177&s_cid=gsapi,https://www.greatschools.org/cgi-bin/TX/otherprivate/25177,,,,,
3,18793,AHB Community School,private,K-8,65,Austin,TX,"4001 Speedway Ave, 
Austin, TX  78751",(512) 299-5487,,,A0903480,30.30318,-97.73161,https://www.greatschools.org/texas/austin/18793-AHB-Community-School/?s_cid=gsapi,https://www.greatschools.org/school/rating.page?state=TX&id=18793&s_cid=gsapi,https://www.greatschools.org/school/parentReviews.page?state=TX&id=18793&s_cid=gsapi,https://www.greatschools.org/cgi-bin/TX/otherprivate/18793,4,,,,
4,25183,Abrome,private,"K-8, 10-12",5,Austin,TX,"10201 Aqua Azul Ct, 
Austin, TX  78733",(512) 785-3767,,http://abrome.com/,,30.33515,-97.87648,https://www.greatschools.org/texas/austin/25183-Abrome/?s_cid=gsapi,https://www.greatschools.org/school/rating.page?state=TX&id=25183&s_cid=gsapi,https://www.greatschools.org/school/parentReviews.page?state=TX&id=25183&s_cid=gsapi,https://www.greatschools.org/cgi-bin/TX/otherprivate/25183,,,,,
5,20103,Acton Academy,private,2-12,42,Austin,TX,"2201 Alexander Avenue, 
Austin, TX  78722",(512) 689-9822,,http://www.actonacademy.org/,,30.284405,-97.70996,https://www.greatschools.org/texas/austin/20103-Acton-Academy/?s_cid=gsapi,https://www.greatschools.org/school/rating.page?state=TX&id=20103&s_cid=gsapi,https://www.greatschools.org/school/parentReviews.page?state=TX&id=20103&s_cid=gsapi,https://www.greatschools.org/cgi-bin/TX/otherprivate/20103,,,,,
6,24844,Adult Transition Services,public,12,40,Austin,TX,"1020 Walsh Tarlton Lane, 
Austin, TX  78746",(512) 732-9020,(512) 732-9029,,,30.272945,-97.802,https://www.greatschools.org/texas/austin/24844-Adult-Transition-Services/?s_cid=gsapi,https://www.greatschools.org/school/rating.page?state=TX&id=24844&s_cid=gsapi,https://www.greatschools.org/school/parentReviews.page?state=TX&id=24844&s_cid=gsapi,https://www.greatschools.org/modperl/achievement/TX/24844,,342,Eanes Independent School District,4817760,
7,9663,Akins High School,public,9-12,2667,Austin,TX,"10701 South 1st Street, 
Austin, TX  78748",(512) 841-9900,(512) 841-9903,http://austinisd.org/,480894008937,30.148985,-97.80186,https://www.greatschools.org/texas/austin/9663-Akins-High-School/?s_cid=gsapi,https://www.greatschools.org/school/rating.page?state=TX&id=9663&s_cid=gsapi,https://www.greatschools.org/school/parentReviews.page?state=TX&id=9663&s_cid=gsapi,https://www.greatschools.org/modperl/achievement/TX/9663,4,115,Austin Independent School District,4808940,4
8,597,Allan Elementary School,public,PK-5,,Austin,TX,"4900 Gonzales Street, 
Austin, TX  78702",(512) 414-2304,(512) 385-2512,,480894005394,30.255674,-97.69715,https://www.greatschools.org/texas/austin/597-Allan-Elementary-School/?s_cid=gsapi,https://www.greatschools.org/school/rating.page?state=TX&id=597&s_cid=gsapi,https://www.greatschools.org/school/parentReviews.page?state=TX&id=597&s_cid=gsapi,https://www.greatschools.org/modperl/achievement/TX/597,4,115,Austin Independent School District,4808940,
9,519,Allison Elementary School,public,PK-6,487,Austin,TX,"515 Vargas Road, 
Austin, TX  78741",(512) 414-2004,(512) 385-0905,http://www.allisonelementary.com/,480894000291,30.235785,-97.69203,https://www.greatschools.org/texas/austin/519-Allison-Elementary-School/?s_cid=gsapi,https://www.greatschools.org/school/rating.page?state=TX&id=519&s_cid=gsapi,https://www.greatschools.org/school/parentReviews.page?state=TX&id=519&s_cid=gsapi,https://www.greatschools.org/modperl/achievement/TX/519,3,115,Austin Independent School District,4808940,7
10,24802,Altamira Academy,charter,PK-4,320,Austin,TX,"6405 South Interstate 35 Frontage Road, 
Austin, TX  78744",(512) 953-8301,(512) 842-9308,www.waysideschools.org/ama,,30.191423,-97.767136,https://www.greatschools.org/texas/austin/24802-Altamira-Academy/?s_cid=gsapi,https://www.greatschools.org/school/rating.page?state=TX&id=24802&s_cid=gsapi,https://www.greatschools.org/school/parentReviews.page?state=TX&id=24802&s_cid=gsapi,https://www.greatschools.org/modperl/achievement/TX/24802,,43,Wayside Schools,4800044,3
11,18841,Alternative Learning Center,public,6-12,166,Austin,TX,"900 Neal Street, 
Austin, TX  78702",(512) 414-2554,(512) 476-2809,http://aisdalc.org/,480894009076,30.268435,-97.71007,https://www.greatschools.org/texas/austin/18841-Alternative-Learning-Center/?s_cid=gsapi,https://www.greatschools.org/school/rating.page?state=TX&id=18841&s_cid=gsapi,https://www.greatschools.org/school/parentReviews.page?state=TX&id=18841&s_cid=gsapi,https://www.greatschools.org/modperl/achievement/TX/18841,5,115,Austin Independent School District,4808940,
12,520,Anderson High School,public,9-12,2224,Austin,TX,"8403 Mesa Drive, 
Austin, TX  78759",(512) 414-2538,(512) 338-1293,http://andersononline.org/,480894000292,30.37575,-97.75371,https://www.greatschools.org/texas/austin/520-Anderson-High-School/?s_cid=gsapi,https://www.greatschools.org/school/rating.page?state=TX&id=520&s_cid=gsapi,https://www.greatschools.org/school/parentReviews.page?state=TX&id=520&s_cid=gsapi,https://www.greatschools.org/modperl/achievement/TX/520,4,115,Austin Independent School District,4808940,8
13,5869,Anderson Mill Elementary School,public,PK-5,474,Austin,TX,"10610 Salt Mill Hollow, 
Austin, TX  78750",(512) 428-3700,(512) 428-3790,schools.roundrockisd.org/andersonmill/,483808004247,30.452835,-97.806854,https://www.greatschools.org/texas/austin/5869-Anderson-Mill-Elementary-School/?s_cid=gsapi,https://www.greatschools.org/school/rating.page?state=TX&id=5869&s_cid=gsapi,https://www.greatschools.org/school/parentReviews.page?state=TX&id=5869&s_cid=gsapi,https://www.greatschools.org/modperl/achievement/TX/5869,3,870,Round Rock Independent School District,4838080,7
14,521,Andrews Elementary School,public,PK-6,657,Austin,TX,"6801 Northeast Drive, 
Austin, TX  78723",(512) 414-1770,(512) 926-6635,http://archive.austinisd.org/schools/details.phtml?id=043,480894000293,30.317554,-97.679665,https://www.greatschools.org/texas/austin/521-Andrews-Elementary-School/?s_cid=gsapi,https://www.greatschools.org/school/rating.page?state=TX&id=521&s_cid=gsapi,https://www.greatschools.org/school/parentReviews.page?state=TX&id=521&s_cid=gsapi,https://www.greatschools.org/modperl/achievement/TX/521,4,115,Austin Independent School District,4808940,4
15,24723,Athlos Leadership Academy- Austin,charter,PK-9,,Austin,TX,"3711 Shoreline Drive, 
Austin, TX  78728",(512) 872-8400,,http://www.athlosaustin.org/,480017912987,30.457558,-97.688,https://www.greatschools.org/texas/austin/24723-Athlos-Leadership-Academy--Austin/?s_cid=gsapi,https://www.greatschools.org/school/rating.page?state=TX&id=24723&s_cid=gsapi,https://www.greatschools.org/school/parentReviews.page?state=TX&id=24723&s_cid=gsapi,https://www.greatschools.org/modperl/achievement/TX/24723,,1262,Jubilee Academic Center,4800179,
16,20403,Austin Achieve Public Schools,charter,6-12,671,Austin,TX,"5908 Manor Road, 
Austin, TX  78723",(512) 522-4190,(512) 727-3788,www.austinachieve.org,,30.307661,-97.680504,https://www.greatschools.org/texas/austin/20403-Austin-Achieve-Public-Schools/?s_cid=gsapi,https://www.greatschools.org/school/rating.page?state=TX&id=20403&s_cid=gsapi,https://www.greatschools.org/school/parentReviews.page?state=TX&id=20403&s_cid=gsapi,https://www.greatschools.org/modperl/achievement/TX/20403,4,1392,Austin Achieve Public Schools,4801431,4
17,24327,Austin Children's Montessori,private,PK-1,40,Austin,TX,"8807 Manchaca Road, 
Austin, TX  78748",(512) 291-5522,,http://montessoriaustin.com/,A0771723,30.18366,-97.817055,https://www.greatschools.org/texas/austin/24327-Austin-Children's-Montessori/?s_cid=gsapi,https://www.greatschools.org/school/rating.page?state=TX&id=24327&s_cid=gsapi,https://www.greatschools.org/school/parentReviews.page?state=TX&id=24327&s_cid=gsapi,https://www.greatschools.org/cgi-bin/TX/otherprivate/24327,3,,,,
18,19663,Austin City Academy,private,"K-3, 5-10, 12",,Austin,TX,"P.O. Box 92737, 
Austin, TX  78709",(512) 288-4883,,,A0702187,30.2669,-97.7428,https://www.greatschools.org/texas/austin/19663-Austin-City-Academy/?s_cid=gsapi,https://www.greatschools.org/school/rating.page?state=TX&id=19663&s_cid=gsapi,https://www.greatschools.org/school/parentReviews.page?state=TX&id=19663&s_cid=gsapi,https://www.greatschools.org/cgi-bin/TX/otherprivate/19663,,,,,
19,10900,Austin Discovery School,charter,K-8,491,Austin,TX,"9303 Farm to Market 969, 
Austin, TX  78724",(512) 674-0700,(512) 674-3133,www.austindiscoveryschool.org,480026511056,30.267902,-97.63531,https://www.greatschools.org/texas/austin/10900-Austin-Discovery-School/?s_cid=gsapi,https://www.greatschools.org/school/rating.page?state=TX&id=10900&s_cid=gsapi,https://www.greatschools.org/school/parentReviews.page?state=TX&id=10900&s_cid=gsapi,https://www.greatschools.org/modperl/achievement/TX/10900,4,1323,Austin Discovery School,4800265,4
20,522,Austin High School,public,9-12,2085,Austin,TX,"1715 West Cesar Chavez Street, 
Austin, TX  78703",(512) 414-2505,(512) 474-7935,,480894000294,30.273598,-97.76814,https://www.greatschools.org/texas/austin/522-Austin-High-School/?s_cid=gsapi,https://www.greatschools.org/school/rating.page?state=TX&id=522&s_cid=gsapi,https://www.greatschools.org/school/parentReviews.page?state=TX&id=522&s_cid=gsapi,https://www.greatschools.org/modperl/achievement/TX/522,4,115,Austin Independent School District,4808940,7
21,10049,Austin International School,private,PK-5,199,Austin,TX,"4001 Adelphi Lane, 
Austin, TX  78727",(512) 331-7806,(512) 219-5201,http://www.austininternationalschool.org,A0771724,30.42242,-97.71807,https://www.greatschools.org/texas/austin/10049-Austin-International-School/?s_cid=gsapi,https://www.greatschools.org/school/rating.page?state=TX&id=10049&s_cid=gsapi,https://www.greatschools.org/school/parentReviews.page?state=TX&id=10049&s_cid=gsapi,https://www.greatschools.org/cgi-bin/TX/otherprivate/10049,4,,,,
22,8096,Austin Jewish Academy,private,K-8,130,Austin,TX,"7300 Hart Lane, 
Austin, TX  78731",(512) 735-8350,(512) 735-8351,https://www.austinjewishacademy.org/,A9707912,30.357513,-97.75502,https://www.greatschools.org/texas/austin/8096-Austin-Jewish-Academy/?s_cid=gsapi,https://www.greatschools.org/school/rating.page?state=TX&id=8096&s_cid=gsapi,https://www.greatschools.org/school/parentReviews.page?state=TX&id=8096&s_cid=gsapi,https://www.greatschools.org/cgi-bin/TX/otherprivate/8096,4,,,,
23,19664,Austin Montessori Great Northern Campus,private,PK-3,,Austin,TX,"5006 Sunset Trail, 
Austin, TX  78745",(512) 450-1940,,,A0792064,30.227676,-97.80505,https://www.greatschools.org/texas/austin/19664-Austin-Montessori-Great-Northern-Campus/?s_cid=gsapi,https://www.greatschools.org/school/rating.page?state=TX&id=19664&s_cid=gsapi,https://www.greatschools.org/school/parentReviews.page?state=TX&id=19664&s_cid=gsapi,https://www.greatschools.org/cgi-bin/TX/otherprivate/19664,5,,,,
24,7587,Austin Montessori School,private,PK-9,350,Austin,TX,"5006 Sunset Trail, 
Austin, TX  78745",(512) 892-0253,,http://austinmontessori.org/,01329215,30.227676,-97.80505,https://www.greatschools.org/texas/austin/7587-Austin-Montessori-School/?s_cid=gsapi,https://www.greatschools.org/school/rating.page?state=TX&id=7587&s_cid=gsapi,https://www.greatschools.org/school/parentReviews.page?state=TX&id=7587&s_cid=gsapi,https://www.greatschools.org/cgi-bin/TX/otherprivate/7587,4,,,,
25,24857,Austin Oaks,charter,K-12,,Austin,TX,"1407 West Stassney Lane, 
Austin, TX  78745",(512) 633-0795,(512) 462-6665,www.utcharter.org,,30.21135,-97.792694,https://www.greatschools.org/texas/austin/24857-Austin-Oaks/?s_cid=gsapi,https://www.greatschools.org/school/rating.page?state=TX&id=24857&s_cid=gsapi,https://www.greatschools.org/school/parentReviews.page?state=TX&id=24857&s_cid=gsapi,https://www.greatschools.org/modperl/achievement/TX/24857,,70,University Of Texas University Charter School,4800071,
26,8422,Austin Peace Academy,private,PK-12,575,Austin,TX,"5110 Manor Road, 
Austin, TX  78723",(512) 926-1737,(512) 926-9688,https://www.apacademy.org/,A9904272,30.299353,-97.686516,https://www.greatschools.org/texas/austin/8422-Austin-Peace-Academy/?s_cid=gsapi,https://www.greatschools.org/school/rating.page?state=TX&id=8422&s_cid=gsapi,https://www.greatschools.org/school/parentReviews.page?state=TX&id=8422&s_cid=gsapi,https://www.greatschools.org/cgi-bin/TX/otherprivate/8422,4,,,,
27,7598,Austin SDA Junior Academy,private,K-10,,Austin,TX,"301 W Anderson Ln, 
Austin, TX  78752",(512) 459-8976,,,01329678,30.344398,-97.70773,https://www.greatschools.org/texas/austin/7598-Austin-SDA-Junior-Academy/?s_cid=gsapi,https://www.greatschools.org/school/rating.page?state=TX&id=7598&s_cid=gsapi,https://www.greatschools.org/school/parentReviews.page?state=TX&id=7598&s_cid=gsapi,https://www.greatschools.org/cgi-bin/TX/otherprivate/7598,1,,,,
28,10849,Austin St Hospital,public,PK-12,20,Austin,TX,"1111 West 6th Street, 
Austin, TX  78703",(512) 499-1700,(512) 419-2560,,480894005646,30.272375,-97.756516,https://www.greatschools.org/texas/austin/10849-Austin-St-Hospital/?s_cid=gsapi,https://www.greatschools.org/school/rating.page?state=TX&id=10849&s_cid=gsapi,https://www.greatschools.org/school/parentReviews.page?state=TX&id=10849&s_cid=gsapi,https://www.greatschools.org/modperl/achievement/TX/10849,,115,Austin Independent School District,4808940,
29,24785,Austin Village Academy,private,K-9,32,Austin,TX,"4105 Manchaca Rd., 
Austin, TX  78704",(512) 447-8516,,www.austinvillageacademy.org,,30.231419,-97.787,https://www.greatschools.org/texas/austin/24785-Austin-Village-Academy/?s_cid=gsapi,https://www.greatschools.org/school/rating.page?state=TX&id=24785&s_cid=gsapi,https://www.greatschools.org/school/parentReviews.page?state=TX&id=24785&s_cid=gsapi,https://www.greatschools.org/cgi-bin/TX/otherprivate/24785,,,,,
30,7925,Austin Waldorf School,private,K-12,388,Austin,TX,"8700 South View Road, 
Austin, TX  78737",(512) 288-5942,(512) 301-8997,,A9503923,30.231415,-97.912796,https://www.greatschools.org/texas/austin/7925-Austin-Waldorf-School/?s_cid=gsapi,https://www.greatschools.org/school/rating.page?state=TX&id=7925&s_cid=gsapi,https://www.greatschools.org/school/parentReviews.page?state=TX&id=7925&s_cid=gsapi,https://www.greatschools.org/cgi-bin/TX/otherprivate/7925,4,,,,
31,601,Bailey Middle School,public,6-8,873,Austin,TX,"4020 Lost Oasis Hollow, 
Austin, TX  78739",(512) 414-4990,(512) 292-0898,www.baileybears.org,480894005486,30.164225,-97.87242,https://www.greatschools.org/texas/austin/601-Bailey-Middle-School/?s_cid=gsapi,https://www.greatschools.org/school/rating.page?state=TX&id=601&s_cid=gsapi,https://www.greatschools.org/school/parentReviews.page?state=TX&id=601&s_cid=gsapi,https://www.greatschools.org/modperl/achievement/TX/601,3,115,Austin Independent School District,4808940,6
32,8068,Bais Menachem Hebrew Academy,private,PK-6,,Austin,TX,"2127 West Parmer Lane, 
Austin, TX  78727",(512) 977-0770,,,A9703358,30.41608,-97.69663,https://www.greatschools.org/texas/austin/8068-Bais-Menachem-Hebrew-Academy/?s_cid=gsapi,https://www.greatschools.org/school/rating.page?state=TX&id=8068&s_cid=gsapi,https://www.greatschools.org/school/parentReviews.page?state=TX&id=8068&s_cid=gsapi,https://www.greatschools.org/cgi-bin/TX/otherprivate/8068,5,,,,
33,10790,Baldwin Elementary School,public,PK-5,742,Austin,TX,"12200 Meridian Park Boulevard, 
Austin, TX  78739",(512) 841-8900,(512) 841-8901,http://www.baldwinpta.org/,480894011064,30.18489,-97.923454,https://www.greatschools.org/texas/austin/10790-Baldwin-Elementary-School/?s_cid=gsapi,https://www.greatschools.org/school/rating.page?state=TX&id=10790&s_cid=gsapi,https://www.greatschools.org/school/parentReviews.page?state=TX&id=10790&s_cid=gsapi,https://www.greatschools.org/modperl/achievement/TX/10790,4,115,Austin Independent School District,4808940,8
34,7781,Bannockburn Christian Academy,private,PK-5,100,Austin,TX,"7100 Brodie Ln, 
Austin, TX  78745",(512) 892-2706,(512) 899-1161,www.bcaaustin.org,A9106430,30.212337,-97.8324,https://www.greatschools.org/texas/austin/7781-Bannockburn-Christian-Academy/?s_cid=gsapi,https://www.greatschools.org/school/rating.page?state=TX&id=7781&s_cid=gsapi,https://www.greatschools.org/school/parentReviews.page?state=TX&id=7781&s_cid=gsapi,https://www.greatschools.org/cgi-bin/TX/otherprivate/7781,4,,,,
35,8618,Baranoff Elementary School,public,PK-5,994,Austin,TX,"12009 Buckingham Gate Road, 
Austin, TX  78748",(512) 841-7100,(512) 841-7104,http://www.baranoffschool.org/,480894008393,30.153902,-97.852165,https://www.greatschools.org/texas/austin/8618-Baranoff-Elementary-School/?s_cid=gsapi,https://www.greatschools.org/school/rating.page?state=TX&id=8618&s_cid=gsapi,https://www.greatschools.org/school/parentReviews.page?state=TX&id=8618&s_cid=gsapi,https://www.greatschools.org/modperl/achievement/TX/8618,4,115,Austin Independent School District,4808940,9
36,523,Barrington Elementary School,public,PK-6,588,Austin,TX,"400 Cooper Drive, 
Austin, TX  78753",(512) 414-2008,(512) 836-4077,http://molliebarringtonschool.weebly.com/,480894000296,30.360529,-97.69607,https://www.greatschools.org/texas/austin/523-Barrington-Elementary-School/?s_cid=gsapi,https://www.greatschools.org/school/rating.page?state=TX&id=523&s_cid=gsapi,https://www.greatschools.org/school/parentReviews.page?state=TX&id=523&s_cid=gsapi,https://www.greatschools.org/modperl/achievement/TX/523,3,115,Austin Independent School District,4808940,4
37,2209,Barton Creek Elementary School,public,K-5,511,Austin,TX,"1370 Patterson Road, 
Austin, TX  78733",(512) 732-9180,(512) 732-9189,,481776021527,30.303408,-97.87958,https://www.greatschools.org/texas/austin/2209-Barton-Creek-Elementary-School/?s_cid=gsapi,https://www.greatschools.org/school/rating.page?state=TX&id=2209&s_cid=gsapi,https://www.greatschools.org/school/parentReviews.page?state=TX&id=2209&s_cid=gsapi,https://www.greatschools.org/modperl/achievement/TX/2209,4,342,Eanes Independent School District,4817760,10
38,524,Barton Hills Elementary School,public,PK-6,419,Austin,TX,"2108 Barton Hills Drive, 
Austin, TX  78704",(512) 414-2013,(512) 841-3849,http://bheeagles.com/,480894000297,30.254395,-97.783356,https://www.greatschools.org/texas/austin/524-Barton-Hills-Elementary-School/?s_cid=gsapi,https://www.greatschools.org/school/rating.page?state=TX&id=524&s_cid=gsapi,https://www.greatschools.org/school/parentReviews.page?state=TX&id=524&s_cid=gsapi,https://www.greatschools.org/modperl/achievement/TX/524,4,115,Austin Independent School District,4808940,9
39,2035,Baty Elementary School,public,PK-5,802,Austin,TX,"2101 Faro Drive, 
Austin, TX  78741",(512) 386-3450,(512) 386-3455,www.dvisd.net,481662006091,30.227068,-97.712814,https://www.greatschools.org/texas/austin/2035-Baty-Elementary-School/?s_cid=gsapi,https://www.greatschools.org/school/rating.page?state=TX&id=2035&s_cid=gsapi,https://www.greatschools.org/school/parentReviews.page?state=TX&id=2035&s_cid=gsapi,https://www.greatschools.org/modperl/achievement/TX/2035,3,315,Del Valle Independent School District,4816620,3
40,525,Becker Elementary School,public,PK-5,344,Austin,TX,"906 West Milton Street, 
Austin, TX  78704",(512) 414-2019,(512) 442-1759,http://www.beckerelementary.com/,480894000298,30.250395,-97.75945,https://www.greatschools.org/texas/austin/525-Becker-Elementary-School/?s_cid=gsapi,https://www.greatschools.org/school/rating.page?state=TX&id=525&s_cid=gsapi,https://www.greatschools.org/school/parentReviews.page?state=TX&id=525&s_cid=gsapi,https://www.greatschools.org/modperl/achievement/TX/525,4,115,Austin Independent School District,4808940,7
41,526,Bedichek Middle School,public,6-8,969,Austin,TX,"6800 Bill Hughes Road, 
Austin, TX  78745",(512) 414-3265,(512) 444-4382,http://www.bedichekbobcats.org/,480894000299,30.196163,-97.78622,https://www.greatschools.org/texas/austin/526-Bedichek-Middle-School/?s_cid=gsapi,https://www.greatschools.org/school/rating.page?state=TX&id=526&s_cid=gsapi,https://www.greatschools.org/school/parentReviews.page?state=TX&id=526&s_cid=gsapi,https://www.greatschools.org/modperl/achievement/TX/526,4,115,Austin Independent School District,4808940,2
42,8717,Bee Cave Elementary School,public,PK-5,623,Austin,TX,"3322 Ranch Road 620 South, 
Austin, TX  78738",(512) 533-6250,(512) 533-6251,,482647008395,30.328274,-97.97106,https://www.greatschools.org/texas/austin/8717-Bee-Cave-Elementary-School/?s_cid=gsapi,https://www.greatschools.org/school/rating.page?state=TX&id=8717&s_cid=gsapi,https://www.greatschools.org/school/parentReviews.page?state=TX&id=8717&s_cid=gsapi,https://www.greatschools.org/modperl/achievement/TX/8717,4,583,Lake Travis Independent School District,4826470,8
43,527,Blackshear Elementary School,public,PK-5,302,Austin,TX,"1712 East 11th Street, 
Austin, TX  78702",(512) 414-2021,(512) 477-7640,http://www.blackshearyellowjackets.org/,480894000300,30.266968,-97.72217,https://www.greatschools.org/texas/austin/527-Blackshear-Elementary-School/?s_cid=gsapi,https://www.greatschools.org/school/rating.page?state=TX&id=527&s_cid=gsapi,https://www.greatschools.org/school/parentReviews.page?state=TX&id=527&s_cid=gsapi,https://www.greatschools.org/modperl/achievement/TX/527,5,115,Austin Independent School District,4808940,8
44,528,Blanton Elementary School,public,PK-6,542,Austin,TX,"5408 Westminster Drive, 
Austin, TX  78723",(512) 414-2026,(512) 926-8553,,480894000301,30.30693,-97.69063,https://www.greatschools.org/texas/austin/528-Blanton-Elementary-School/?s_cid=gsapi,https://www.greatschools.org/school/rating.page?state=TX&id=528&s_cid=gsapi,https://www.greatschools.org/school/parentReviews.page?state=TX&id=528&s_cid=gsapi,https://www.greatschools.org/modperl/achievement/TX/528,4,115,Austin Independent School District,4808940,5
45,10788,Blazier Elementary School,public,PK-5,967,Austin,TX,"8601 Nuckols Crossing Road, 
Austin, TX  78744",(512) 841-8800,(512) 841-8801,,480894011062,30.158,-97.754295,https://www.greatschools.org/texas/austin/10788-Blazier-Elementary-School/?s_cid=gsapi,https://www.greatschools.org/school/rating.page?state=TX&id=10788&s_cid=gsapi,https://www.greatschools.org/school/parentReviews.page?state=TX&id=10788&s_cid=gsapi,https://www.greatschools.org/modperl/achievement/TX/10788,3,115,Austin Independent School District,4808940,7
46,16170,Bluebonnet Montessori School of Lakeway,private,PK-3,58,Austin,TX,"15099 Debba Drive, 
Austin, TX  78734",(512) 266-6626,,http://www.bluebonnetmontessori.com,A0771730,30.373077,-97.93844,https://www.greatschools.org/texas/austin/16170-Bluebonnet-Montessori-School-Of-Lakeway/?s_cid=gsapi,https://www.greatschools.org/school/rating.page?state=TX&id=16170&s_cid=gsapi,https://www.greatschools.org/school/parentReviews.page?state=TX&id=16170&s_cid=gsapi,https://www.greatschools.org/cgi-bin/TX/otherprivate/16170,5,,,,
47,4570,Bluebonnet Trail Elementary School,public,PK-5,496,Austin,TX,"11316 Farmhaven Road, 
Austin, TX  78754",(512) 278-4125,(512) 278-4140,bte.manorisd.net,482889005491,30.35188,-97.6174,https://www.greatschools.org/texas/austin/4570-Bluebonnet-Trail-Elementary-School/?s_cid=gsapi,https://www.greatschools.org/school/rating.page?state=TX&id=4570&s_cid=gsapi,https://www.greatschools.org/school/parentReviews.page?state=TX&id=4570&s_cid=gsapi,https://www.greatschools.org/modperl/achievement/TX/4570,3,646,Manor Independent School District,4828890,6
48,608,Boone Elementary School,public,PK-5,499,Austin,TX,"8101 Croftwood Drive, 
Austin, TX  78749",(512) 414-2537,(512) 280-3307,http://boone.austinschools.org/,480894006210,30.203724,-97.840225,https://www.greatschools.org/texas/austin/608-Boone-Elementary-School/?s_cid=gsapi,https://www.greatschools.org/school/rating.page?state=TX&id=608&s_cid=gsapi,https://www.greatschools.org/school/parentReviews.page?state=TX&id=608&s_cid=gsapi,https://www.greatschools.org/modperl/achievement/TX/608,4,115,Austin Independent School District,4808940,8
49,613,Bowie High School,public,9-12,2871,Austin,TX,"4103 West Slaughter Lane, 
Austin, TX  78749",(512) 414-5247,(512) 292-0527,,480894006508,30.186369,-97.85873,https://www.greatschools.org/texas/austin/613-Bowie-High-School/?s_cid=gsapi,https://www.greatschools.org/school/rating.page?state=TX&id=613&s_cid=gsapi,https://www.greatschools.org/school/parentReviews.page?state=TX&id=613&s_cid=gsapi,https://www.greatschools.org/modperl/achievement/TX/613,4,115,Austin Independent School District,4808940,9
50,12308,Boys Menachem Hebrew Academy,private,PK-8,,Austin,TX,"7010 Village Center Dr, 
Austin, TX  78731",(512) 343-2500,,,A0503443,30.35242,-97.7568,https://www.greatschools.org/texas/austin/12308-Boys-Menachem-Hebrew-Academy/?s_cid=gsapi,https://www.greatschools.org/school/rating.page?state=TX&id=12308&s_cid=gsapi,https://www.greatschools.org/school/parentReviews.page?state=TX&id=12308&s_cid=gsapi,https://www.greatschools.org/cgi-bin/TX/otherprivate/12308,,,,,
51,8479,Brentwood Christian School,private,PK-12,756,Austin,TX,"11908 N Lamar Blvd, 
Austin, TX  78753",(512) 835-5983,(512) 835-2184,http://www.brentwoodchristian.org/,X1328754,30.39087,-97.68241,https://www.greatschools.org/texas/austin/8479-Brentwood-Christian-School/?s_cid=gsapi,https://www.greatschools.org/school/rating.page?state=TX&id=8479&s_cid=gsapi,https://www.greatschools.org/school/parentReviews.page?state=TX&id=8479&s_cid=gsapi,https://www.greatschools.org/cgi-bin/TX/otherprivate/8479,5,,,,
52,12499,Brentwood Christian Secondary School,private,10-12,,Austin,TX,"11908 N Lamar Blvd, 
Austin, TX  78753",(512) 835-5983,(512) 835-2184,,,30.39087,-97.68241,https://www.greatschools.org/texas/austin/12499-Brentwood-Christian-Secondary-School/?s_cid=gsapi,https://www.greatschools.org/school/rating.page?state=TX&id=12499&s_cid=gsapi,https://www.greatschools.org/school/parentReviews.page?state=TX&id=12499&s_cid=gsapi,https://www.greatschools.org/cgi-bin/TX/otherprivate/12499,5,,,,
53,529,Brentwood Elementary School,public,PK-5,581,Austin,TX,"6700 Arroyo Seco, 
Austin, TX  78757",(512) 414-2039,(512) 453-8928,http://archive.austinisd.org/schools/details.phtml?id=051,480894000302,30.33964,-97.731445,https://www.greatschools.org/texas/austin/529-Brentwood-Elementary-School/?s_cid=gsapi,https://www.greatschools.org/school/rating.page?state=TX&id=529&s_cid=gsapi,https://www.greatschools.org/school/parentReviews.page?state=TX&id=529&s_cid=gsapi,https://www.greatschools.org/modperl/achievement/TX/529,4,115,Austin Independent School District,4808940,7
54,2208,Bridge Point El,public,K-5,744,Austin,TX,"6401 Cedar Street, 
Austin, TX  78746",(512) 732-9200,(512) 732-9209,,481776007742,30.340866,-97.80639,https://www.greatschools.org/texas/austin/2208-Bridge-Point-El/?s_cid=gsapi,https://www.greatschools.org/school/rating.page?state=TX&id=2208&s_cid=gsapi,https://www.greatschools.org/school/parentReviews.page?state=TX&id=2208&s_cid=gsapi,https://www.greatschools.org/modperl/achievement/TX/2208,5,342,Eanes Independent School District,4817760,10
55,530,Brooke Elementary School,public,PK-5,347,Austin,TX,"3100 East 4th Street, 
Austin, TX  78702",(512) 414-2043,(512) 385-3862,http://www.brookeelementary.org/,480894000303,30.254822,-97.70851,https://www.greatschools.org/texas/austin/530-Brooke-Elementary-School/?s_cid=gsapi,https://www.greatschools.org/school/rating.page?state=TX&id=530&s_cid=gsapi,https://www.greatschools.org/school/parentReviews.page?state=TX&id=530&s_cid=gsapi,https://www.greatschools.org/modperl/achievement/TX/530,3,115,Austin Independent School District,4808940,3
56,531,Brown Elementary School,public,PK-6,411,Austin,TX,"505 West Anderson Lane, 
Austin, TX  78752",(512) 414-2047,(512) 452-6097,http://tabrown.austinschools.org/,480894000304,30.344769,-97.71034,https://www.greatschools.org/texas/austin/531-Brown-Elementary-School/?s_cid=gsapi,https://www.greatschools.org/school/rating.page?state=TX&id=531&s_cid=gsapi,https://www.greatschools.org/school/parentReviews.page?state=TX&id=531&s_cid=gsapi,https://www.greatschools.org/modperl/achievement/TX/531,3,115,Austin Independent School District,4808940,4
57,532,Bryker Woods Elementary School,public,PK-6,393,Austin,TX,"3309 Kerbey Lane, 
Austin, TX  78703",(512) 414-2054,(512) 459-9047,https://brykerwoodspta.org/,480894000305,30.304869,-97.750626,https://www.greatschools.org/texas/austin/532-Bryker-Woods-Elementary-School/?s_cid=gsapi,https://www.greatschools.org/school/rating.page?state=TX&id=532&s_cid=gsapi,https://www.greatschools.org/school/parentReviews.page?state=TX&id=532&s_cid=gsapi,https://www.greatschools.org/modperl/achievement/TX/532,5,115,Austin Independent School District,4808940,9
58,533,Burnet Middle School,public,6-8,1138,Austin,TX,"8401 Hathaway Drive, 
Austin, TX  78757",(512) 414-3225,(512) 452-0695,http://burnet.austinschools.org/,480894000306,30.365074,-97.7256,https://www.greatschools.org/texas/austin/533-Burnet-Middle-School/?s_cid=gsapi,https://www.greatschools.org/school/rating.page?state=TX&id=533&s_cid=gsapi,https://www.greatschools.org/school/parentReviews.page?state=TX&id=533&s_cid=gsapi,https://www.greatschools.org/modperl/achievement/TX/533,3,115,Austin Independent School District,4808940,2
59,534,Campbell Elementary School,public,PK-5,253,Austin,TX,"2613 Rogers Avenue, 
Austin, TX  78722",(512) 414-2056,(512) 476-9248,,480894000307,30.282291,-97.71334,https://www.greatschools.org/texas/austin/534-Campbell-Elementary-School/?s_cid=gsapi,https://www.greatschools.org/school/rating.page?state=TX&id=534&s_cid=gsapi,https://www.greatschools.org/school/parentReviews.page?state=TX&id=534&s_cid=gsapi,https://www.greatschools.org/modperl/achievement/TX/534,4,115,Austin Independent School District,4808940,4
60,5901,Canyon Creek Elementary School,public,PK-5,436,Austin,TX,"10210 Ember Glen Drive, 
Austin, TX  78726",(512) 428-2800,(512) 428-2890,schools.roundrockisd.org/canyoncreek/,483808008087,30.436604,-97.82424,https://www.greatschools.org/texas/austin/5901-Canyon-Creek-Elementary-School/?s_cid=gsapi,https://www.greatschools.org/school/rating.page?state=TX&id=5901&s_cid=gsapi,https://www.greatschools.org/school/parentReviews.page?state=TX&id=5901&s_cid=gsapi,https://www.greatschools.org/modperl/achievement/TX/5901,5,870,Round Rock Independent School District,4838080,10
61,10132,Canyon Ridge Middle School,public,6-8,1270,Austin,TX,"12601 Country Trails Lane, 
Austin, TX  78732",(512) 570-3500,(512) 570-3505,http://crms.leanderisd.org/,482703011110,30.365335,-97.90305,https://www.greatschools.org/texas/austin/10132-Canyon-Ridge-Middle-School/?s_cid=gsapi,https://www.greatschools.org/school/rating.page?state=TX&id=10132&s_cid=gsapi,https://www.greatschools.org/school/parentReviews.page?state=TX&id=10132&s_cid=gsapi,https://www.greatschools.org/modperl/achievement/TX/10132,4,596,Leander Independent School District,4827030,10
62,5885,Canyon Vista Middle School,public,6-8,1377,Austin,TX,"8455 Spicewood Springs Road, 
Austin, TX  78759",(512) 464-8100,(512) 464-8210,schools.roundrockisd.org/canyonvista/,483808006034,30.428354,-97.78429,https://www.greatschools.org/texas/austin/5885-Canyon-Vista-Middle-School/?s_cid=gsapi,https://www.greatschools.org/school/rating.page?state=TX&id=5885&s_cid=gsapi,https://www.greatschools.org/school/parentReviews.page?state=TX&id=5885&s_cid=gsapi,https://www.greatschools.org/modperl/achievement/TX/5885,4,870,Round Rock Independent School District,4838080,10
63,19670,Capitol City Baptist Church,private,K-6,,Austin,TX,"1300 Redd St, 
Austin, TX  78745",(512) 447-9454,,,A9904181,30.224003,-97.78243,https://www.greatschools.org/texas/austin/19670-Capitol-City-Baptist-Church/?s_cid=gsapi,https://www.greatschools.org/school/rating.page?state=TX&id=19670&s_cid=gsapi,https://www.greatschools.org/school/parentReviews.page?state=TX&id=19670&s_cid=gsapi,https://www.greatschools.org/cgi-bin/TX/otherprivate/19670,,,,,
64,12241,Capitol School Of Austin,private,PK-4,40,Austin,TX,"2011 West Koenig Lane, 
Austin, TX  78756",(512) 467-7006,(512) 467-7025,http://www.capitolschool.com,A0503376,30.333742,-97.73906,https://www.greatschools.org/texas/austin/12241-Capitol-School-Of-Austin/?s_cid=gsapi,https://www.greatschools.org/school/rating.page?state=TX&id=12241&s_cid=gsapi,https://www.greatschools.org/school/parentReviews.page?state=TX&id=12241&s_cid=gsapi,https://www.greatschools.org/cgi-bin/TX/otherprivate/12241,5,,,,
65,8616,Casey Elementary School,public,PK-5,625,Austin,TX,"9400 Texas Oaks Drive, 
Austin, TX  78748",(512) 841-6900,(512) 841-6925,www.caseycrocodiles.com,480894008391,30.177267,-97.81461,https://www.greatschools.org/texas/austin/8616-Casey-Elementary-School/?s_cid=gsapi,https://www.greatschools.org/school/rating.page?state=TX&id=8616&s_cid=gsapi,https://www.greatschools.org/school/parentReviews.page?state=TX&id=8616&s_cid=gsapi,https://www.greatschools.org/modperl/achievement/TX/8616,4,115,Austin Independent School District,4808940,4
66,535,Casis Elementary School,public,PK-5,806,Austin,TX,"2710 Exposition Boulevard, 
Austin, TX  78703",(512) 414-2062,(512) 477-1776,http://casiselementary.com/,480894000308,30.304344,-97.76505,https://www.greatschools.org/texas/austin/535-Casis-Elementary-School/?s_cid=gsapi,https://www.greatschools.org/school/rating.page?state=TX&id=535&s_cid=gsapi,https://www.greatschools.org/school/parentReviews.page?state=TX&id=535&s_cid=gsapi,https://www.greatschools.org/modperl/achievement/TX/535,5,115,Austin Independent School District,4808940,10
67,12290,Casner Christian Academy,private,PK-1,84,Austin,TX,"3838 Steck Avenue, 
Austin, TX  78759",(512) 453-6605,,,A0503418,30.373693,-97.75005,https://www.greatschools.org/texas/austin/12290-Casner-Christian-Academy/?s_cid=gsapi,https://www.greatschools.org/school/rating.page?state=TX&id=12290&s_cid=gsapi,https://www.greatschools.org/school/parentReviews.page?state=TX&id=12290&s_cid=gsapi,https://www.greatschools.org/cgi-bin/TX/otherprivate/12290,,,,,
68,7301,Cathedral School Of St Mary,private,PK-8,188,Austin,TX,"910 San Jacinto Boulevard, 
Austin, TX  78701",(512) 476-1480,(512) 476-9922,,01323304,30.270283,-97.73932,https://www.greatschools.org/texas/austin/7301-Cathedral-School-Of-St-Mary/?s_cid=gsapi,https://www.greatschools.org/school/rating.page?state=TX&id=7301&s_cid=gsapi,https://www.greatschools.org/school/parentReviews.page?state=TX&id=7301&s_cid=gsapi,https://www.greatschools.org/cgi-bin/TX/otherprivate/7301,4,,,,
69,2201,Cedar Creek Elementary School,public,K-5,474,Austin,TX,"3301 Pinnacle Road, 
Austin, TX  78746",(512) 732-9120,(512) 732-9129,http://cce.eanesisd.net/,481776001546,30.269161,-97.80487,https://www.greatschools.org/texas/austin/2201-Cedar-Creek-Elementary-School/?s_cid=gsapi,https://www.greatschools.org/school/rating.page?state=TX&id=2201&s_cid=gsapi,https://www.greatschools.org/school/parentReviews.page?state=TX&id=2201&s_cid=gsapi,https://www.greatschools.org/modperl/achievement/TX/2201,5,342,Eanes Independent School District,4817760,9
70,5880,Cedar Valley Middle School,public,6-8,1314,Austin,TX,"8139 Racine Trail, 
Austin, TX  78717",(512) 428-2300,(512) 428-2420,schools.roundrockisd.org/cedarvalley/,483808005611,30.492628,-97.73422,https://www.greatschools.org/texas/austin/5880-Cedar-Valley-Middle-School/?s_cid=gsapi,https://www.greatschools.org/school/rating.page?state=TX&id=5880&s_cid=gsapi,https://www.greatschools.org/school/parentReviews.page?state=TX&id=5880&s_cid=gsapi,https://www.greatschools.org/modperl/achievement/TX/5880,4,870,Round Rock Independent School District,4838080,10
71,25310,Cedars Academy Next Generation H S at Highland,charter,8-12,,Austin,TX,"6700 Middle Fiskville Road, 
Austin, TX  78752",(512) 956-4406,(512) 505-8452,cedars-academy.org,,30.329008,-97.707436,https://www.greatschools.org/texas/austin/25310-Cedars-Academy-Next-Generation-H-S-At-Highland/?s_cid=gsapi,https://www.greatschools.org/school/rating.page?state=TX&id=25310&s_cid=gsapi,https://www.greatschools.org/school/parentReviews.page?state=TX&id=25310&s_cid=gsapi,https://www.greatschools.org/modperl/achievement/TX/25310,,1274,Cedars International Academy,4800232,8
72,9144,Cedars International Academy,charter,PK-7,392,Austin,TX,"8416 North Interstate Highway 35, 
Austin, TX  78753",(512) 419-1551 x316,(512) 419-1581,http://www.cedars-academy.org,480023209075,30.348295,-97.695366,https://www.greatschools.org/texas/austin/9144-Cedars-International-Academy/?s_cid=gsapi,https://www.greatschools.org/school/rating.page?state=TX&id=9144&s_cid=gsapi,https://www.greatschools.org/school/parentReviews.page?state=TX&id=9144&s_cid=gsapi,https://www.greatschools.org/modperl/achievement/TX/9144,4,1274,Cedars International Academy,4800232,3
73,13016,Cedars Montessori School,private,n/a,,Austin,TX,"9704 Circle Drive, 
Austin, TX  78736",(512) 228-1245,,http://www.cedarsmontessori.com/,A0790163,30.244003,-97.923386,https://www.greatschools.org/texas/austin/13016-Cedars-Montessori-School/?s_cid=gsapi,https://www.greatschools.org/school/rating.page?state=TX&id=13016&s_cid=gsapi,https://www.greatschools.org/school/parentReviews.page?state=TX&id=13016&s_cid=gsapi,https://www.greatschools.org/cgi-bin/TX/otherprivate/13016,4,,,,
74,25196,Challenger School - Avery Ranch,private,PK-5,,Austin,TX,"15101 Avery Ranch Boulevard, 
Austin, TX  78717",(512) 341-8000,,http://www.challengerschool.com/contact_campus.php?id=51,,30.497791,-97.773125,https://www.greatschools.org/texas/austin/25196-Challenger-School---Avery-Ranch/?s_cid=gsapi,https://www.greatschools.org/school/rating.page?state=TX&id=25196&s_cid=gsapi,https://www.greatschools.org/school/parentReviews.page?state=TX&id=25196&s_cid=gsapi,https://www.greatschools.org/cgi-bin/TX/otherprivate/25196,,,,,
75,99,Chaparral Star Academy,charter,K-12,388,Austin,TX,"14046 Summit Drive, 
Austin, TX  78728",(512) 989-2672,(512) 251-9799,www.chaparralstaracademy.com,480006408059,30.43782,-97.691895,https://www.greatschools.org/texas/austin/99-Chaparral-Star-Academy/?s_cid=gsapi,https://www.greatschools.org/school/rating.page?state=TX&id=99&s_cid=gsapi,https://www.greatschools.org/school/parentReviews.page?state=TX&id=99&s_cid=gsapi,https://www.greatschools.org/modperl/achievement/TX/99,4,63,Chaparral Star Academy,4800064,9
76,12235,City School,private,PK-6,90,Austin,TX,"1844 Teri Rd, 
Austin, TX  78741",(512) 416-7744,,www.cityschooltexas.com,A0503465,30.204332,-97.75476,https://www.greatschools.org/texas/austin/12235-City-School/?s_cid=gsapi,https://www.greatschools.org/school/rating.page?state=TX&id=12235&s_cid=gsapi,https://www.greatschools.org/school/parentReviews.page?state=TX&id=12235&s_cid=gsapi,https://www.greatschools.org/cgi-bin/TX/otherprivate/12235,5,,,,
77,10787,Clayton Elementary School,public,PK-5,881,Austin,TX,"7525 La Crosse Avenue, 
Austin, TX  78739",(512) 841-9200,,http://claytoncardinals.org/,480894011061,30.194855,-97.906334,https://www.greatschools.org/texas/austin/10787-Clayton-Elementary-School/?s_cid=gsapi,https://www.greatschools.org/school/rating.page?state=TX&id=10787&s_cid=gsapi,https://www.greatschools.org/school/parentReviews.page?state=TX&id=10787&s_cid=gsapi,https://www.greatschools.org/modperl/achievement/TX/10787,5,115,Austin Independent School District,4808940,10
78,20125,Clearview Sudbury School,private,K-12,32,Austin,TX,"1507 Wilshire Blvd., 
Austin, TX  78722",(512) 524-0085,,http://clearviewsudburyschool.org/,,30.29586,-97.71111,https://www.greatschools.org/texas/austin/20125-Clearview-Sudbury-School/?s_cid=gsapi,https://www.greatschools.org/school/rating.page?state=TX&id=20125&s_cid=gsapi,https://www.greatschools.org/school/parentReviews.page?state=TX&id=20125&s_cid=gsapi,https://www.greatschools.org/cgi-bin/TX/otherprivate/20125,5,,,,
79,536,Cook Elementary School,public,PK-5,643,Austin,TX,"1511 Cripple Creek Drive, 
Austin, TX  78758",(512) 414-2510,(512) 837-5983,,480894000309,30.378002,-97.70482,https://www.greatschools.org/texas/austin/536-Cook-Elementary-School/?s_cid=gsapi,https://www.greatschools.org/school/rating.page?state=TX&id=536&s_cid=gsapi,https://www.greatschools.org/school/parentReviews.page?state=TX&id=536&s_cid=gsapi,https://www.greatschools.org/modperl/achievement/TX/536,3,115,Austin Independent School District,4808940,5
80,5424,Copperfield Elementary School,public,PK-5,481,Austin,TX,"12135 Thompkins Drive, 
Austin, TX  78753",(512) 594-5800,(512) 594-5805,http://www.pfisd.net/Page/468,483483008065,30.388332,-97.65998,https://www.greatschools.org/texas/austin/5424-Copperfield-Elementary-School/?s_cid=gsapi,https://www.greatschools.org/school/rating.page?state=TX&id=5424&s_cid=gsapi,https://www.greatschools.org/school/parentReviews.page?state=TX&id=5424&s_cid=gsapi,https://www.greatschools.org/modperl/achievement/TX/5424,4,793,Pflugerville Independent School District,4834830,6
81,606,Covington Middle School,public,6-8,634,Austin,TX,"3700 Convict Hill Road, 
Austin, TX  78749",(512) 414-3276,(512) 892-4547,covingtoncolts.org   twitter @covington_colts,480894006208,30.211359,-97.83413,https://www.greatschools.org/texas/austin/606-Covington-Middle-School/?s_cid=gsapi,https://www.greatschools.org/school/rating.page?state=TX&id=606&s_cid=gsapi,https://www.greatschools.org/school/parentReviews.page?state=TX&id=606&s_cid=gsapi,https://www.greatschools.org/modperl/achievement/TX/606,4,115,Austin Independent School District,4808940,5
82,9146,Cowan Elementary School,public,PK-5,800,Austin,TX,"2817 Kentish Drive, 
Austin, TX  78748",(512) 841-2700,(512) 841-2755,http://www.cowancoyotes.org/,480894008940,30.188688,-97.83348,https://www.greatschools.org/texas/austin/9146-Cowan-Elementary-School/?s_cid=gsapi,https://www.greatschools.org/school/rating.page?state=TX&id=9146&s_cid=gsapi,https://www.greatschools.org/school/parentReviews.page?state=TX&id=9146&s_cid=gsapi,https://www.greatschools.org/modperl/achievement/TX/9146,4,115,Austin Independent School District,4808940,9
83,11843,Creedmoor Elementary School,public,PK-5,709,Austin,TX,"5604 Farm to Market Road 1327, 
Austin, TX  78747",(512) 386-3950,(512) 386-3955,www.dvisd.net,481662011360,30.090845,-97.72035,https://www.greatschools.org/texas/austin/11843-Creedmoor-Elementary-School/?s_cid=gsapi,https://www.greatschools.org/school/rating.page?state=TX&id=11843&s_cid=gsapi,https://www.greatschools.org/school/parentReviews.page?state=TX&id=11843&s_cid=gsapi,https://www.greatschools.org/modperl/achievement/TX/11843,4,315,Del Valle Independent School District,4816620,3
84,537,Crockett High School,public,9-12,1498,Austin,TX,"5601 Manchaca Road, 
Austin, TX  78745",(512) 414-2532,(512) 447-0489,,480894000310,30.214724,-97.79739,https://www.greatschools.org/texas/austin/537-Crockett-High-School/?s_cid=gsapi,https://www.greatschools.org/school/rating.page?state=TX&id=537&s_cid=gsapi,https://www.greatschools.org/school/parentReviews.page?state=TX&id=537&s_cid=gsapi,https://www.greatschools.org/modperl/achievement/TX/537,4,115,Austin Independent School District,4808940,4
85,538,Cunningham Elementary School,public,PK-5,405,Austin,TX,"2200 Berkeley Avenue, 
Austin, TX  78745",(512) 414-2067,(512) 441-6006,http://www.austinschools.org/campus/cunningham/,480894000311,30.210476,-97.80581,https://www.greatschools.org/texas/austin/538-Cunningham-Elementary-School/?s_cid=gsapi,https://www.greatschools.org/school/rating.page?state=TX&id=538&s_cid=gsapi,https://www.greatschools.org/school/parentReviews.page?state=TX&id=538&s_cid=gsapi,https://www.greatschools.org/modperl/achievement/TX/538,4,115,Austin Independent School District,4808940,2
86,18842,Daep- El,public,PK-6,10,Austin,TX,"906 West Milton Street, 
Austin, TX  78704",(512) 414-2074,(512) 472-9029,,480894006356,30.250395,-97.75945,https://www.greatschools.org/texas/austin/18842-Daep--El/?s_cid=gsapi,https://www.greatschools.org/school/rating.page?state=TX&id=18842&s_cid=gsapi,https://www.greatschools.org/school/parentReviews.page?state=TX&id=18842&s_cid=gsapi,https://www.greatschools.org/modperl/achievement/TX/18842,1,115,Austin Independent School District,4808940,
87,19852,Dailey Middle School,public,6-8,706,Austin,TX,"14000 Westall Street, 
Austin, TX  78725",(512) 386-3600,(512) 386-3630,www.dvisd.net,481662012337,30.243408,-97.59058,https://www.greatschools.org/texas/austin/19852-Dailey-Middle-School/?s_cid=gsapi,https://www.greatschools.org/school/rating.page?state=TX&id=19852&s_cid=gsapi,https://www.greatschools.org/school/parentReviews.page?state=TX&id=19852&s_cid=gsapi,https://www.greatschools.org/modperl/achievement/TX/19852,2,315,Del Valle Independent School District,4816620,3
88,595,Davis Elementary School,public,PK-5,739,Austin,TX,"5214 Duval Road, 
Austin, TX  78727",(512) 414-2580,(512) 346-7384,http://www.austinisd.org/,480894002775,30.418247,-97.74218,https://www.greatschools.org/texas/austin/595-Davis-Elementary-School/?s_cid=gsapi,https://www.greatschools.org/school/rating.page?state=TX&id=595&s_cid=gsapi,https://www.greatschools.org/school/parentReviews.page?state=TX&id=595&s_cid=gsapi,https://www.greatschools.org/modperl/achievement/TX/595,5,115,Austin Independent School District,4808940,6
89,539,Dawson Elementary School,public,PK-5,335,Austin,TX,"3001 South 1st Street, 
Austin, TX  78704",(512) 414-2070,(512) 442-5765,http://www.austinisd.org/schools/dawson,480894000312,30.234062,-97.76337,https://www.greatschools.org/texas/austin/539-Dawson-Elementary-School/?s_cid=gsapi,https://www.greatschools.org/school/rating.page?state=TX&id=539&s_cid=gsapi,https://www.greatschools.org/school/parentReviews.page?state=TX&id=539&s_cid=gsapi,https://www.greatschools.org/modperl/achievement/TX/539,4,115,Austin Independent School District,4808940,6
90,8733,Decker Elementary School,public,K-5,724,Austin,TX,"8500 Decker Lane, 
Austin, TX  78724",(512) 278-4150,(512) 278-4174,des.manorisd.net/,482889008394,30.311619,-97.6169,https://www.greatschools.org/texas/austin/8733-Decker-Elementary-School/?s_cid=gsapi,https://www.greatschools.org/school/rating.page?state=TX&id=8733&s_cid=gsapi,https://www.greatschools.org/school/parentReviews.page?state=TX&id=8733&s_cid=gsapi,https://www.greatschools.org/modperl/achievement/TX/8733,4,646,Manor Independent School District,4828890,4
91,5894,Deerpark Middle School,public,6-8,935,Austin,TX,"8849 Anderson Mill Road, 
Austin, TX  78729",(512) 464-6600,(512) 464-6740,schools.roundrockisd.org/deerpark/,483808006606,30.452366,-97.77288,https://www.greatschools.org/texas/austin/5894-Deerpark-Middle-School/?s_cid=gsapi,https://www.greatschools.org/school/rating.page?state=TX&id=5894&s_cid=gsapi,https://www.greatschools.org/school/parentReviews.page?state=TX&id=5894&s_cid=gsapi,https://www.greatschools.org/modperl/achievement/TX/5894,4,870,Round Rock Independent School District,4838080,6
92,9931,Delco Primary School,public,PK-2,554,Austin,TX,"12900 Dessau Road, 
Austin, TX  78754",(512) 594-6200,(512) 594-6205,,483483009411,30.397984,-97.64358,https://www.greatschools.org/texas/austin/9931-Delco-Primary-School/?s_cid=gsapi,https://www.greatschools.org/school/rating.page?state=TX&id=9931&s_cid=gsapi,https://www.greatschools.org/school/parentReviews.page?state=TX&id=9931&s_cid=gsapi,https://www.greatschools.org/modperl/achievement/TX/9931,4,793,Pflugerville Independent School District,4834830,
93,24678,Dell Children's Medical Center,public,PK-12,3,Austin,TX,"4900 Mueller Boulevard, 
Austin, TX  78723",(512) 324-0000,,,,30.303455,-97.707344,https://www.greatschools.org/texas/austin/24678-Dell-Children's-Medical-Center/?s_cid=gsapi,https://www.greatschools.org/school/rating.page?state=TX&id=24678&s_cid=gsapi,https://www.greatschools.org/school/parentReviews.page?state=TX&id=24678&s_cid=gsapi,https://www.greatschools.org/modperl/achievement/TX/24678,,115,Austin Independent School District,4808940,
94,5413,Dessau Elementary School,public,3-5,508,Austin,TX,"1501 Dessau Ridge Lane, 
Austin, TX  78754",(512) 594-4600,(512) 594-4605,http://www.pfisd.net/Domain/21,483483006463,30.401651,-97.643936,https://www.greatschools.org/texas/austin/5413-Dessau-Elementary-School/?s_cid=gsapi,https://www.greatschools.org/school/rating.page?state=TX&id=5413&s_cid=gsapi,https://www.greatschools.org/school/parentReviews.page?state=TX&id=5413&s_cid=gsapi,https://www.greatschools.org/modperl/achievement/TX/5413,4,793,Pflugerville Independent School District,4834830,5
95,9473,Dessau Middle School,public,6-8,817,Austin,TX,"12900 Dessau Road, 
Austin, TX  78754",(512) 594-2600,(512) 594-2605,http://www.pfisd.net/Domain/12,483483008942,30.397984,-97.64358,https://www.greatschools.org/texas/austin/9473-Dessau-Middle-School/?s_cid=gsapi,https://www.greatschools.org/school/rating.page?state=TX&id=9473&s_cid=gsapi,https://www.greatschools.org/school/parentReviews.page?state=TX&id=9473&s_cid=gsapi,https://www.greatschools.org/modperl/achievement/TX/9473,3,793,Pflugerville Independent School District,4834830,3
96,540,Dobie Middle School,public,6-8,691,Austin,TX,"1200 East Rundberg Lane, 
Austin, TX  78753",(512) 414-3270,(512) 836-8411,http://www.dobiecollegeprep.org/,480894000313,30.35455,-97.679375,https://www.greatschools.org/texas/austin/540-Dobie-Middle-School/?s_cid=gsapi,https://www.greatschools.org/school/rating.page?state=TX&id=540&s_cid=gsapi,https://www.greatschools.org/school/parentReviews.page?state=TX&id=540&s_cid=gsapi,https://www.greatschools.org/modperl/achievement/TX/540,3,115,Austin Independent School District,4808940,3
97,541,Doss Elementary School,public,PK-5,919,Austin,TX,"7005 Northledge Drive, 
Austin, TX  78731",(512) 414-2365,(512) 345-0013,https://www.austinisd.org/schools/doss,480894000314,30.356087,-97.76281,https://www.greatschools.org/texas/austin/541-Doss-Elementary-School/?s_cid=gsapi,https://www.greatschools.org/school/rating.page?state=TX&id=541&s_cid=gsapi,https://www.greatschools.org/school/parentReviews.page?state=TX&id=541&s_cid=gsapi,https://www.greatschools.org/modperl/achievement/TX/541,4,115,Austin Independent School District,4808940,9
98,18848,Eastside Memorial High School,public,9-12,560,Austin,TX,"1012 Arthur Stiles Road, 
Austin, TX  78721",(512) 414-5810,(512) 414-6819,eastsidememorial.org,480894012013,30.257113,-97.68206,https://www.greatschools.org/texas/austin/18848-Eastside-Memorial-High-School/?s_cid=gsapi,https://www.greatschools.org/school/rating.page?state=TX&id=18848&s_cid=gsapi,https://www.greatschools.org/school/parentReviews.page?state=TX&id=18848&s_cid=gsapi,https://www.greatschools.org/modperl/achievement/TX/18848,4,115,Austin Independent School District,4808940,2
99,78,Eden Park Academy,charter,PK-5,439,Austin,TX,"6215 Manchaca Road, 
Austin, TX  78745",(512) 358-1800,(512) 842-9308,www.waysideschools.org/epa,480004408055,30.209324,-97.80313,https://www.greatschools.org/texas/austin/78-Eden-Park-Academy/?s_cid=gsapi,https://www.greatschools.org/school/rating.page?state=TX&id=78&s_cid=gsapi,https://www.greatschools.org/school/parentReviews.page?state=TX&id=78&s_cid=gsapi,https://www.greatschools.org/modperl/achievement/TX/78,4,43,Wayside Schools,4800044,6
100,18843,El Daep,public,K-5,4,Austin,TX,"13414 Broadmeade Avenue, 
Austin, TX  78729",(512) 464-5920,(512) 464-6794,,483808009461,30.470728,-97.78183,https://www.greatschools.org/texas/austin/18843-El-Daep/?s_cid=gsapi,https://www.greatschools.org/school/rating.page?state=TX&id=18843&s_cid=gsapi,https://www.greatschools.org/school/parentReviews.page?state=TX&id=18843&s_cid=gsapi,https://www.greatschools.org/modperl/achievement/TX/18843,,870,Round Rock Independent School District,4838080,
101,19534,Elsa England Elementary School,public,PK-5,803,Austin,TX,"8801 Pearson Ranch Road, 
Austin, TX  78717",(512) 704-1211,(512) 464-5090,www.roundrockisd.org/index.aspx?page=3904,483808012358,30.49369,-97.750725,https://www.greatschools.org/texas/austin/19534-Elsa-England-Elementary-School/?s_cid=gsapi,https://www.greatschools.org/school/rating.page?state=TX&id=19534&s_cid=gsapi,https://www.greatschools.org/school/parentReviews.page?state=TX&id=19534&s_cid=gsapi,https://www.greatschools.org/modperl/achievement/TX/19534,4,870,Round Rock Independent School District,4838080,10
102,25268,Emergent Academy,private,"1-5, 7-8",30,Austin,TX,"1044 Liberty Park Drive, 
Austin, TX  78746",(512) 358-1672,,http://www.emergentacademy.org/,,30.266872,-97.78992,https://www.greatschools.org/texas/austin/25268-Emergent-Academy/?s_cid=gsapi,https://www.greatschools.org/school/rating.page?state=TX&id=25268&s_cid=gsapi,https://www.greatschools.org/school/parentReviews.page?state=TX&id=25268&s_cid=gsapi,https://www.greatschools.org/cgi-bin/TX/otherprivate/25268,,,,,
103,25447,Excel Center Lockhart,charter,9-12,,Austin,TX,"1015 Norwood Park Boulevard, 
Austin, TX  78753",(512) 531-5500,(512) 339-5299,,,30.339088,-97.69408,https://www.greatschools.org/texas/austin/25447-Excel-Center-Lockhart/?s_cid=gsapi,https://www.greatschools.org/school/rating.page?state=TX&id=25447&s_cid=gsapi,https://www.greatschools.org/school/parentReviews.page?state=TX&id=25447&s_cid=gsapi,https://www.greatschools.org/modperl/achievement/TX/25447,,1447,The Excel Center,,
104,5872,Forest North Elementary School,public,PK-5,411,Austin,TX,"13414 Broadmeade Avenue, 
Austin, TX  78729",(512) 464-6750,(512) 464-6794,schools.roundrockisd.org/forestnorth/,483808004250,30.470728,-97.78183,https://www.greatschools.org/texas/austin/5872-Forest-North-Elementary-School/?s_cid=gsapi,https://www.greatschools.org/school/rating.page?state=TX&id=5872&s_cid=gsapi,https://www.greatschools.org/school/parentReviews.page?state=TX&id=5872&s_cid=gsapi,https://www.greatschools.org/modperl/achievement/TX/5872,4,870,Round Rock Independent School District,4838080,5
105,19876,Four Points Middle School,public,6-8,678,Austin,TX,"9700 McNeil Drive, 
Austin, TX  78750",(512) 570-3700,(512) 570-3705,http://fpms.leanderisd.org/,482703012381,30.3975,-97.829254,https://www.greatschools.org/texas/austin/19876-Four-Points-Middle-School/?s_cid=gsapi,https://www.greatschools.org/school/rating.page?state=TX&id=19876&s_cid=gsapi,https://www.greatschools.org/school/parentReviews.page?state=TX&id=19876&s_cid=gsapi,https://www.greatschools.org/modperl/achievement/TX/19876,5,596,Leander Independent School District,4827030,9
106,542,Fulmore Middle School,public,6-8,952,Austin,TX,"201 East Mary Street, 
Austin, TX  78704",(512) 414-3207,(512) 441-3129,http://www.fulmoremiddleschool.org/,480894000315,30.243927,-97.750465,https://www.greatschools.org/texas/austin/542-Fulmore-Middle-School/?s_cid=gsapi,https://www.greatschools.org/school/rating.page?state=TX&id=542&s_cid=gsapi,https://www.greatschools.org/school/parentReviews.page?state=TX&id=542&s_cid=gsapi,https://www.greatschools.org/modperl/achievement/TX/542,4,115,Austin Independent School District,4808940,5
107,24777,Fusion Academy Austin,private,6-12,55,Austin,TX,"4701 Bee Caves Road, 
Austin, TX  78746",(512) 330-0188,,,,30.28804,-97.81678,https://www.greatschools.org/texas/austin/24777-Fusion-Academy-Austin/?s_cid=gsapi,https://www.greatschools.org/school/rating.page?state=TX&id=24777&s_cid=gsapi,https://www.greatschools.org/school/parentReviews.page?state=TX&id=24777&s_cid=gsapi,https://www.greatschools.org/cgi-bin/TX/otherprivate/24777,,,,,
108,614,Galindo Elementary School,public,PK-5,591,Austin,TX,"3800 South 2nd Street, 
Austin, TX  78704",(512) 414-1756,(512) 414-0448,https://www.austinisd.org/schools/galindo,480894006509,30.229517,-97.7719,https://www.greatschools.org/texas/austin/614-Galindo-Elementary-School/?s_cid=gsapi,https://www.greatschools.org/school/rating.page?state=TX&id=614&s_cid=gsapi,https://www.greatschools.org/school/parentReviews.page?state=TX&id=614&s_cid=gsapi,https://www.greatschools.org/modperl/achievement/TX/614,3,115,Austin Independent School District,4808940,3
109,24939,Garcia Ymla,public,6-8,391,Austin,TX,"7414 Johnny Morris Road, 
Austin, TX  78724",(512) 841-9400,(512) 841-9401,,,30.311398,-97.64303,https://www.greatschools.org/texas/austin/24939-Garcia-Ymla/?s_cid=gsapi,https://www.greatschools.org/school/rating.page?state=TX&id=24939&s_cid=gsapi,https://www.greatschools.org/school/parentReviews.page?state=TX&id=24939&s_cid=gsapi,https://www.greatschools.org/modperl/achievement/TX/24939,,115,Austin Independent School District,4808940,3
110,618,Garza Independence High School,public,9-12,190,Austin,TX,"1600 Chicon Street, 
Austin, TX  78702",(512) 414-8600,(512) 414-8615,,480894008060,30.277237,-97.72139,https://www.greatschools.org/texas/austin/618-Garza-Independence-High-School/?s_cid=gsapi,https://www.greatschools.org/school/rating.page?state=TX&id=618&s_cid=gsapi,https://www.greatschools.org/school/parentReviews.page?state=TX&id=618&s_cid=gsapi,https://www.greatschools.org/modperl/achievement/TX/618,5,115,Austin Independent School District,4808940,
111,9366,George M Kometzky School,charter,K-12,56,Austin,TX,"2200 East 6th Street, 
Austin, TX  78702",(512) 791-2270,(512) 232-9177,www.utcharter.org,480007109072,30.260305,-97.71761,https://www.greatschools.org/texas/austin/9366-George-M-Kometzky-School/?s_cid=gsapi,https://www.greatschools.org/school/rating.page?state=TX&id=9366&s_cid=gsapi,https://www.greatschools.org/school/parentReviews.page?state=TX&id=9366&s_cid=gsapi,https://www.greatschools.org/modperl/achievement/TX/9366,,70,University Of Texas University Charter School,4800071,
112,11996,Girls' School Of Austin,private,K-8,150,Austin,TX,"2007 McCall Road, 
Austin, TX  78703",(512) 478-7827,(512) 478-5456,http://www.thegirlsschool.org,A0503406,30.292788,-97.76355,https://www.greatschools.org/texas/austin/11996-Girls'-School-Of-Austin/?s_cid=gsapi,https://www.greatschools.org/school/rating.page?state=TX&id=11996&s_cid=gsapi,https://www.greatschools.org/school/parentReviews.page?state=TX&id=11996&s_cid=gsapi,https://www.greatschools.org/cgi-bin/TX/otherprivate/11996,4,,,,
113,10746,Gorzycki Middle School,public,6-8,1330,Austin,TX,"7412 West Slaughter Lane, 
Austin, TX  78749",(512) 841-8600,(512) 841-8601,http://www.gmstigers.com/,480894011059,30.214663,-97.89199,https://www.greatschools.org/texas/austin/10746-Gorzycki-Middle-School/?s_cid=gsapi,https://www.greatschools.org/school/rating.page?state=TX&id=10746&s_cid=gsapi,https://www.greatschools.org/school/parentReviews.page?state=TX&id=10746&s_cid=gsapi,https://www.greatschools.org/modperl/achievement/TX/10746,3,115,Austin Independent School District,4808940,9
114,543,Govalle Elementary School,public,PK-5,547,Austin,TX,"3601 Del Valle Street, 
Austin, TX  78617",(512) 414-2078,(512) 926-4820,,480894000316,30.210512,-97.65354,https://www.greatschools.org/texas/austin/543-Govalle-Elementary-School/?s_cid=gsapi,https://www.greatschools.org/school/rating.page?state=TX&id=543&s_cid=gsapi,https://www.greatschools.org/school/parentReviews.page?state=TX&id=543&s_cid=gsapi,https://www.greatschools.org/modperl/achievement/TX/543,4,115,Austin Independent School District,4808940,1
115,544,Graham Elementary School,public,PK-5,768,Austin,TX,"11211 Tom Adams Drive, 
Austin, TX  78753",(512) 414-2395,(512) 835-4562,https://www.austinisd.org/schools/graham,480894000317,30.37236,-97.66886,https://www.greatschools.org/texas/austin/544-Graham-Elementary-School/?s_cid=gsapi,https://www.greatschools.org/school/rating.page?state=TX&id=544&s_cid=gsapi,https://www.greatschools.org/school/parentReviews.page?state=TX&id=544&s_cid=gsapi,https://www.greatschools.org/modperl/achievement/TX/544,4,115,Austin Independent School District,4808940,8
116,11938,Grandview Hills Elementary School,public,PK-5,478,Austin,TX,"12024 Vista Parke Drive, 
Austin, TX  78726",(512) 570-6800,(512) 570-6805,http://grandviewhills.leanderisd.org/,482703011434,30.415436,-97.85333,https://www.greatschools.org/texas/austin/11938-Grandview-Hills-Elementary-School/?s_cid=gsapi,https://www.greatschools.org/school/rating.page?state=TX&id=11938&s_cid=gsapi,https://www.greatschools.org/school/parentReviews.page?state=TX&id=11938&s_cid=gsapi,https://www.greatschools.org/modperl/achievement/TX/11938,4,596,Leander Independent School District,4827030,6
117,24371,Greater Calvary Academy,private,K-6,11,Austin,TX,"6510 Berkman Drive, 
Austin, TX  78723",(512) 454-6170,,,A1102167,30.319225,-97.69028,https://www.greatschools.org/texas/austin/24371-Greater-Calvary-Academy/?s_cid=gsapi,https://www.greatschools.org/school/rating.page?state=TX&id=24371&s_cid=gsapi,https://www.greatschools.org/school/parentReviews.page?state=TX&id=24371&s_cid=gsapi,https://www.greatschools.org/cgi-bin/TX/otherprivate/24371,,,,,
118,11581,Griffin School,private,9-12,100,Austin,TX,"5001 Evans Ave., 
Austin, TX  78751",(512) 454-5797,(512) 454-5798,http://www.griffinschool.org/,A0303144,30.312716,-97.71971,https://www.greatschools.org/texas/austin/11581-Griffin-School/?s_cid=gsapi,https://www.greatschools.org/school/rating.page?state=TX&id=11581&s_cid=gsapi,https://www.greatschools.org/school/parentReviews.page?state=TX&id=11581&s_cid=gsapi,https://www.greatschools.org/cgi-bin/TX/otherprivate/11581,5,,,,
119,10789,Guerrero Thompson,public,PK-5,690,Austin,TX,"102 East Rundberg Lane, 
Austin, TX  78753",(512) 414-8400,(512) 414-8401,,480894011063,30.363888,-97.691666,https://www.greatschools.org/texas/austin/10789-Guerrero-Thompson/?s_cid=gsapi,https://www.greatschools.org/school/rating.page?state=TX&id=10789&s_cid=gsapi,https://www.greatschools.org/school/parentReviews.page?state=TX&id=10789&s_cid=gsapi,https://www.greatschools.org/modperl/achievement/TX/10789,,115,Austin Independent School District,4808940,7
120,545,Gullett Elementary School,public,PK-5,557,Austin,TX,"6310 Treadwell Boulevard, 
Austin, TX  78757",(512) 414-2082,(512) 451-2036,,480894000318,30.343542,-97.74867,https://www.greatschools.org/texas/austin/545-Gullett-Elementary-School/?s_cid=gsapi,https://www.greatschools.org/school/rating.page?state=TX&id=545&s_cid=gsapi,https://www.greatschools.org/school/parentReviews.page?state=TX&id=545&s_cid=gsapi,https://www.greatschools.org/modperl/achievement/TX/545,4,115,Austin Independent School District,4808940,10
121,19893,Harmony School of Excellence - Austin,charter,K-12,588,Austin,TX,"2100 East Saint Elmo Road, 
Austin, TX  78744",(512) 693-0000,(581) 693-0008,www.hseaustin.org,480024112424,30.210432,-97.746735,https://www.greatschools.org/texas/austin/19893-Harmony-School-Of-Excellence---Austin/?s_cid=gsapi,https://www.greatschools.org/school/rating.page?state=TX&id=19893&s_cid=gsapi,https://www.greatschools.org/school/parentReviews.page?state=TX&id=19893&s_cid=gsapi,https://www.greatschools.org/modperl/achievement/TX/19893,4,1276,Harmony Science Academy (Austin),4800241,4
122,24798,Harmony School of Innovation,charter,K-5,468,Austin,TX,"2124 East Saint Elmo Road, 
Austin, TX  78744",(512) 330-0895,(512) 330-4225,www.hsiaustin.org,,30.21006,-97.74532,https://www.greatschools.org/texas/austin/24798-Harmony-School-Of-Innovation/?s_cid=gsapi,https://www.greatschools.org/school/rating.page?state=TX&id=24798&s_cid=gsapi,https://www.greatschools.org/school/parentReviews.page?state=TX&id=24798&s_cid=gsapi,https://www.greatschools.org/modperl/achievement/TX/24798,,1276,Harmony Science Academy (Austin),4800241,6
123,20112,Harmony School of Political Science and Communication - Austin,charter,PK-12,816,Austin,TX,"13415 North FM 620, 
Austin, TX  78717",(512) 284-9880,(512) 284-9632,www.hspaustin.org,480024112787,30.470375,-97.786705,https://www.greatschools.org/texas/austin/20112-Harmony-School-Of-Political-Science-And-Communication---Austin/?s_cid=gsapi,https://www.greatschools.org/school/rating.page?state=TX&id=20112&s_cid=gsapi,https://www.greatschools.org/school/parentReviews.page?state=TX&id=20112&s_cid=gsapi,https://www.greatschools.org/modperl/achievement/TX/20112,3,1276,Harmony Science Academy (Austin),4800241,7
124,20397,Harmony School of Science - Austin,charter,K-5,546,Austin,TX,"11800 Stonehollow Drive, 
Austin, TX  78758",(512) 821-1700,(512) 821-1702,www.hssaustin.org,480024112574,30.400635,-97.70883,https://www.greatschools.org/texas/austin/20397-Harmony-School-Of-Science---Austin/?s_cid=gsapi,https://www.greatschools.org/school/rating.page?state=TX&id=20397&s_cid=gsapi,https://www.greatschools.org/school/parentReviews.page?state=TX&id=20397&s_cid=gsapi,https://www.greatschools.org/modperl/achievement/TX/20397,2,1276,Harmony Science Academy (Austin),4800241,4
125,9423,Harmony Science Academy - Austin,charter,PK-12,403,Austin,TX,"930 East Rundberg Lane, 
Austin, TX  78753",(512) 835-7900,(512) 835-7901,www.hsaaustin.org,480024109409,30.357164,-97.684784,https://www.greatschools.org/texas/austin/9423-Harmony-Science-Academy---Austin/?s_cid=gsapi,https://www.greatschools.org/school/rating.page?state=TX&id=9423&s_cid=gsapi,https://www.greatschools.org/school/parentReviews.page?state=TX&id=9423&s_cid=gsapi,https://www.greatschools.org/modperl/achievement/TX/9423,3,1276,Harmony Science Academy (Austin),4800241,5
126,546,Harris Elementary School,public,PK-6,667,Austin,TX,"1711 Wheless Lane, 
Austin, TX  78723",(512) 414-2085,(512) 929-7347,http://harriselem.tx.aie.schoolinsites.com/,480894000319,30.314829,-97.690765,https://www.greatschools.org/texas/austin/546-Harris-Elementary-School/?s_cid=gsapi,https://www.greatschools.org/school/rating.page?state=TX&id=546&s_cid=gsapi,https://www.greatschools.org/school/parentReviews.page?state=TX&id=546&s_cid=gsapi,https://www.greatschools.org/modperl/achievement/TX/546,3,115,Austin Independent School District,4808940,4
127,619,Hart Elementary School,public,PK-5,717,Austin,TX,"8301 Furness Drive, 
Austin, TX  78753",(512) 841-2100,(512) 841-2190,https://www.austinisd.org/schools/hart,480894008061,30.342451,-97.68871,https://www.greatschools.org/texas/austin/619-Hart-Elementary-School/?s_cid=gsapi,https://www.greatschools.org/school/rating.page?state=TX&id=619&s_cid=gsapi,https://www.greatschools.org/school/parentReviews.page?state=TX&id=619&s_cid=gsapi,https://www.greatschools.org/modperl/achievement/TX/619,3,115,Austin Independent School District,4808940,7
128,10669,Headwaters School,private,PK-12,542,Austin,TX,"801 Rio Grande Street, 
Austin, TX  78701",(512) 480-8142,(512) 480-0278,http://www.headwaters.org,A0503492,30.27195,-97.74842,https://www.greatschools.org/texas/austin/10669-Headwaters-School/?s_cid=gsapi,https://www.greatschools.org/school/rating.page?state=TX&id=10669&s_cid=gsapi,https://www.greatschools.org/school/parentReviews.page?state=TX&id=10669&s_cid=gsapi,https://www.greatschools.org/cgi-bin/TX/otherprivate/10669,5,,,,
129,18838,Helping Hand,charter,K-7,20,Austin,TX,"3804 Avenue B, 
Austin, TX  78751",(512) 751-4534,(512) 232-9177,www.utcharter.org,480007112104,30.302364,-97.73645,https://www.greatschools.org/texas/austin/18838-Helping-Hand/?s_cid=gsapi,https://www.greatschools.org/school/rating.page?state=TX&id=18838&s_cid=gsapi,https://www.greatschools.org/school/parentReviews.page?state=TX&id=18838&s_cid=gsapi,https://www.greatschools.org/modperl/achievement/TX/18838,,70,University Of Texas University Charter School,4800071,
130,547,Highland Park Elementary School,public,PK-5,640,Austin,TX,"4900 Fairview Drive, 
Austin, TX  78731",(512) 414-2090,(512) 414-2626,http://www.austinisd.org/,480894000320,30.330692,-97.76005,https://www.greatschools.org/texas/austin/547-Highland-Park-Elementary-School/?s_cid=gsapi,https://www.greatschools.org/school/rating.page?state=TX&id=547&s_cid=gsapi,https://www.greatschools.org/school/parentReviews.page?state=TX&id=547&s_cid=gsapi,https://www.greatschools.org/modperl/achievement/TX/547,4,115,Austin Independent School District,4808940,9
131,8055,Hill Country Christian School,private,PK-12,619,Austin,TX,"12124 Ranch Rd 620 N, 
Austin, TX  78750",(512) 331-7036,(512) 257-4190,http://www.hillcountrychristianschool.org,A9703332,30.461445,-97.81817,https://www.greatschools.org/texas/austin/8055-Hill-Country-Christian-School/?s_cid=gsapi,https://www.greatschools.org/school/rating.page?state=TX&id=8055&s_cid=gsapi,https://www.greatschools.org/school/parentReviews.page?state=TX&id=8055&s_cid=gsapi,https://www.greatschools.org/cgi-bin/TX/otherprivate/8055,4,,,,
132,2203,Hill Country Middle School,public,6-8,1001,Austin,TX,"1300 Walsh Tarlton Lane, 
Austin, TX  78746",(512) 732-9220,(512) 732-9229,http://hcms.eanesisd.net/,481776001548,30.27101,-97.80366,https://www.greatschools.org/texas/austin/2203-Hill-Country-Middle-School/?s_cid=gsapi,https://www.greatschools.org/school/rating.page?state=TX&id=2203&s_cid=gsapi,https://www.greatschools.org/school/parentReviews.page?state=TX&id=2203&s_cid=gsapi,https://www.greatschools.org/modperl/achievement/TX/2203,4,342,Eanes Independent School District,4817760,10
133,548,Hill Elementary School,public,PK-5,890,Austin,TX,"8601 Tallwood Drive, 
Austin, TX  78759",(512) 414-2369,(512) 841-8105,http://www.hillelementary.com/,480894000321,30.376625,-97.74854,https://www.greatschools.org/texas/austin/548-Hill-Elementary-School/?s_cid=gsapi,https://www.greatschools.org/school/rating.page?state=TX&id=548&s_cid=gsapi,https://www.greatschools.org/school/parentReviews.page?state=TX&id=548&s_cid=gsapi,https://www.greatschools.org/modperl/achievement/TX/548,4,115,Austin Independent School District,4808940,8
134,2034,Hillcrest Elementary School,public,PK-5,664,Austin,TX,"6910 East William Cannon Drive, 
Austin, TX  78744",(512) 386-3550,(512) 386-3555,www.dvisd.net,481662005695,30.16541,-97.729095,https://www.greatschools.org/texas/austin/2034-Hillcrest-Elementary-School/?s_cid=gsapi,https://www.greatschools.org/school/rating.page?state=TX&id=2034&s_cid=gsapi,https://www.greatschools.org/school/parentReviews.page?state=TX&id=2034&s_cid=gsapi,https://www.greatschools.org/modperl/achievement/TX/2034,4,315,Del Valle Independent School District,4816620,2
135,10514,Holy Family Catholic School,private,PK-8,560,Austin,TX,"9400 Neenah Avenue, 
Austin, TX  78717",(512) 246-4455,(512) 246-4454,http://www.holyfamilycs.org/,A0109405,30.489832,-97.76092,https://www.greatschools.org/texas/austin/10514-Holy-Family-Catholic-School/?s_cid=gsapi,https://www.greatschools.org/school/rating.page?state=TX&id=10514&s_cid=gsapi,https://www.greatschools.org/school/parentReviews.page?state=TX&id=10514&s_cid=gsapi,https://www.greatschools.org/cgi-bin/TX/otherprivate/10514,4,,,,
136,7545,Holy Word Christian Academy,private,K-8,8,Austin,TX,"10601 Bluff Bend Drive, 
Austin, TX  78753",(512) 836-0660,,,01328029,30.3685,-97.675385,https://www.greatschools.org/texas/austin/7545-Holy-Word-Christian-Academy/?s_cid=gsapi,https://www.greatschools.org/school/rating.page?state=TX&id=7545&s_cid=gsapi,https://www.greatschools.org/school/parentReviews.page?state=TX&id=7545&s_cid=gsapi,https://www.greatschools.org/cgi-bin/TX/otherprivate/7545,5,,,,
137,24378,Hope Children's Center,private,K,,Austin,TX,"11512 Olson Drive, 
Austin, TX  78750",(512) 258-0101,,http://www.hopechildrenscenter.com/,BB122230,30.445484,-97.806114,https://www.greatschools.org/texas/austin/24378-Hope-Children's-Center/?s_cid=gsapi,https://www.greatschools.org/school/rating.page?state=TX&id=24378&s_cid=gsapi,https://www.greatschools.org/school/parentReviews.page?state=TX&id=24378&s_cid=gsapi,https://www.greatschools.org/cgi-bin/TX/otherprivate/24378,,,,,
138,7492,Hope Lutheran School,private,K-7,,Austin,TX,"6414 N Hampton Dr, 
Austin, TX  78723",(512) 926-0003,(512) 926-0708,,01326757,30.31469,-97.6811,https://www.greatschools.org/texas/austin/7492-Hope-Lutheran-School/?s_cid=gsapi,https://www.greatschools.org/school/rating.page?state=TX&id=7492&s_cid=gsapi,https://www.greatschools.org/school/parentReviews.page?state=TX&id=7492&s_cid=gsapi,https://www.greatschools.org/cgi-bin/TX/otherprivate/7492,4,,,,
139,2036,Hornsby-Dunlap Elementary School,public,PK-5,646,Austin,TX,"13901 North FM 620, 
Austin, TX  78717",(512) 386-3650,(512) 386-3655,www.dvisd.net,481662006534,30.475092,-97.7674,https://www.greatschools.org/texas/austin/2036-Hornsby-Dunlap-Elementary-School/?s_cid=gsapi,https://www.greatschools.org/school/rating.page?state=TX&id=2036&s_cid=gsapi,https://www.greatschools.org/school/parentReviews.page?state=TX&id=2036&s_cid=gsapi,https://www.greatschools.org/modperl/achievement/TX/2036,3,315,Del Valle Independent School District,4816620,3
140,18785,House Sparrows Academy,private,1-3,5,Austin,TX,"8432 Jamestown Drive, 
Austin, TX  78758",(512) 897-2089,,http://www.housesparrowsacademy.com/,,30.355415,-97.709785,https://www.greatschools.org/texas/austin/18785-House-Sparrows-Academy-/?s_cid=gsapi,https://www.greatschools.org/school/rating.page?state=TX&id=18785&s_cid=gsapi,https://www.greatschools.org/school/parentReviews.page?state=TX&id=18785&s_cid=gsapi,https://www.greatschools.org/cgi-bin/TX/otherprivate/18785,,,,,
141,549,Houston Elementary School,public,PK-5,789,Austin,TX,"5409 Ponciana Drive, 
Austin, TX  78744",(512) 414-2517,(512) 448-4869,http://www.houstonelementary.weebly.com,480894000322,30.196468,-97.75507,https://www.greatschools.org/texas/austin/549-Houston-Elementary-School/?s_cid=gsapi,https://www.greatschools.org/school/rating.page?state=TX&id=549&s_cid=gsapi,https://www.greatschools.org/school/parentReviews.page?state=TX&id=549&s_cid=gsapi,https://www.greatschools.org/modperl/achievement/TX/549,4,115,Austin Independent School District,4808940,3
142,9471,Hudson Bend Middle School,public,6-8,1029,Austin,TX,"3322 Ranch Road 620 South, 
Austin, TX  78738",(512) 533-6400,(512) 533-6401,,482647008945,30.327839,-97.96536,https://www.greatschools.org/texas/austin/9471-Hudson-Bend-Middle-School/?s_cid=gsapi,https://www.greatschools.org/school/rating.page?state=TX&id=9471&s_cid=gsapi,https://www.greatschools.org/school/parentReviews.page?state=TX&id=9471&s_cid=gsapi,https://www.greatschools.org/modperl/achievement/TX/9471,4,583,Lake Travis Independent School District,4826470,9
143,8367,Huntington-Surrey High School,private,8-12,40,Austin,TX,"5206 Balcones Drive, 
Austin, TX  78756",(512) 478-4743,(512) 457-0235,http://www.huntingtonsurrey.com/,A9106475,30.318382,-97.7376,https://www.greatschools.org/texas/austin/8367-Huntington-Surrey-High-School/?s_cid=gsapi,https://www.greatschools.org/school/rating.page?state=TX&id=8367&s_cid=gsapi,https://www.greatschools.org/school/parentReviews.page?state=TX&id=8367&s_cid=gsapi,https://www.greatschools.org/cgi-bin/TX/otherprivate/8367,5,,,,
144,8339,Hyde Park Baptist Elementary School,private,K-5,,Austin,TX,"3901 Speedway, 
Austin, TX  78751",(512) 465-8338,(512) 371-1433,,XA000240,30.302164,-97.731804,https://www.greatschools.org/texas/austin/8339-Hyde-Park-Baptist-Elementary-School/?s_cid=gsapi,https://www.greatschools.org/school/rating.page?state=TX&id=8339&s_cid=gsapi,https://www.greatschools.org/school/parentReviews.page?state=TX&id=8339&s_cid=gsapi,https://www.greatschools.org/cgi-bin/TX/otherprivate/8339,4,,,,
145,12476,Hyde Park Baptist High School,private,"6, 9-12",550,Austin,TX,"11400 North Mopac, 
Austin, TX  78759",(512) 465-8333,(512) 371-1433,,,30.40086,-97.730064,https://www.greatschools.org/texas/austin/12476-Hyde-Park-Baptist-High-School/?s_cid=gsapi,https://www.greatschools.org/school/rating.page?state=TX&id=12476&s_cid=gsapi,https://www.greatschools.org/school/parentReviews.page?state=TX&id=12476&s_cid=gsapi,https://www.greatschools.org/cgi-bin/TX/otherprivate/12476,4,,,,
146,8352,Hyde Park Baptist School,private,K-12,622,Austin,TX,"3901 Speedway, 
Austin, TX  78751",(512) 465-8333,,,YA000240,30.302217,-97.73187,https://www.greatschools.org/texas/austin/8352-Hyde-Park-Baptist-School/?s_cid=gsapi,https://www.greatschools.org/school/rating.page?state=TX&id=8352&s_cid=gsapi,https://www.greatschools.org/school/parentReviews.page?state=TX&id=8352&s_cid=gsapi,https://www.greatschools.org/cgi-bin/TX/otherprivate/8352,4,,,,
147,24649,IDEA Allan College Preparatory,charter,6-11,1374,Austin,TX,"1701 Vargas Road, 
Austin, TX  78741",(512) 822-4900,(512) 646-2801,https://www.ideapublicschools.org/our-schools/idea-allan,,30.226158,-97.699524,https://www.greatschools.org/texas/austin/24649-IDEA-Allan-College-Preparatory/?s_cid=gsapi,https://www.greatschools.org/school/rating.page?state=TX&id=24649&s_cid=gsapi,https://www.greatschools.org/school/parentReviews.page?state=TX&id=24649&s_cid=gsapi,https://www.greatschools.org/modperl/achievement/TX/24649,,1268,Idea Public Schools,4800211,7
148,24980,IDEA Rundberg Academy,charter,K-4,940,Austin,TX,"9504 North Interstate 35 Frontage Road, 
Austin, TX  78753",(512) 822-4800,(512) 822-4801,https://www.ideapublicschools.org/our-schools/idea-rundberg,,30.360958,-97.687805,https://www.greatschools.org/texas/austin/24980-IDEA-Rundberg-Academy/?s_cid=gsapi,https://www.greatschools.org/school/rating.page?state=TX&id=24980&s_cid=gsapi,https://www.greatschools.org/school/parentReviews.page?state=TX&id=24980&s_cid=gsapi,https://www.greatschools.org/modperl/achievement/TX/24980,,1268,Idea Public Schools,4800211,6
149,24981,IDEA Rundberg College Preparatory,charter,6-8,940,Austin,TX,"9504 North Interstate 35 Frontage Road, 
Austin, TX  78753",(512) 822-4800,(512) 822-4801,https://www.ideapublicschools.org/our-schools/idea-rundberg,,30.360958,-97.687805,https://www.greatschools.org/texas/austin/24981-IDEA-Rundberg-College-Preparatory/?s_cid=gsapi,https://www.greatschools.org/school/rating.page?state=TX&id=24981&s_cid=gsapi,https://www.greatschools.org/school/parentReviews.page?state=TX&id=24981&s_cid=gsapi,https://www.greatschools.org/modperl/achievement/TX/24981,,1268,Idea Public Schools,4800211,6
150,24651,Idea Allan Academy,charter,K-5,1374,Austin,TX,"1701 Vargas Road, 
Austin, TX  78741",(512) 646-2800,(512) 646-2801,https://www.ideapublicschools.org/our-schools/idea-allan,,30.226158,-97.699524,https://www.greatschools.org/texas/austin/24651-Idea-Allan-Academy/?s_cid=gsapi,https://www.greatschools.org/school/rating.page?state=TX&id=24651&s_cid=gsapi,https://www.greatschools.org/school/parentReviews.page?state=TX&id=24651&s_cid=gsapi,https://www.greatschools.org/modperl/achievement/TX/24651,5,1268,Idea Public Schools,4800211,6
151,25437,Idea Bluff Springs Academy,charter,K-3,,Austin,TX,"1700 East Slaughter Lane, 
Austin, TX  78744",(512) 822-4200,(512) 822-4201,,,30.153843,-97.769135,https://www.greatschools.org/texas/austin/25437-Idea-Bluff-Springs-Academy/?s_cid=gsapi,https://www.greatschools.org/school/rating.page?state=TX&id=25437&s_cid=gsapi,https://www.greatschools.org/school/parentReviews.page?state=TX&id=25437&s_cid=gsapi,https://www.greatschools.org/modperl/achievement/TX/25437,,1268,Idea Public Schools,4800211,
152,25331,Idea Bluff Springs College Preparatory,charter,6-7,,Austin,TX,"1700 East Slaughter Lane, 
Austin, TX  78744",(512) 822-4200,(512) 822-4201,www.ideapublicschools.org,,30.153843,-97.769135,https://www.greatschools.org/texas/austin/25331-Idea-Bluff-Springs-College-Preparatory/?s_cid=gsapi,https://www.greatschools.org/school/rating.page?state=TX&id=25331&s_cid=gsapi,https://www.greatschools.org/school/parentReviews.page?state=TX&id=25331&s_cid=gsapi,https://www.greatschools.org/modperl/achievement/TX/25331,,1268,Idea Public Schools,4800211,6
153,24690,"Integrity Academy at Casa de Luz, Center for Integral Studies",private,PK-5,45,Austin,TX,"1701 Toomey Road, 
Austin, TX  78704",(512) 535-1277,,http://www.integrityacademy.org,,30.264324,-97.76165,"https://www.greatschools.org/texas/austin/24690-Integrity-Academy-At-Casa-De-Luz,-Center-For-Integral-Studies-/?s_cid=gsapi",https://www.greatschools.org/school/rating.page?state=TX&id=24690&s_cid=gsapi,https://www.greatschools.org/school/parentReviews.page?state=TX&id=24690&s_cid=gsapi,https://www.greatschools.org/cgi-bin/TX/otherprivate/24690,5,,,,
154,10730,International High School,public,9-12,368,Austin,TX,"1012 Arthur Stiles Road, 
Austin, TX  78721",(512) 414-6817,(512) 841-5621,http://www.austinisd.org/,480894011057,30.257113,-97.68206,https://www.greatschools.org/texas/austin/10730-International-High-School/?s_cid=gsapi,https://www.greatschools.org/school/rating.page?state=TX&id=10730&s_cid=gsapi,https://www.greatschools.org/school/parentReviews.page?state=TX&id=10730&s_cid=gsapi,https://www.greatschools.org/modperl/achievement/TX/10730,3,115,Austin Independent School District,4808940,
155,24382,International Montessori House,private,PK-1,,Austin,TX,"7020 Village Center Drive, 
Austin, TX  78731",(512) 343-0071,,,BB122205,30.352783,-97.75659,https://www.greatschools.org/texas/austin/24382-International-Montessori-House/?s_cid=gsapi,https://www.greatschools.org/school/rating.page?state=TX&id=24382&s_cid=gsapi,https://www.greatschools.org/school/parentReviews.page?state=TX&id=24382&s_cid=gsapi,https://www.greatschools.org/cgi-bin/TX/otherprivate/24382,,,,,
156,20854,International School of Texas,private,PK-6,110,Austin,TX,"4402 Hudson Bend Road, 
Austin, TX  78734",(512) 351-3403,(512) 364-0777,www.istexas.org,,30.403622,-97.92939,https://www.greatschools.org/texas/austin/20854-International-School-Of-Texas/?s_cid=gsapi,https://www.greatschools.org/school/rating.page?state=TX&id=20854&s_cid=gsapi,https://www.greatschools.org/school/parentReviews.page?state=TX&id=20854&s_cid=gsapi,https://www.greatschools.org/cgi-bin/TX/otherprivate/20854,5,,,,
157,20667,Jackie's Performing Arts & Private Education,private,PK-5,,Austin,TX,"11530 Manchaca Road, 
Austin, TX  78748",(512) 282-7739,,,A0903533,30.152407,-97.83523,https://www.greatschools.org/texas/austin/20667-Jackie's-Performing-Arts-&-Private-Education/?s_cid=gsapi,https://www.greatschools.org/school/rating.page?state=TX&id=20667&s_cid=gsapi,https://www.greatschools.org/school/parentReviews.page?state=TX&id=20667&s_cid=gsapi,https://www.greatschools.org/cgi-bin/TX/otherprivate/20667,,,,,
158,9137,Joe Lee Johnson Elementary School,public,PK-5,,Austin,TX,"2800 Sauls Drive, 
Austin, TX  78728",(512) 704-1411,(512) 464-5408,,,30.45655,-97.68175,https://www.greatschools.org/texas/austin/9137-Joe-Lee-Johnson-Elementary-School/?s_cid=gsapi,https://www.greatschools.org/school/rating.page?state=TX&id=9137&s_cid=gsapi,https://www.greatschools.org/school/parentReviews.page?state=TX&id=9137&s_cid=gsapi,https://www.greatschools.org/modperl/achievement/TX/9137,,870,Round Rock Independent School District,4838080,5
159,5420,John B Connally High School,public,9-12,1934,Austin,TX,"13212 North Lamar Boulevard, 
Austin, TX  78753",(512) 594-0800,(512) 594-0805,http://www.pfisd.net/Domain/8,483483007467,30.41821,-97.676346,https://www.greatschools.org/texas/austin/5420-John-B-Connally-High-School/?s_cid=gsapi,https://www.greatschools.org/school/rating.page?state=TX&id=5420&s_cid=gsapi,https://www.greatschools.org/school/parentReviews.page?state=TX&id=5420&s_cid=gsapi,https://www.greatschools.org/modperl/achievement/TX/5420,4,793,Pflugerville Independent School District,4834830,4
160,9117,John P Ojeda J High School,public,6-8,963,Austin,TX,"4900 McKinney Falls Parkway, 
Austin, TX  78744",(512) 386-3500,(512) 386-3505,www.dvisd.net,481662009527,30.190788,-97.71197,https://www.greatschools.org/texas/austin/9117-John-P-Ojeda-J-High-School/?s_cid=gsapi,https://www.greatschools.org/school/rating.page?state=TX&id=9117&s_cid=gsapi,https://www.greatschools.org/school/parentReviews.page?state=TX&id=9117&s_cid=gsapi,https://www.greatschools.org/modperl/achievement/TX/9117,4,315,Del Valle Independent School District,4816620,2
161,5868,Jollyville Elementary School,public,PK-5,486,Austin,TX,"6720 Corpus Christi Drive, 
Austin, TX  78729",(512) 428-2200,(512) 428-2299,schools.roundrockisd.org/jollyville/,483808002306,30.444317,-97.750755,https://www.greatschools.org/texas/austin/5868-Jollyville-Elementary-School/?s_cid=gsapi,https://www.greatschools.org/school/rating.page?state=TX&id=5868&s_cid=gsapi,https://www.greatschools.org/school/parentReviews.page?state=TX&id=5868&s_cid=gsapi,https://www.greatschools.org/modperl/achievement/TX/5868,4,870,Round Rock Independent School District,4838080,6
162,594,Jordan Elementary School,public,PK-6,762,Austin,TX,"6711 Johnny Morris Road, 
Austin, TX  78724",(512) 414-2578,(512) 926-8299,http://www.austinisd.org/,480894002470,30.301088,-97.646774,https://www.greatschools.org/texas/austin/594-Jordan-Elementary-School/?s_cid=gsapi,https://www.greatschools.org/school/rating.page?state=TX&id=594&s_cid=gsapi,https://www.greatschools.org/school/parentReviews.page?state=TX&id=594&s_cid=gsapi,https://www.greatschools.org/modperl/achievement/TX/594,3,115,Austin Independent School District,4808940,5
163,20411,Joseph Gilbert Elementary School,public,PK-5,639,Austin,TX,"5412 Gilbert Road, 
Austin, TX  78724",(512) 386-3800,(512) 386-3805,www.dvisd.net,481662012601,30.258514,-97.59251,https://www.greatschools.org/texas/austin/20411-Joseph-Gilbert-Elementary-School/?s_cid=gsapi,https://www.greatschools.org/school/rating.page?state=TX&id=20411&s_cid=gsapi,https://www.greatschools.org/school/parentReviews.page?state=TX&id=20411&s_cid=gsapi,https://www.greatschools.org/modperl/achievement/TX/20411,2,315,Del Valle Independent School District,4816620,4
164,552,Joslin Elementary School,public,PK-5,289,Austin,TX,"4500 Manchaca Road, 
Austin, TX  78745",(512) 414-2094,(512) 443-3011,http://www.joslinelementary.org/,480894000325,30.228037,-97.79054,https://www.greatschools.org/texas/austin/552-Joslin-Elementary-School/?s_cid=gsapi,https://www.greatschools.org/school/rating.page?state=TX&id=552&s_cid=gsapi,https://www.greatschools.org/school/parentReviews.page?state=TX&id=552&s_cid=gsapi,https://www.greatschools.org/modperl/achievement/TX/552,4,115,Austin Independent School District,4808940,4
165,20118,K12 International Academy,private,K-12,,Austin,TX,"1701 N. Congress Avenue, 
Austin, TX  78701",(877) 512-7748,,http://ww2.k12.com/cm/?affl=gr8t&page=sp&school=int,,30.278719,-97.73881,https://www.greatschools.org/texas/austin/20118-K12-International-Academy/?s_cid=gsapi,https://www.greatschools.org/school/rating.page?state=TX&id=20118&s_cid=gsapi,https://www.greatschools.org/school/parentReviews.page?state=TX&id=20118&s_cid=gsapi,https://www.greatschools.org/cgi-bin/TX/otherprivate/20118,1,,,,
166,25309,KIPP Austin Brave,charter,9-12,,Austin,TX,"8509 Farm to Market 969, 
Austin, TX  78724",(512) 651-2225,(866) 857-6541,,,30.27235,-97.638405,https://www.greatschools.org/texas/austin/25309-KIPP-Austin-Brave/?s_cid=gsapi,https://www.greatschools.org/school/rating.page?state=TX&id=25309&s_cid=gsapi,https://www.greatschools.org/school/parentReviews.page?state=TX&id=25309&s_cid=gsapi,https://www.greatschools.org/modperl/achievement/TX/25309,,1322,KIPP Austin Public Schools Inc,4800264,
167,24677,KIPP Austin Leadership Elementary School,charter,K-4,355,Austin,TX,"5107 South Interstate 35 Frontage Road, 
Austin, TX  78744",(512) 651-2168,(866) 700-5197,,,30.204409,-97.75847,https://www.greatschools.org/texas/austin/24677-KIPP-Austin-Leadership-Elementary-School/?s_cid=gsapi,https://www.greatschools.org/school/rating.page?state=TX&id=24677&s_cid=gsapi,https://www.greatschools.org/school/parentReviews.page?state=TX&id=24677&s_cid=gsapi,https://www.greatschools.org/modperl/achievement/TX/24677,,1322,KIPP Austin Public Schools Inc,4800264,3
168,24676,KIPP Austin Obras,charter,K-4,356,Austin,TX,"5107 South Interstate 35 Frontage Road, 
Austin, TX  78744",(512) 651-2069,(866) 700-5197,,,30.204409,-97.75847,https://www.greatschools.org/texas/austin/24676-KIPP-Austin-Obras/?s_cid=gsapi,https://www.greatschools.org/school/rating.page?state=TX&id=24676&s_cid=gsapi,https://www.greatschools.org/school/parentReviews.page?state=TX&id=24676&s_cid=gsapi,https://www.greatschools.org/modperl/achievement/TX/24676,4,1322,KIPP Austin Public Schools Inc,4800264,3
169,10048,Kamico Academy,private,K-6,,Austin,TX,"4413 Spicewood Springs Rd, 
Austin, TX  78759",(512) 343-0801,(512) 372-9204,,,30.3727,-97.7586,https://www.greatschools.org/texas/austin/10048-Kamico-Academy/?s_cid=gsapi,https://www.greatschools.org/school/rating.page?state=TX&id=10048&s_cid=gsapi,https://www.greatschools.org/school/parentReviews.page?state=TX&id=10048&s_cid=gsapi,https://www.greatschools.org/cgi-bin/TX/otherprivate/10048,,,,,
170,5874,Kathy Caraway Elementary School,public,PK-5,714,Austin,TX,"11104 Oak View Drive, 
Austin, TX  78759",(512) 464-5500,(512) 464-5590,schools.roundrockisd.org/caraway/,483808004252,30.419579,-97.7696,https://www.greatschools.org/texas/austin/5874-Kathy-Caraway-Elementary-School/?s_cid=gsapi,https://www.greatschools.org/school/rating.page?state=TX&id=5874&s_cid=gsapi,https://www.greatschools.org/school/parentReviews.page?state=TX&id=5874&s_cid=gsapi,https://www.greatschools.org/modperl/achievement/TX/5874,4,870,Round Rock Independent School District,4838080,8
171,605,Kealing Middle School,public,6-8,1188,Austin,TX,"1607 Pennsylvania Avenue, 
Austin, TX  78702",(512) 414-3214,(512) 478-9133,http://www.kealingmiddleschool.org/,480894006207,30.270937,-97.72178,https://www.greatschools.org/texas/austin/605-Kealing-Middle-School/?s_cid=gsapi,https://www.greatschools.org/school/rating.page?state=TX&id=605&s_cid=gsapi,https://www.greatschools.org/school/parentReviews.page?state=TX&id=605&s_cid=gsapi,https://www.greatschools.org/modperl/achievement/TX/605,4,115,Austin Independent School District,4808940,8
172,596,Kiker Elementary School,public,PK-5,1022,Austin,TX,"5913 La Crosse Avenue, 
Austin, TX  78739",(512) 414-2584,(512) 288-5779,http://www.kikerelementary.org/,480894002776,30.191557,-97.881256,https://www.greatschools.org/texas/austin/596-Kiker-Elementary-School/?s_cid=gsapi,https://www.greatschools.org/school/rating.page?state=TX&id=596&s_cid=gsapi,https://www.greatschools.org/school/parentReviews.page?state=TX&id=596&s_cid=gsapi,https://www.greatschools.org/modperl/achievement/TX/596,4,115,Austin Independent School District,4808940,10
173,19925,Kipp Austin Academy Of Arts & Lett,charter,5-8,412,Austin,TX,"8509 Farm to Market 969, 
Austin, TX  78724",(512) 501-3640,(512) 501-3641,www.kippaustin.org,480026412305,30.27235,-97.638405,https://www.greatschools.org/texas/austin/19925-Kipp-Austin-Academy-Of-Arts-&-Lett/?s_cid=gsapi,https://www.greatschools.org/school/rating.page?state=TX&id=19925&s_cid=gsapi,https://www.greatschools.org/school/parentReviews.page?state=TX&id=19925&s_cid=gsapi,https://www.greatschools.org/modperl/achievement/TX/19925,3,1322,KIPP Austin Public Schools Inc,4800264,7
174,20398,Kipp Austin Beacon Prep,charter,5-8,335,Austin,TX,"8509 Farm to Market 969, 
Austin, TX  78724",(512) 501-3643,(512) 672-6228,,,30.27235,-97.638405,https://www.greatschools.org/texas/austin/20398-Kipp-Austin-Beacon-Prep/?s_cid=gsapi,https://www.greatschools.org/school/rating.page?state=TX&id=20398&s_cid=gsapi,https://www.greatschools.org/school/parentReviews.page?state=TX&id=20398&s_cid=gsapi,https://www.greatschools.org/modperl/achievement/TX/20398,,1322,KIPP Austin Public Schools Inc,4800264,4
175,10705,Kipp Austin College Prep,charter,5-8,415,Austin,TX,"9509 Farm to Market 969, 
Austin, TX  78724",(512) 637-6870,(512) 637-6899,www.kippaustin.org,480026411055,30.270355,-97.63019,https://www.greatschools.org/texas/austin/10705-Kipp-Austin-College-Prep/?s_cid=gsapi,https://www.greatschools.org/school/rating.page?state=TX&id=10705&s_cid=gsapi,https://www.greatschools.org/school/parentReviews.page?state=TX&id=10705&s_cid=gsapi,https://www.greatschools.org/modperl/achievement/TX/10705,4,1322,KIPP Austin Public Schools Inc,4800264,4
176,12099,Kipp Austin Collegiate,charter,9-12,566,Austin,TX,"8509 Farm to Market 969, 
Austin, TX  78724",(512) 637-6870,(512) 637-6899,www.kippaustin.org,480026411782,30.27235,-97.638405,https://www.greatschools.org/texas/austin/12099-Kipp-Austin-Collegiate/?s_cid=gsapi,https://www.greatschools.org/school/rating.page?state=TX&id=12099&s_cid=gsapi,https://www.greatschools.org/school/parentReviews.page?state=TX&id=12099&s_cid=gsapi,https://www.greatschools.org/modperl/achievement/TX/12099,4,1322,KIPP Austin Public Schools Inc,4800264,6
177,20400,Kipp Austin Comunidad,charter,PK-4,603,Austin,TX,"8509 Farm to Market 969, 
Austin, TX  78724",(512) 501-3643,(512) 637-6899,www.kippaustin.org,480026412553,30.27235,-97.638405,https://www.greatschools.org/texas/austin/20400-Kipp-Austin-Comunidad/?s_cid=gsapi,https://www.greatschools.org/school/rating.page?state=TX&id=20400&s_cid=gsapi,https://www.greatschools.org/school/parentReviews.page?state=TX&id=20400&s_cid=gsapi,https://www.greatschools.org/modperl/achievement/TX/20400,5,1322,KIPP Austin Public Schools Inc,4800264,4
178,20401,Kipp Austin Connections Elementary School,charter,PK-4,482,Austin,TX,"8509 Farm to Market 969, 
Austin, TX  78724",(512) 501-3643,(512) 672-6228,www.kippaustin.org,480026412559,30.27235,-97.638405,https://www.greatschools.org/texas/austin/20401-Kipp-Austin-Connections-Elementary-School/?s_cid=gsapi,https://www.greatschools.org/school/rating.page?state=TX&id=20401&s_cid=gsapi,https://www.greatschools.org/school/parentReviews.page?state=TX&id=20401&s_cid=gsapi,https://www.greatschools.org/modperl/achievement/TX/20401,,1322,KIPP Austin Public Schools Inc,4800264,3
179,20399,Kipp Austin Vista Middle Schools,charter,5-8,337,Austin,TX,"8509 Farm to Market 969, 
Austin, TX  78724",(512) 501-3643,(512) 672-6228,,,30.27235,-97.638405,https://www.greatschools.org/texas/austin/20399-Kipp-Austin-Vista-Middle-Schools/?s_cid=gsapi,https://www.greatschools.org/school/rating.page?state=TX&id=20399&s_cid=gsapi,https://www.greatschools.org/school/parentReviews.page?state=TX&id=20399&s_cid=gsapi,https://www.greatschools.org/modperl/achievement/TX/20399,,1322,KIPP Austin Public Schools Inc,4800264,4
180,7627,Kirby Hall School,private,PK-12,86,Austin,TX,"306 W 29th St, 
Austin, TX  78705",(512) 474-1770,(512) 474-1117,http://www.kirbyhallschool.org/,01635007,30.294388,-97.74036,https://www.greatschools.org/texas/austin/7627-Kirby-Hall-School/?s_cid=gsapi,https://www.greatschools.org/school/rating.page?state=TX&id=7627&s_cid=gsapi,https://www.greatschools.org/school/parentReviews.page?state=TX&id=7627&s_cid=gsapi,https://www.greatschools.org/cgi-bin/TX/otherprivate/7627,4,,,,
181,24837,Ko School + Incubator,private,6-12,44,Austin,TX,"1701 Toomey Road, 
Austin, TX  78704",(512) 766-5385,,www.koschool.org,,30.264433,-97.76164,https://www.greatschools.org/texas/austin/24837-Ko-School-+-Incubator/?s_cid=gsapi,https://www.greatschools.org/school/rating.page?state=TX&id=24837&s_cid=gsapi,https://www.greatschools.org/school/parentReviews.page?state=TX&id=24837&s_cid=gsapi,https://www.greatschools.org/cgi-bin/TX/otherprivate/24837,,,,,
182,610,Kocurek Elementary School,public,PK-5,544,Austin,TX,"9800 Curlew Drive, 
Austin, TX  78748",(512) 414-2547,(512) 282-7824,www.kocurekelementary.com,480894006212,30.177746,-97.83525,https://www.greatschools.org/texas/austin/610-Kocurek-Elementary-School/?s_cid=gsapi,https://www.greatschools.org/school/rating.page?state=TX&id=610&s_cid=gsapi,https://www.greatschools.org/school/parentReviews.page?state=TX&id=610&s_cid=gsapi,https://www.greatschools.org/modperl/achievement/TX/610,4,115,Austin Independent School District,4808940,4
183,25584,Kozmetsky At Rathgeber Village,charter,7-12,,Austin,TX,"4800 Manor Road, 
Austin, TX  78723",(512) 791-2270,(512) 232-9177,www.utcharter.org,,30.296387,-97.68996,https://www.greatschools.org/texas/austin/25584-Kozmetsky-At-Rathgeber-Village/?s_cid=gsapi,https://www.greatschools.org/school/rating.page?state=TX&id=25584&s_cid=gsapi,https://www.greatschools.org/school/parentReviews.page?state=TX&id=25584&s_cid=gsapi,https://www.greatschools.org/modperl/achievement/TX/25584,,70,University Of Texas University Charter School,4800071,
184,4147,Lago Vista Elementary School,public,PK-3,526,Austin,TX,"P O Box 4929, 
Austin, TX  78734",(512) 267-8300 x4500,(512) 267-8362,www.lagovistaisd.net,482640002972,30.385658,-97.95364,https://www.greatschools.org/texas/austin/4147-Lago-Vista-Elementary-School/?s_cid=gsapi,https://www.greatschools.org/school/rating.page?state=TX&id=4147&s_cid=gsapi,https://www.greatschools.org/school/parentReviews.page?state=TX&id=4147&s_cid=gsapi,https://www.greatschools.org/modperl/achievement/TX/4147,4,581,Lago Vista Independent School District,4826400,7
185,4148,Lago Vista High School,public,9-12,442,Austin,TX,"P O Box 4929, 
Austin, TX  78734",(512) 267-8300 x2500,(512) 267-8330,www.lagovistaisd.net,482640002973,30.385658,-97.95364,https://www.greatschools.org/texas/austin/4148-Lago-Vista-High-School/?s_cid=gsapi,https://www.greatschools.org/school/rating.page?state=TX&id=4148&s_cid=gsapi,https://www.greatschools.org/school/parentReviews.page?state=TX&id=4148&s_cid=gsapi,https://www.greatschools.org/modperl/achievement/TX/4148,3,581,Lago Vista Independent School District,4826400,6
186,4149,Lago Vista Middle School,public,6-8,425,Austin,TX,"P O Box 4929, 
Austin, TX  78734",(512) 267-8300 x3500,(512) 267-8329,www.lagovistaisd.net,482640007469,30.385658,-97.95364,https://www.greatschools.org/texas/austin/4149-Lago-Vista-Middle-School/?s_cid=gsapi,https://www.greatschools.org/school/rating.page?state=TX&id=4149&s_cid=gsapi,https://www.greatschools.org/school/parentReviews.page?state=TX&id=4149&s_cid=gsapi,https://www.greatschools.org/modperl/achievement/TX/4149,3,581,Lago Vista Independent School District,4826400,5
187,9933,Lake Pointe Elementary School,public,PK-5,676,Austin,TX,"3322 Ranch Road 620 South, 
Austin, TX  78738",(512) 533-6500,(512) 533-6003,,482647009414,30.327839,-97.96536,https://www.greatschools.org/texas/austin/9933-Lake-Pointe-Elementary-School/?s_cid=gsapi,https://www.greatschools.org/school/rating.page?state=TX&id=9933&s_cid=gsapi,https://www.greatschools.org/school/parentReviews.page?state=TX&id=9933&s_cid=gsapi,https://www.greatschools.org/modperl/achievement/TX/9933,4,583,Lake Travis Independent School District,4826470,10
188,4157,Lake Travis Elementary School,public,PK-5,888,Austin,TX,"3322 Ranch Road 620 South, 
Austin, TX  78738",(512) 533-6300,(512) 533-6301,,482647005762,30.327839,-97.96536,https://www.greatschools.org/texas/austin/4157-Lake-Travis-Elementary-School/?s_cid=gsapi,https://www.greatschools.org/school/rating.page?state=TX&id=4157&s_cid=gsapi,https://www.greatschools.org/school/parentReviews.page?state=TX&id=4157&s_cid=gsapi,https://www.greatschools.org/modperl/achievement/TX/4157,4,583,Lake Travis Independent School District,4826470,8
189,4158,Lake Travis High School,public,9-12,2561,Austin,TX,"3324 Ranch Road 620 South, 
Austin, TX  78738",(512) 533-6100,(512) 533-6102,http://www.ltisdschools.org/lths,482647005763,30.324848,-97.96807,https://www.greatschools.org/texas/austin/4158-Lake-Travis-High-School/?s_cid=gsapi,https://www.greatschools.org/school/rating.page?state=TX&id=4158&s_cid=gsapi,https://www.greatschools.org/school/parentReviews.page?state=TX&id=4158&s_cid=gsapi,https://www.greatschools.org/modperl/achievement/TX/4158,3,583,Lake Travis Independent School District,4826470,9
190,24753,Lake Travis STEM Academy,private,K-12,30,Austin,TX,"3315 El Salido Pkwy, 
Austin, TX  78726",(512) 784-7082,,https://www.ltstemacademy.org,,30.360304,-97.69251,https://www.greatschools.org/texas/austin/24753-Lake-Travis-STEM-Academy/?s_cid=gsapi,https://www.greatschools.org/school/rating.page?state=TX&id=24753&s_cid=gsapi,https://www.greatschools.org/school/parentReviews.page?state=TX&id=24753&s_cid=gsapi,https://www.greatschools.org/cgi-bin/TX/otherprivate/24753,5,,,,
191,4156,Lakeway Elementary School,public,PK-5,701,Austin,TX,"3322 Ranch Road 620 South, 
Austin, TX  78738",(512) 533-6350,(512) 533-6351,,482647002520,30.327839,-97.96536,https://www.greatschools.org/texas/austin/4156-Lakeway-Elementary-School/?s_cid=gsapi,https://www.greatschools.org/school/rating.page?state=TX&id=4156&s_cid=gsapi,https://www.greatschools.org/school/parentReviews.page?state=TX&id=4156&s_cid=gsapi,https://www.greatschools.org/modperl/achievement/TX/4156,5,583,Lake Travis Independent School District,4826470,9
192,553,Lamar Middle School,public,6-8,895,Austin,TX,"6201 Wynona Avenue, 
Austin, TX  78757",(512) 414-3217,(512) 467-6862,http://lamarmiddleschool.org/,480894000326,30.337774,-97.74058,https://www.greatschools.org/texas/austin/553-Lamar-Middle-School/?s_cid=gsapi,https://www.greatschools.org/school/rating.page?state=TX&id=553&s_cid=gsapi,https://www.greatschools.org/school/parentReviews.page?state=TX&id=553&s_cid=gsapi,https://www.greatschools.org/modperl/achievement/TX/553,4,115,Austin Independent School District,4808940,7
193,600,Langford Elementary School,public,PK-5,741,Austin,TX,"2206 Blue Meadow Drive, 
Austin, TX  78744",(512) 414-1765,(512) 447-4808,http://www.austinisd.org/,480894005398,30.182083,-97.76337,https://www.greatschools.org/texas/austin/600-Langford-Elementary-School/?s_cid=gsapi,https://www.greatschools.org/school/rating.page?state=TX&id=600&s_cid=gsapi,https://www.greatschools.org/school/parentReviews.page?state=TX&id=600&s_cid=gsapi,https://www.greatschools.org/modperl/achievement/TX/600,3,115,Austin Independent School District,4808940,5
194,554,Lanier High School,public,9-12,1619,Austin,TX,"1201 Payton Gin Road, 
Austin, TX  78758",(512) 414-2514,(512) 832-1203,http://www.laniervikings.org/,480894000327,30.360209,-97.70832,https://www.greatschools.org/texas/austin/554-Lanier-High-School/?s_cid=gsapi,https://www.greatschools.org/school/rating.page?state=TX&id=554&s_cid=gsapi,https://www.greatschools.org/school/parentReviews.page?state=TX&id=554&s_cid=gsapi,https://www.greatschools.org/modperl/achievement/TX/554,4,115,Austin Independent School District,4808940,3
195,12101,Lasa High School,public,9-12,1002,Austin,TX,"7309 Lazy Creek Drive, 
Austin, TX  78724",(512) 414-2589,(512) 929-3955,,480894011930,30.313496,-97.65667,https://www.greatschools.org/texas/austin/12101-Lasa-High-School/?s_cid=gsapi,https://www.greatschools.org/school/rating.page?state=TX&id=12101&s_cid=gsapi,https://www.greatschools.org/school/parentReviews.page?state=TX&id=12101&s_cid=gsapi,https://www.greatschools.org/modperl/achievement/TX/12101,4,115,Austin Independent School District,4808940,10
196,9128,Laura Welch Bush Elementary School,public,PK-5,862,Austin,TX,"12600 Country Trails Lane, 
Austin, TX  78732",(512) 570-6100,(512) 570-6100,,482703009440,30.366116,-97.89997,https://www.greatschools.org/texas/austin/9128-Laura-Welch-Bush-Elementary-School/?s_cid=gsapi,https://www.greatschools.org/school/rating.page?state=TX&id=9128&s_cid=gsapi,https://www.greatschools.org/school/parentReviews.page?state=TX&id=9128&s_cid=gsapi,https://www.greatschools.org/modperl/achievement/TX/9128,4,596,Leander Independent School District,4827030,10
197,5887,Laurel Mountain Elementary School,public,PK-5,778,Austin,TX,"10111 D-K Ranch Road, 
Austin, TX  78759",(512) 464-4300,(512) 464-4390,schools.roundrockisd.org/laurelmountain/,483808006167,30.413939,-97.78091,https://www.greatschools.org/texas/austin/5887-Laurel-Mountain-Elementary-School/?s_cid=gsapi,https://www.greatschools.org/school/rating.page?state=TX&id=5887&s_cid=gsapi,https://www.greatschools.org/school/parentReviews.page?state=TX&id=5887&s_cid=gsapi,https://www.greatschools.org/modperl/achievement/TX/5887,4,870,Round Rock Independent School District,4838080,10
198,12100,Lbj High School,public,9-12,853,Austin,TX,"7309 Lazy Creek Drive, 
Austin, TX  78724",(512) 414-2543,(512) 414-7076,,480894011844,30.313496,-97.65667,https://www.greatschools.org/texas/austin/12100-Lbj-High-School/?s_cid=gsapi,https://www.greatschools.org/school/rating.page?state=TX&id=12100&s_cid=gsapi,https://www.greatschools.org/school/parentReviews.page?state=TX&id=12100&s_cid=gsapi,https://www.greatschools.org/modperl/achievement/TX/12100,4,115,Austin Independent School District,4808940,2
199,616,Leadership Academy,public,6-12,39,Austin,TX,"2515 South Congress Avenue, 
Austin, TX  78704",(512) 854-7077,(512) 476-2809,http://www.greatschools.org/texas/austin/616-Leadership-Academy/,480894007137,30.235638,-97.75366,https://www.greatschools.org/texas/austin/616-Leadership-Academy/?s_cid=gsapi,https://www.greatschools.org/school/rating.page?state=TX&id=616&s_cid=gsapi,https://www.greatschools.org/school/parentReviews.page?state=TX&id=616&s_cid=gsapi,https://www.greatschools.org/modperl/achievement/TX/616,,115,Austin Independent School District,4808940,
200,555,Lee Elementary School,public,PK-6,390,Austin,TX,"3308 Hampton Road, 
Austin, TX  78705",(512) 414-2098,(512) 478-4463,http://www.lee-elementary.org/,480894000328,30.29305,-97.72763,https://www.greatschools.org/texas/austin/555-Lee-Elementary-School/?s_cid=gsapi,https://www.greatschools.org/school/rating.page?state=TX&id=555&s_cid=gsapi,https://www.greatschools.org/school/parentReviews.page?state=TX&id=555&s_cid=gsapi,https://www.greatschools.org/modperl/achievement/TX/555,4,115,Austin Independent School District,4808940,8
201,556,Linder Elementary School,public,1-5,412,Austin,TX,"2800 Metcalfe Road, 
Austin, TX  78741",(512) 414-2398,(512) 447-3222,,480894000329,30.224209,-97.73794,https://www.greatschools.org/texas/austin/556-Linder-Elementary-School/?s_cid=gsapi,https://www.greatschools.org/school/rating.page?state=TX&id=556&s_cid=gsapi,https://www.greatschools.org/school/parentReviews.page?state=TX&id=556&s_cid=gsapi,https://www.greatschools.org/modperl/achievement/TX/556,3,115,Austin Independent School District,4808940,3
202,5892,Live Oak Elementary School,public,PK-5,540,Austin,TX,"8607 Anderson Mill Road, 
Austin, TX  78729",(512) 428-3800,(512) 428-3890,schools.roundrockisd.org/liveoak/,483808006470,30.45348,-97.771126,https://www.greatschools.org/texas/austin/5892-Live-Oak-Elementary-School/?s_cid=gsapi,https://www.greatschools.org/school/rating.page?state=TX&id=5892&s_cid=gsapi,https://www.greatschools.org/school/parentReviews.page?state=TX&id=5892&s_cid=gsapi,https://www.greatschools.org/modperl/achievement/TX/5892,4,870,Round Rock Independent School District,4838080,6
203,24804,Long-View Micro-School,private,2-5,37,Austin,TX,"1201 West 24th Street, 
Austin, TX  78705",(512) 988-9887,,www.long-view.com,,30.288166,-97.75077,https://www.greatschools.org/texas/austin/24804-Long-View-Micro-School/?s_cid=gsapi,https://www.greatschools.org/school/rating.page?state=TX&id=24804&s_cid=gsapi,https://www.greatschools.org/school/parentReviews.page?state=TX&id=24804&s_cid=gsapi,https://www.greatschools.org/cgi-bin/TX/otherprivate/24804,,,,,
204,25022,Magnolia Montessori For All,charter,PK-8,475,Austin,TX,"5100 Pecan Brook Drive, 
Austin, TX  78724",(512) 522-2429,(512) 522-2429,http://magnolia.montessoriforall.org/,,30.317167,-97.65826,https://www.greatschools.org/texas/austin/25022-Magnolia-Montessori-For-All/?s_cid=gsapi,https://www.greatschools.org/school/rating.page?state=TX&id=25022&s_cid=gsapi,https://www.greatschools.org/school/parentReviews.page?state=TX&id=25022&s_cid=gsapi,https://www.greatschools.org/modperl/achievement/TX/25022,,1439,Montessori For All,4801442,3
205,557,Maplewood Elementary School,public,PK-6,480,Austin,TX,"3808 Maplewood Avenue, 
Austin, TX  78722",(512) 414-4402,(512) 472-8559,www.maplewoodelementary.com,480894000330,30.293337,-97.714905,https://www.greatschools.org/texas/austin/557-Maplewood-Elementary-School/?s_cid=gsapi,https://www.greatschools.org/school/rating.page?state=TX&id=557&s_cid=gsapi,https://www.greatschools.org/school/parentReviews.page?state=TX&id=557&s_cid=gsapi,https://www.greatschools.org/modperl/achievement/TX/557,5,115,Austin Independent School District,4808940,4
206,7749,Maranatha Christian Academy,private,K-10,,Austin,TX,"8210 S 1st Street, 
Austin, TX  78748",(512) 282-4263,,,02062768,30.18099,-97.795044,https://www.greatschools.org/texas/austin/7749-Maranatha-Christian-Academy/?s_cid=gsapi,https://www.greatschools.org/school/rating.page?state=TX&id=7749&s_cid=gsapi,https://www.greatschools.org/school/parentReviews.page?state=TX&id=7749&s_cid=gsapi,https://www.greatschools.org/cgi-bin/TX/otherprivate/7749,5,,,,
207,558,Martin Middle School,public,6-8,555,Austin,TX,"1601 Haskell Street, 
Austin, TX  78702",(512) 414-3243,(512) 320-0125,,480894000331,30.253086,-97.72987,https://www.greatschools.org/texas/austin/558-Martin-Middle-School/?s_cid=gsapi,https://www.greatschools.org/school/rating.page?state=TX&id=558&s_cid=gsapi,https://www.greatschools.org/school/parentReviews.page?state=TX&id=558&s_cid=gsapi,https://www.greatschools.org/modperl/achievement/TX/558,3,115,Austin Independent School District,4808940,1
208,559,Mathews Elementary School,public,PK-6,410,Austin,TX,"906 West Lynn Street, 
Austin, TX  78703",(512) 414-4406,(512) 476-2108,https://www.mathews360.com/,480894000332,30.278215,-97.760796,https://www.greatschools.org/texas/austin/559-Mathews-Elementary-School/?s_cid=gsapi,https://www.greatschools.org/school/rating.page?state=TX&id=559&s_cid=gsapi,https://www.greatschools.org/school/parentReviews.page?state=TX&id=559&s_cid=gsapi,https://www.greatschools.org/modperl/achievement/TX/559,5,115,Austin Independent School District,4808940,8
209,9148,Mcbee Elementary School,public,PK-5,531,Austin,TX,"1101 West Braker Lane, 
Austin, TX  78758",(512) 841-2500,(512) 841-2333,,480894008939,30.38325,-97.69106,https://www.greatschools.org/texas/austin/9148-Mcbee-Elementary-School/?s_cid=gsapi,https://www.greatschools.org/school/rating.page?state=TX&id=9148&s_cid=gsapi,https://www.greatschools.org/school/parentReviews.page?state=TX&id=9148&s_cid=gsapi,https://www.greatschools.org/modperl/achievement/TX/9148,3,115,Austin Independent School District,4808940,7
210,560,Mccallum High School,public,9-12,1648,Austin,TX,"5600 Sunshine Drive, 
Austin, TX  78756",(512) 414-2519,(512) 453-2599,http://www.austinschools.org/mccallum,480894000333,30.327484,-97.72887,https://www.greatschools.org/texas/austin/560-Mccallum-High-School/?s_cid=gsapi,https://www.greatschools.org/school/rating.page?state=TX&id=560&s_cid=gsapi,https://www.greatschools.org/school/parentReviews.page?state=TX&id=560&s_cid=gsapi,https://www.greatschools.org/modperl/achievement/TX/560,4,115,Austin Independent School District,4808940,7
211,5891,Mcneil High School,public,9-12,2546,Austin,TX,"5720 McNeil Drive, 
Austin, TX  78729",(512) 464-6300,(512) 464-6550,schools.roundrockisd.org/mcneil/,483808006469,30.448587,-97.73333,https://www.greatschools.org/texas/austin/5891-Mcneil-High-School/?s_cid=gsapi,https://www.greatschools.org/school/rating.page?state=TX&id=5891&s_cid=gsapi,https://www.greatschools.org/school/parentReviews.page?state=TX&id=5891&s_cid=gsapi,https://www.greatschools.org/modperl/achievement/TX/5891,4,870,Round Rock Independent School District,4838080,7
212,607,Mendez Middle School,public,6-8,842,Austin,TX,"5106 Village Square Drive, 
Austin, TX  78744",(512) 414-3284,(512) 442-5738,,480894006209,30.188675,-97.74306,https://www.greatschools.org/texas/austin/607-Mendez-Middle-School/?s_cid=gsapi,https://www.greatschools.org/school/rating.page?state=TX&id=607&s_cid=gsapi,https://www.greatschools.org/school/parentReviews.page?state=TX&id=607&s_cid=gsapi,https://www.greatschools.org/modperl/achievement/TX/607,4,115,Austin Independent School District,4808940,1
213,562,Metz Elementary School,public,PK-5,305,Austin,TX,"84 Robert Martinez Junior Street, 
Austin, TX  78702",(512) 414-4408,(512) 472-3412,http://www.metzelem.tx.aie.schoolinsites.com/,480894000335,30.254284,-97.721725,https://www.greatschools.org/texas/austin/562-Metz-Elementary-School/?s_cid=gsapi,https://www.greatschools.org/school/rating.page?state=TX&id=562&s_cid=gsapi,https://www.greatschools.org/school/parentReviews.page?state=TX&id=562&s_cid=gsapi,https://www.greatschools.org/modperl/achievement/TX/562,5,115,Austin Independent School District,4808940,3
214,620,Mills Elementary School,public,PK-5,802,Austin,TX,"6201 Davis Lane, 
Austin, TX  78749",(512) 841-2400,(512) 841-2490,http://www.millspta.org/,480894008062,30.210917,-97.8782,https://www.greatschools.org/texas/austin/620-Mills-Elementary-School/?s_cid=gsapi,https://www.greatschools.org/school/rating.page?state=TX&id=620&s_cid=gsapi,https://www.greatschools.org/school/parentReviews.page?state=TX&id=620&s_cid=gsapi,https://www.greatschools.org/modperl/achievement/TX/620,4,115,Austin Independent School District,4808940,9
215,21331,Mr Darcy's Class,private,1-6,12,Austin,TX,"8805 Tara Lane, 
Austin, TX  78737",(512) 288-3926,,mrdarcysclass.com,,30.232285,-97.91796,https://www.greatschools.org/texas/austin/21331-Mr-Darcy's-Class/?s_cid=gsapi,https://www.greatschools.org/school/rating.page?state=TX&id=21331&s_cid=gsapi,https://www.greatschools.org/school/parentReviews.page?state=TX&id=21331&s_cid=gsapi,https://www.greatschools.org/cgi-bin/TX/otherprivate/21331,5,,,,
216,563,Murchison Middle School,public,6-8,1363,Austin,TX,"3700 North Hills Drive, 
Austin, TX  78731",(512) 414-3254,(512) 343-1710,http://www.murchisonmatadors.org/,480894000336,30.353977,-97.75872,https://www.greatschools.org/texas/austin/563-Murchison-Middle-School/?s_cid=gsapi,https://www.greatschools.org/school/rating.page?state=TX&id=563&s_cid=gsapi,https://www.greatschools.org/school/parentReviews.page?state=TX&id=563&s_cid=gsapi,https://www.greatschools.org/modperl/achievement/TX/563,4,115,Austin Independent School District,4808940,7
217,5873,Noel Grisham Middle School,public,6-8,658,Austin,TX,"10805 School House Lane, 
Austin, TX  78750",(512) 428-2650,(512) 428-2790,schools.roundrockisd.org/grisham/,483808004251,30.457403,-97.80668,https://www.greatschools.org/texas/austin/5873-Noel-Grisham-Middle-School/?s_cid=gsapi,https://www.greatschools.org/school/rating.page?state=TX&id=5873&s_cid=gsapi,https://www.greatschools.org/school/parentReviews.page?state=TX&id=5873&s_cid=gsapi,https://www.greatschools.org/modperl/achievement/TX/5873,3,870,Round Rock Independent School District,4838080,7
218,564,Norman Elementary School,public,PK-6,299,Austin,TX,"4001 Tannehill Lane, 
Austin, TX  78721",(512) 414-2347,(512) 926-6321,,480894000337,30.278324,-97.67397,https://www.greatschools.org/texas/austin/564-Norman-Elementary-School/?s_cid=gsapi,https://www.greatschools.org/school/rating.page?state=TX&id=564&s_cid=gsapi,https://www.greatschools.org/school/parentReviews.page?state=TX&id=564&s_cid=gsapi,https://www.greatschools.org/modperl/achievement/TX/564,3,115,Austin Independent School District,4808940,6
219,5412,Northwest Elementary School,public,PK-5,562,Austin,TX,"14014 Thermal Drive, 
Austin, TX  78728",(512) 594-4400,(512) 594-4405,http://www.pfisd.net/Domain/24,483483006310,30.431906,-97.67626,https://www.greatschools.org/texas/austin/5412-Northwest-Elementary-School/?s_cid=gsapi,https://www.greatschools.org/school/rating.page?state=TX&id=5412&s_cid=gsapi,https://www.greatschools.org/school/parentReviews.page?state=TX&id=5412&s_cid=gsapi,https://www.greatschools.org/modperl/achievement/TX/5412,5,793,Pflugerville Independent School District,4834830,3
220,9147,Nyos - Magnolia Mccullough Campus,charter,PK-3,325,Austin,TX,"1605 Kramer Lane, 
Austin, TX  78758",(512) 275-1593,(512) 287-5258,www.nyos.org,480005809070,30.38466,-97.70277,https://www.greatschools.org/texas/austin/9147-Nyos---Magnolia-Mccullough-Campus/?s_cid=gsapi,https://www.greatschools.org/school/rating.page?state=TX&id=9147&s_cid=gsapi,https://www.greatschools.org/school/parentReviews.page?state=TX&id=9147&s_cid=gsapi,https://www.greatschools.org/modperl/achievement/TX/9147,4,57,Nyos Charter School,4800058,8
221,93,Nyos Charter School,charter,4-12,597,Austin,TX,"12301 North Lamar Boulevard, 
Austin, TX  78753",(512) 583-6967,(512) 583-6973,www.nyos.org,480005808056,30.402246,-97.67847,https://www.greatschools.org/texas/austin/93-Nyos-Charter-School/?s_cid=gsapi,https://www.greatschools.org/school/rating.page?state=TX&id=93&s_cid=gsapi,https://www.greatschools.org/school/parentReviews.page?state=TX&id=93&s_cid=gsapi,https://www.greatschools.org/modperl/achievement/TX/93,4,57,Nyos Charter School,4800058,8
222,565,O Henry Middle School,public,6-8,891,Austin,TX,"2610 West 10th Street, 
Austin, TX  78703",(512) 414-3229,(512) 477-7428,http://ohenrypta.org/,480894000338,30.285492,-97.77376,https://www.greatschools.org/texas/austin/565-O-Henry-Middle-School/?s_cid=gsapi,https://www.greatschools.org/school/rating.page?state=TX&id=565&s_cid=gsapi,https://www.greatschools.org/school/parentReviews.page?state=TX&id=565&s_cid=gsapi,https://www.greatschools.org/modperl/achievement/TX/565,4,115,Austin Independent School District,4808940,6
223,566,Oak Hill Elementary School,public,PK-5,871,Austin,TX,"6101 Patton Ranch Road, 
Austin, TX  78735",(512) 414-2336,(512) 892-2279,www.oakhillelementary.org,480894000339,30.237991,-97.858765,https://www.greatschools.org/texas/austin/566-Oak-Hill-Elementary-School/?s_cid=gsapi,https://www.greatschools.org/school/rating.page?state=TX&id=566&s_cid=gsapi,https://www.greatschools.org/school/parentReviews.page?state=TX&id=566&s_cid=gsapi,https://www.greatschools.org/modperl/achievement/TX/566,4,115,Austin Independent School District,4808940,6
224,567,Oak Springs Elementary School,public,PK-5,306,Austin,TX,"3601 Webberville Road, 
Austin, TX  78702",(512) 414-4413,(512) 472-5005,,480894000340,30.271786,-97.70484,https://www.greatschools.org/texas/austin/567-Oak-Springs-Elementary-School/?s_cid=gsapi,https://www.greatschools.org/school/rating.page?state=TX&id=567&s_cid=gsapi,https://www.greatschools.org/school/parentReviews.page?state=TX&id=567&s_cid=gsapi,https://www.greatschools.org/modperl/achievement/TX/567,5,115,Austin Independent School District,4808940,3
225,19725,Oakmont School,private,K-12,,Austin,TX,"1510 Morrow St, 
Austin, TX  78757",(512) 420-9300,,,A0702253,30.34799,-97.724556,https://www.greatschools.org/texas/austin/19725-Oakmont-School/?s_cid=gsapi,https://www.greatschools.org/school/rating.page?state=TX&id=19725&s_cid=gsapi,https://www.greatschools.org/school/parentReviews.page?state=TX&id=19725&s_cid=gsapi,https://www.greatschools.org/cgi-bin/TX/otherprivate/19725,,,,,
226,568,Odom Elementary School,public,PK-5,546,Austin,TX,"1010 Turtle Creek Boulevard, 
Austin, TX  78745",(512) 414-2388,(512) 443-6170,,480894000341,30.20562,-97.78878,https://www.greatschools.org/texas/austin/568-Odom-Elementary-School/?s_cid=gsapi,https://www.greatschools.org/school/rating.page?state=TX&id=568&s_cid=gsapi,https://www.greatschools.org/school/parentReviews.page?state=TX&id=568&s_cid=gsapi,https://www.greatschools.org/modperl/achievement/TX/568,3,115,Austin Independent School District,4808940,6
227,11858,Odyssey School,private,5-12,40,Austin,TX,"4407 Red River Street, 
Austin, TX  78751",(512) 472-2262,(512) 236-9385,http://www.odysseyschool.com,A0503453,30.304052,-97.71981,https://www.greatschools.org/texas/austin/11858-Odyssey-School/?s_cid=gsapi,https://www.greatschools.org/school/rating.page?state=TX&id=11858&s_cid=gsapi,https://www.greatschools.org/school/parentReviews.page?state=TX&id=11858&s_cid=gsapi,https://www.greatschools.org/cgi-bin/TX/otherprivate/11858,3,,,,
228,569,Ortega Elementary School,public,PK-5,326,Austin,TX,"1135 Garland Avenue, 
Austin, TX  78721",(512) 414-4417,(512) 929-7906,http://ortegaelementary.weebly.com/,480894000342,30.269997,-97.68428,https://www.greatschools.org/texas/austin/569-Ortega-Elementary-School/?s_cid=gsapi,https://www.greatschools.org/school/rating.page?state=TX&id=569&s_cid=gsapi,https://www.greatschools.org/school/parentReviews.page?state=TX&id=569&s_cid=gsapi,https://www.greatschools.org/modperl/achievement/TX/569,5,115,Austin Independent School District,4808940,5
229,7808,Our Savior Lutheran School,private,PK-5,53,Austin,TX,"1513 East Yager Lane, 
Austin, TX  78753",(512) 836-9600,(512) 836-4660,http://www.oslaustin.org,A9106495,30.386408,-97.65198,https://www.greatschools.org/texas/austin/7808-Our-Savior-Lutheran-School/?s_cid=gsapi,https://www.greatschools.org/school/rating.page?state=TX&id=7808&s_cid=gsapi,https://www.greatschools.org/school/parentReviews.page?state=TX&id=7808&s_cid=gsapi,https://www.greatschools.org/cgi-bin/TX/otherprivate/7808,4,,,,
230,10792,Overton Elementary School,public,PK-6,650,Austin,TX,"7201 Colony Loop Drive, 
Austin, TX  78724",(512) 841-9300,(512) 841-9301,,480894011066,30.300186,-97.6367,https://www.greatschools.org/texas/austin/10792-Overton-Elementary-School/?s_cid=gsapi,https://www.greatschools.org/school/rating.page?state=TX&id=10792&s_cid=gsapi,https://www.greatschools.org/school/parentReviews.page?state=TX&id=10792&s_cid=gsapi,https://www.greatschools.org/modperl/achievement/TX/10792,4,115,Austin Independent School District,4808940,4
231,10791,Padron Elementary School,public,PK-5,693,Austin,TX,"1111 West 6th Street, 
Austin, TX  78703",(512) 841-9600,(512) 841-9601,,480894011065,30.272375,-97.756516,https://www.greatschools.org/texas/austin/10791-Padron-Elementary-School/?s_cid=gsapi,https://www.greatschools.org/school/rating.page?state=TX&id=10791&s_cid=gsapi,https://www.greatschools.org/school/parentReviews.page?state=TX&id=10791&s_cid=gsapi,https://www.greatschools.org/modperl/achievement/TX/10791,,115,Austin Independent School District,4808940,7
232,609,Palm Elementary School,public,PK-5,516,Austin,TX,"7601 Dixie Drive, 
Austin, TX  78744",(512) 414-2545,(512) 280-2769,http://palm.austinschools.org/,480894006211,30.164824,-97.743675,https://www.greatschools.org/texas/austin/609-Palm-Elementary-School/?s_cid=gsapi,https://www.greatschools.org/school/rating.page?state=TX&id=609&s_cid=gsapi,https://www.greatschools.org/school/parentReviews.page?state=TX&id=609&s_cid=gsapi,https://www.greatschools.org/modperl/achievement/TX/609,3,115,Austin Independent School District,4808940,6
233,8076,Paragon Prep School,private,K-8,215,Austin,TX,"2001 West Koenig Lane, 
Austin, TX  78756",(512) 459-5040,(512) 459-1875,http://www.paragonprep.com,A9703372,30.333954,-97.73803,https://www.greatschools.org/texas/austin/8076-Paragon-Prep-School/?s_cid=gsapi,https://www.greatschools.org/school/rating.page?state=TX&id=8076&s_cid=gsapi,https://www.greatschools.org/school/parentReviews.page?state=TX&id=8076&s_cid=gsapi,https://www.greatschools.org/cgi-bin/TX/otherprivate/8076,5,,,,
234,9472,Paredes Middle School,public,6-8,1032,Austin,TX,"10100 South Mary Moore Searight Drive, 
Austin, TX  78748",(512) 841-6800,(512) 841-7036,,480894008938,30.165659,-97.81159,https://www.greatschools.org/texas/austin/9472-Paredes-Middle-School/?s_cid=gsapi,https://www.greatschools.org/school/rating.page?state=TX&id=9472&s_cid=gsapi,https://www.greatschools.org/school/parentReviews.page?state=TX&id=9472&s_cid=gsapi,https://www.greatschools.org/modperl/achievement/TX/9472,3,115,Austin Independent School District,4808940,4
235,7992,Parkside Community School,private,PK-6,135,Austin,TX,"3702 W. Slaughter Lane , 
Austin, TX  78748",(512) 472-2559,(512) 472-2592,https://www.parksidecommunityschool.org/,A9504131,30.1856,-97.85356,https://www.greatschools.org/texas/austin/7992-Parkside-Community-School/?s_cid=gsapi,https://www.greatschools.org/school/rating.page?state=TX&id=7992&s_cid=gsapi,https://www.greatschools.org/school/parentReviews.page?state=TX&id=7992&s_cid=gsapi,https://www.greatschools.org/cgi-bin/TX/otherprivate/7992,5,,,,
236,5410,Parmer Lane Elementary School,public,PK-5,439,Austin,TX,"1806 Parmer Lane, 
Austin, TX  78727",(512) 594-4000,(512) 594-4005,http://www.pfisd.net/Domain/25,483483005794,30.418943,-97.70227,https://www.greatschools.org/texas/austin/5410-Parmer-Lane-Elementary-School/?s_cid=gsapi,https://www.greatschools.org/school/rating.page?state=TX&id=5410&s_cid=gsapi,https://www.greatschools.org/school/parentReviews.page?state=TX&id=5410&s_cid=gsapi,https://www.greatschools.org/modperl/achievement/TX/5410,3,793,Pflugerville Independent School District,4834830,7
237,9133,Patsy Sommer Elementary School,public,PK-5,992,Austin,TX,"16200 Avery Ranch Boulevard, 
Austin, TX  78717",(512) 704-0600,(512) 704-0690,schools.roundrockisd.org/sommer/,483808011104,30.504526,-97.75202,https://www.greatschools.org/texas/austin/9133-Patsy-Sommer-Elementary-School/?s_cid=gsapi,https://www.greatschools.org/school/rating.page?state=TX&id=9133&s_cid=gsapi,https://www.greatschools.org/school/parentReviews.page?state=TX&id=9133&s_cid=gsapi,https://www.greatschools.org/modperl/achievement/TX/9133,4,870,Round Rock Independent School District,4838080,10
238,604,Patton Elementary School,public,PK-5,945,Austin,TX,"6001 Westcreek Drive, 
Austin, TX  78749",(512) 414-1780,(512) 892-6541,http://www.pattonelementary.com/,480894006070,30.2318,-97.84553,https://www.greatschools.org/texas/austin/604-Patton-Elementary-School/?s_cid=gsapi,https://www.greatschools.org/school/rating.page?state=TX&id=604&s_cid=gsapi,https://www.greatschools.org/school/parentReviews.page?state=TX&id=604&s_cid=gsapi,https://www.greatschools.org/modperl/achievement/TX/604,4,115,Austin Independent School District,4808940,6
239,19532,Pearson Ranch Middle,public,6-8,,Austin,TX,"8901 Pearson Ranch Road, 
Austin, TX  78717",(512) 464-5000,(542) 464-5090,,483808012299,30.496775,-97.75084,https://www.greatschools.org/texas/austin/19532-Pearson-Ranch-Middle/?s_cid=gsapi,https://www.greatschools.org/school/rating.page?state=TX&id=19532&s_cid=gsapi,https://www.greatschools.org/school/parentReviews.page?state=TX&id=19532&s_cid=gsapi,https://www.greatschools.org/modperl/achievement/TX/19532,,870,Round Rock Independent School District,4838080,
240,571,Pease Elementary School,public,PK-6,260,Austin,TX,"1106 Rio Grande Street, 
Austin, TX  78701",(512) 414-4428,(512) 477-3009,www.peaseelementary.weebly.com,480894000344,30.275291,-97.74803,https://www.greatschools.org/texas/austin/571-Pease-Elementary-School/?s_cid=gsapi,https://www.greatschools.org/school/rating.page?state=TX&id=571&s_cid=gsapi,https://www.greatschools.org/school/parentReviews.page?state=TX&id=571&s_cid=gsapi,https://www.greatschools.org/modperl/achievement/TX/571,4,115,Austin Independent School District,4808940,7
241,572,Pecan Springs Elementary School,public,PK-6,452,Austin,TX,"3100 Rogge Lane, 
Austin, TX  78723",(512) 414-4445,(512) 926-0001,,480894000345,30.303139,-97.676315,https://www.greatschools.org/texas/austin/572-Pecan-Springs-Elementary-School/?s_cid=gsapi,https://www.greatschools.org/school/rating.page?state=TX&id=572&s_cid=gsapi,https://www.greatschools.org/school/parentReviews.page?state=TX&id=572&s_cid=gsapi,https://www.greatschools.org/modperl/achievement/TX/572,3,115,Austin Independent School District,4808940,5
242,10795,Perez Elementary School,public,PK-5,871,Austin,TX,"7500 South Pleasant Valley Road, 
Austin, TX  78744",(512) 841-9100,,,480894011067,30.17085,-97.75624,https://www.greatschools.org/texas/austin/10795-Perez-Elementary-School/?s_cid=gsapi,https://www.greatschools.org/school/rating.page?state=TX&id=10795&s_cid=gsapi,https://www.greatschools.org/school/parentReviews.page?state=TX&id=10795&s_cid=gsapi,https://www.greatschools.org/modperl/achievement/TX/10795,4,115,Austin Independent School District,4808940,4
243,8614,Phoenix Academy,public,6-12,32,Austin,TX,"400 West Live Oak Street, 
Austin, TX  78704",(512) 440-0613 x4721,(512) 440-0235,,480894008389,30.24414,-97.75614,https://www.greatschools.org/texas/austin/8614-Phoenix-Academy/?s_cid=gsapi,https://www.greatschools.org/school/rating.page?state=TX&id=8614&s_cid=gsapi,https://www.greatschools.org/school/parentReviews.page?state=TX&id=8614&s_cid=gsapi,https://www.greatschools.org/modperl/achievement/TX/8614,,115,Austin Independent School District,4808940,
244,9142,Pickle Elementary School,public,PK-5,746,Austin,TX,"1101 Wheatley Avenue, 
Austin, TX  78752",(512) 841-8400,(512) 841-8444,https://www.austinisd.org/schools/pickle,480894009078,30.333408,-97.693825,https://www.greatschools.org/texas/austin/9142-Pickle-Elementary-School/?s_cid=gsapi,https://www.greatschools.org/school/rating.page?state=TX&id=9142&s_cid=gsapi,https://www.greatschools.org/school/parentReviews.page?state=TX&id=9142&s_cid=gsapi,https://www.greatschools.org/modperl/achievement/TX/9142,3,115,Austin Independent School District,4808940,2
245,573,Pillow Elementary School,public,PK-5,582,Austin,TX,"3025 Crosscreek Drive, 
Austin, TX  78757",(512) 414-2350,(512) 467-2513,http://archive.austinisd.org/schools/details.phtml?id=096,480894000346,30.369263,-97.73339,https://www.greatschools.org/texas/austin/573-Pillow-Elementary-School/?s_cid=gsapi,https://www.greatschools.org/school/rating.page?state=TX&id=573&s_cid=gsapi,https://www.greatschools.org/school/parentReviews.page?state=TX&id=573&s_cid=gsapi,https://www.greatschools.org/modperl/achievement/TX/573,4,115,Austin Independent School District,4808940,4
246,18849,Pioneer Crossing Elementary School,public,PK-5,652,Austin,TX,"11300 Samsung Boulevard, 
Austin, TX  78754",(512) 278-4850,(512) 278-4259,pce.manorisd.net,482889011988,30.362078,-97.63998,https://www.greatschools.org/texas/austin/18849-Pioneer-Crossing-Elementary-School/?s_cid=gsapi,https://www.greatschools.org/school/rating.page?state=TX&id=18849&s_cid=gsapi,https://www.greatschools.org/school/parentReviews.page?state=TX&id=18849&s_cid=gsapi,https://www.greatschools.org/modperl/achievement/TX/18849,4,646,Manor Independent School District,4828890,6
247,574,Pleasant Hill Elementary School,public,PK-5,527,Austin,TX,"6405 Circle South Road, 
Austin, TX  78745",(512) 414-4453,(512) 442-4741,,480894000347,30.196213,-97.77649,https://www.greatschools.org/texas/austin/574-Pleasant-Hill-Elementary-School/?s_cid=gsapi,https://www.greatschools.org/school/rating.page?state=TX&id=574&s_cid=gsapi,https://www.greatschools.org/school/parentReviews.page?state=TX&id=574&s_cid=gsapi,https://www.greatschools.org/modperl/achievement/TX/574,3,115,Austin Independent School District,4808940,5
248,5888,Pond Springs Elementary School,public,PK-5,656,Austin,TX,"7825 Elkhorn Mountain Trail, 
Austin, TX  78729",(512) 464-4200,(512) 464-4290,schools.roundrockisd.org/pondsprings/,483808006314,30.446201,-97.76417,https://www.greatschools.org/texas/austin/5888-Pond-Springs-Elementary-School/?s_cid=gsapi,https://www.greatschools.org/school/rating.page?state=TX&id=5888&s_cid=gsapi,https://www.greatschools.org/school/parentReviews.page?state=TX&id=5888&s_cid=gsapi,https://www.greatschools.org/modperl/achievement/TX/5888,4,870,Round Rock Independent School District,4838080,5
249,2032,Popham Elementary School,public,PK-5,793,Austin,TX,"7014 Elroy Road, 
Austin, TX  78617",(512) 386-3750,(512) 386-3755,www.dvisd.net,481662001426,30.157845,-97.64396,https://www.greatschools.org/texas/austin/2032-Popham-Elementary-School/?s_cid=gsapi,https://www.greatschools.org/school/rating.page?state=TX&id=2032&s_cid=gsapi,https://www.greatschools.org/school/parentReviews.page?state=TX&id=2032&s_cid=gsapi,https://www.greatschools.org/modperl/achievement/TX/2032,4,315,Del Valle Independent School District,4816620,3
250,8424,Praise Christian Academy,private,PK-6,,Austin,TX,"5800 E Martin Luther King Jr, 
Austin, TX  78721",(512) 926-9600,,,A9904274,30.2861,-97.6676,https://www.greatschools.org/texas/austin/8424-Praise-Christian-Academy/?s_cid=gsapi,https://www.greatschools.org/school/rating.page?state=TX&id=8424&s_cid=gsapi,https://www.greatschools.org/school/parentReviews.page?state=TX&id=8424&s_cid=gsapi,https://www.greatschools.org/cgi-bin/TX/otherprivate/8424,,,,,
251,20406,Premier High School At Lanier,charter,9-12,122,Austin,TX,"1201 Payton Gin Road, 
Austin, TX  78758",(512) 414-2896,(512) 832-1203,,,30.360209,-97.70832,https://www.greatschools.org/texas/austin/20406-Premier-High-School-At-Lanier/?s_cid=gsapi,https://www.greatschools.org/school/rating.page?state=TX&id=20406&s_cid=gsapi,https://www.greatschools.org/school/parentReviews.page?state=TX&id=20406&s_cid=gsapi,https://www.greatschools.org/modperl/achievement/TX/20406,,115,Austin Independent School District,4808940,1
252,20405,Premier High School At Travis,charter,9-12,133,Austin,TX,"1211 East Oltorf Street, 
Austin, TX  78704",(512) 414-6635,(512) 707-0050,http://www.austinisd.org/,,30.233839,-97.743256,https://www.greatschools.org/texas/austin/20405-Premier-High-School-At-Travis/?s_cid=gsapi,https://www.greatschools.org/school/rating.page?state=TX&id=20405&s_cid=gsapi,https://www.greatschools.org/school/parentReviews.page?state=TX&id=20405&s_cid=gsapi,https://www.greatschools.org/modperl/achievement/TX/20405,,115,Austin Independent School District,4808940,1
253,19817,Primavera Montessori School,private,PK-4,130,Austin,TX,"6405 Manchaca Rd., 
Austin, TX  78745",(512) 804-0005,,http://primavera-montessori.org/,,30.207909,-97.804756,https://www.greatschools.org/texas/austin/19817-Primavera-Montessori-School/?s_cid=gsapi,https://www.greatschools.org/school/rating.page?state=TX&id=19817&s_cid=gsapi,https://www.greatschools.org/school/parentReviews.page?state=TX&id=19817&s_cid=gsapi,https://www.greatschools.org/cgi-bin/TX/otherprivate/19817,5,,,,
254,24423,Primavera Montessori School,private,PK-5,,Austin,TX,"1934 Berkeley Avenue, 
Austin, TX  78745",(512) 443-8843,,,BB122217,30.208569,-97.80367,https://www.greatschools.org/texas/austin/24423-Primavera-Montessori-School/?s_cid=gsapi,https://www.greatschools.org/school/rating.page?state=TX&id=24423&s_cid=gsapi,https://www.greatschools.org/school/parentReviews.page?state=TX&id=24423&s_cid=gsapi,https://www.greatschools.org/cgi-bin/TX/otherprivate/24423,,,,,
255,5883,Purple Sage Elementary School,public,PK-5,345,Austin,TX,"11801 Tanglebriar Trail, 
Austin, TX  78750",(512) 428-3500,(512) 428-3590,schools.roundrockisd.org/purplesage/,483808005804,30.457247,-97.82031,https://www.greatschools.org/texas/austin/5883-Purple-Sage-Elementary-School/?s_cid=gsapi,https://www.greatschools.org/school/rating.page?state=TX&id=5883&s_cid=gsapi,https://www.greatschools.org/school/parentReviews.page?state=TX&id=5883&s_cid=gsapi,https://www.greatschools.org/modperl/achievement/TX/5883,4,870,Round Rock Independent School District,4838080,6
256,12409,Rawson Saunders,private,1-12,175,Austin,TX,"2614A Exposition Boulevard, 
Austin, TX  78703",(512) 476-8382,(512) 476-1132,,A0702262,30.301817,-97.765114,https://www.greatschools.org/texas/austin/12409-Rawson-Saunders/?s_cid=gsapi,https://www.greatschools.org/school/rating.page?state=TX&id=12409&s_cid=gsapi,https://www.greatschools.org/school/parentReviews.page?state=TX&id=12409&s_cid=gsapi,https://www.greatschools.org/cgi-bin/TX/otherprivate/12409,4,,,,
257,576,Reagan High School,public,9-12,1229,Austin,TX,"7104 Berkman Drive, 
Austin, TX  78752",(512) 414-2523,(512) 452-7089,https://www.austinisd.org/schools/reagan,480894000350,30.324188,-97.69135,https://www.greatschools.org/texas/austin/576-Reagan-High-School/?s_cid=gsapi,https://www.greatschools.org/school/rating.page?state=TX&id=576&s_cid=gsapi,https://www.greatschools.org/school/parentReviews.page?state=TX&id=576&s_cid=gsapi,https://www.greatschools.org/modperl/achievement/TX/576,4,115,Austin Independent School District,4808940,2
258,7479,Redeemer Lutheran School,private,PK-8,508,Austin,TX,"1500 West Anderson Lane, 
Austin, TX  78757",(512) 451-6478,(512) 459-6779,http://www.redeemerschool.net,01326553,30.352537,-97.72068,https://www.greatschools.org/texas/austin/7479-Redeemer-Lutheran-School/?s_cid=gsapi,https://www.greatschools.org/school/rating.page?state=TX&id=7479&s_cid=gsapi,https://www.greatschools.org/school/parentReviews.page?state=TX&id=7479&s_cid=gsapi,https://www.greatschools.org/cgi-bin/TX/otherprivate/7479,4,,,,
259,11519,Regents School Of Austin,private,K-12,1011,Austin,TX,"3230 Travis Country Circle, 
Austin, TX  78735",(512) 899-8095,(512) 899-8623,www.regentsaustin.org,A0109452,30.254488,-97.84532,https://www.greatschools.org/texas/austin/11519-Regents-School-Of-Austin/?s_cid=gsapi,https://www.greatschools.org/school/rating.page?state=TX&id=11519&s_cid=gsapi,https://www.greatschools.org/school/parentReviews.page?state=TX&id=11519&s_cid=gsapi,https://www.greatschools.org/cgi-bin/TX/otherprivate/11519,4,,,,
260,577,Reilly Elementary School,public,PK-5,277,Austin,TX,"405 Denson Drive, 
Austin, TX  78752",(512) 414-4464,(512) 453-1193,,480894000351,30.327883,-97.71982,https://www.greatschools.org/texas/austin/577-Reilly-Elementary-School/?s_cid=gsapi,https://www.greatschools.org/school/rating.page?state=TX&id=577&s_cid=gsapi,https://www.greatschools.org/school/parentReviews.page?state=TX&id=577&s_cid=gsapi,https://www.greatschools.org/modperl/achievement/TX/577,4,115,Austin Independent School District,4808940,7
261,20704,Renaissance Academy,private,PK-12,187,Austin,TX,"14401 Owen-Tech Boulevard, 
Austin, TX  78728",(512) 252-2277,,,A0903600,30.434893,-97.67047,https://www.greatschools.org/texas/austin/20704-Renaissance-Academy/?s_cid=gsapi,https://www.greatschools.org/school/rating.page?state=TX&id=20704&s_cid=gsapi,https://www.greatschools.org/school/parentReviews.page?state=TX&id=20704&s_cid=gsapi,https://www.greatschools.org/cgi-bin/TX/otherprivate/20704,4,,,,
262,11838,Richards School For Young Women Leade,public,6-12,764,Austin,TX,"2206 Prather Lane, 
Austin, TX  78704",(512) 414-3236,(512) 441-5208,,480894011354,30.236443,-97.788284,https://www.greatschools.org/texas/austin/11838-Richards-School-For-Young-Women-Leade/?s_cid=gsapi,https://www.greatschools.org/school/rating.page?state=TX&id=11838&s_cid=gsapi,https://www.greatschools.org/school/parentReviews.page?state=TX&id=11838&s_cid=gsapi,https://www.greatschools.org/modperl/achievement/TX/11838,4,115,Austin Independent School District,4808940,9
263,578,Ridgetop Elementary School,public,PK-5,302,Austin,TX,"5005 Caswell Avenue, 
Austin, TX  78751",(512) 414-4469,(512) 459-9187,http://ridgetoprattlers.com/,480894000352,30.311796,-97.716255,https://www.greatschools.org/texas/austin/578-Ridgetop-Elementary-School/?s_cid=gsapi,https://www.greatschools.org/school/rating.page?state=TX&id=578&s_cid=gsapi,https://www.greatschools.org/school/parentReviews.page?state=TX&id=578&s_cid=gsapi,https://www.greatschools.org/modperl/achievement/TX/578,4,115,Austin Independent School District,4808940,5
264,5409,River Oaks Elementary School,public,PK-5,523,Austin,TX,"12401 Scofield Farms Drive, 
Austin, TX  78758",(512) 594-5000,(512) 594-5005,http://www.pfisd.net/Domain/27,483483005489,30.408642,-97.68686,https://www.greatschools.org/texas/austin/5409-River-Oaks-Elementary-School/?s_cid=gsapi,https://www.greatschools.org/school/rating.page?state=TX&id=5409&s_cid=gsapi,https://www.greatschools.org/school/parentReviews.page?state=TX&id=5409&s_cid=gsapi,https://www.greatschools.org/modperl/achievement/TX/5409,3,793,Pflugerville Independent School District,4834830,5
265,11937,River Place Elementary School,public,PK-5,800,Austin,TX,"6500 Sitio Del Rio Boulevard, 
Austin, TX  78730",(512) 570-6900,(512) 570-6905,http://riverplace.leanderisd.org/,482703011528,30.38982,-97.84521,https://www.greatschools.org/texas/austin/11937-River-Place-Elementary-School/?s_cid=gsapi,https://www.greatschools.org/school/rating.page?state=TX&id=11937&s_cid=gsapi,https://www.greatschools.org/school/parentReviews.page?state=TX&id=11937&s_cid=gsapi,https://www.greatschools.org/modperl/achievement/TX/11937,4,596,Leander Independent School District,4827030,8
266,18850,River Ridge Elementary School,public,PK-5,815,Austin,TX,"12900 Tierra Grande Trail, 
Austin, TX  78732",(512) 570-7300,(512) 570-7305,http://riverridge.leanderisd.org/,482703011991,30.34612,-97.91629,https://www.greatschools.org/texas/austin/18850-River-Ridge-Elementary-School/?s_cid=gsapi,https://www.greatschools.org/school/rating.page?state=TX&id=18850&s_cid=gsapi,https://www.greatschools.org/school/parentReviews.page?state=TX&id=18850&s_cid=gsapi,https://www.greatschools.org/modperl/achievement/TX/18850,5,596,Leander Independent School District,4827030,10
267,8617,Rodriguez Elementary School,public,PK-5,793,Austin,TX,"4400 Franklin Park Drive, 
Austin, TX  78744",(512) 841-7200,(512) 841-7205,,480894008392,30.200659,-97.74725,https://www.greatschools.org/texas/austin/8617-Rodriguez-Elementary-School/?s_cid=gsapi,https://www.greatschools.org/school/rating.page?state=TX&id=8617&s_cid=gsapi,https://www.greatschools.org/school/parentReviews.page?state=TX&id=8617&s_cid=gsapi,https://www.greatschools.org/modperl/achievement/TX/8617,3,115,Austin Independent School District,4808940,2
268,598,Rosedale,public,PK-12,239,Austin,TX,"2117 West 49th Street, 
Austin, TX  78756",(512) 414-3617,(512) 458-6754,,480894005396,30.320051,-97.74019,https://www.greatschools.org/texas/austin/598-Rosedale/?s_cid=gsapi,https://www.greatschools.org/school/rating.page?state=TX&id=598&s_cid=gsapi,https://www.greatschools.org/school/parentReviews.page?state=TX&id=598&s_cid=gsapi,https://www.greatschools.org/modperl/achievement/TX/598,5,115,Austin Independent School District,4808940,1
269,11215,Rutledge Elementary School,public,PK-5,766,Austin,TX,"11501 Staked Plains Drive, 
Austin, TX  78717",(512) 570-6500,(512) 570-6505,http://rutledge.leanderisd.org/,482703011113,30.497648,-97.7935,https://www.greatschools.org/texas/austin/11215-Rutledge-Elementary-School/?s_cid=gsapi,https://www.greatschools.org/school/rating.page?state=TX&id=11215&s_cid=gsapi,https://www.greatschools.org/school/parentReviews.page?state=TX&id=11215&s_cid=gsapi,https://www.greatschools.org/modperl/achievement/TX/11215,5,596,Leander Independent School District,4827030,9
270,7293,Sacred Heart Catholic School,private,PK-6,,Austin,TX,"5911 Reicher Drive, 
Austin, TX  78723",(512) 926-0687,,,01323199,30.303,-97.6774,https://www.greatschools.org/texas/austin/7293-Sacred-Heart-Catholic-School/?s_cid=gsapi,https://www.greatschools.org/school/rating.page?state=TX&id=7293&s_cid=gsapi,https://www.greatschools.org/school/parentReviews.page?state=TX&id=7293&s_cid=gsapi,https://www.greatschools.org/cgi-bin/TX/otherprivate/7293,,,,,
271,25080,Sadler Means Ywla,public,6-8,341,Austin,TX,"6401 North Hampton Drive, 
Austin, TX  78723",(512) 414-3234,(512) 926-6146,,,30.313578,-97.68073,https://www.greatschools.org/texas/austin/25080-Sadler-Means-Ywla/?s_cid=gsapi,https://www.greatschools.org/school/rating.page?state=TX&id=25080&s_cid=gsapi,https://www.greatschools.org/school/parentReviews.page?state=TX&id=25080&s_cid=gsapi,https://www.greatschools.org/modperl/achievement/TX/25080,,115,Austin Independent School District,4808940,2
272,11555,San Juan Diego Catholic High School,private,8-12,152,Austin,TX,"800 Herndon Lane, 
Austin, TX  78704",(512) 804-1935,(512) 804-1937,http://www.sjdchs.org,A0303094,30.240438,-97.763725,https://www.greatschools.org/texas/austin/11555-San-Juan-Diego-Catholic-High-School/?s_cid=gsapi,https://www.greatschools.org/school/rating.page?state=TX&id=11555&s_cid=gsapi,https://www.greatschools.org/school/parentReviews.page?state=TX&id=11555&s_cid=gsapi,https://www.greatschools.org/cgi-bin/TX/otherprivate/11555,4,,,,
273,579,Sanchez Elementary School,public,PK-5,436,Austin,TX,"73 San Marcos Street, 
Austin, TX  78702",(512) 414-4423,(512) 472-9493,http://sanchez.austinschools.org/,480894000355,30.257992,-97.735054,https://www.greatschools.org/texas/austin/579-Sanchez-Elementary-School/?s_cid=gsapi,https://www.greatschools.org/school/rating.page?state=TX&id=579&s_cid=gsapi,https://www.greatschools.org/school/parentReviews.page?state=TX&id=579&s_cid=gsapi,https://www.greatschools.org/modperl/achievement/TX/579,3,115,Austin Independent School District,4808940,5
274,20136,Schoolhouse Academy,private,K-2,12,Austin,TX,"13740 Research Blvd., 
Austin, TX  78750",(512) 382-9632,,http://www.SchoolhouseA.com,,30.45932,-97.794205,https://www.greatschools.org/texas/austin/20136-Schoolhouse-Academy/?s_cid=gsapi,https://www.greatschools.org/school/rating.page?state=TX&id=20136&s_cid=gsapi,https://www.greatschools.org/school/parentReviews.page?state=TX&id=20136&s_cid=gsapi,https://www.greatschools.org/cgi-bin/TX/otherprivate/20136,,,,,
275,24673,Sci-Tech Preparatory,charter,6-12,252,Austin,TX,"6405 South Interstate 35 Frontage Road, 
Austin, TX  78744",(512) 220-9120,(512) 842-9308,www.waysideschools.org/stp,,30.191423,-97.767136,https://www.greatschools.org/texas/austin/24673-Sci-Tech-Preparatory/?s_cid=gsapi,https://www.greatschools.org/school/rating.page?state=TX&id=24673&s_cid=gsapi,https://www.greatschools.org/school/parentReviews.page?state=TX&id=24673&s_cid=gsapi,https://www.greatschools.org/modperl/achievement/TX/24673,,43,Wayside Schools,4800044,3
276,24441,Scotish Rite Dyslexia Center,private,5,,Austin,TX,"12871 U.S. 183, 
Austin, TX  78750",(512) 472-1231,,,BB122212,30.436186,-97.77224,https://www.greatschools.org/texas/austin/24441-Scotish-Rite-Dyslexia-Center/?s_cid=gsapi,https://www.greatschools.org/school/rating.page?state=TX&id=24441&s_cid=gsapi,https://www.greatschools.org/school/parentReviews.page?state=TX&id=24441&s_cid=gsapi,https://www.greatschools.org/cgi-bin/TX/otherprivate/24441,,,,,
277,11956,Serene Hills Elementary School,public,PK-5,762,Austin,TX,"3322 Ranch Road 620 South, 
Austin, TX  78738",(512) 533-7400,(512) 533-7401,,482647011479,30.327839,-97.96536,https://www.greatschools.org/texas/austin/11956-Serene-Hills-Elementary-School/?s_cid=gsapi,https://www.greatschools.org/school/rating.page?state=TX&id=11956&s_cid=gsapi,https://www.greatschools.org/school/parentReviews.page?state=TX&id=11956&s_cid=gsapi,https://www.greatschools.org/modperl/achievement/TX/11956,4,583,Lake Travis Independent School District,4826470,9
278,8495,Settlement Home,charter,6-12,34,Austin,TX,"1600 Payton Gin Road, 
Austin, TX  78758",(512) 751-4534,(512) 232-9177,www.utcharter.org,480007108383,30.365156,-97.71341,https://www.greatschools.org/texas/austin/8495-Settlement-Home/?s_cid=gsapi,https://www.greatschools.org/school/rating.page?state=TX&id=8495&s_cid=gsapi,https://www.greatschools.org/school/parentReviews.page?state=TX&id=8495&s_cid=gsapi,https://www.greatschools.org/modperl/achievement/TX/8495,3,70,University Of Texas University Charter School,4800071,1
279,11575,Shoreline Christian School,private,PK-7,,Austin,TX,"15201 Burnet Road, 
Austin, TX  78728",(512) 310-7358,(512) 310-1175,http://www.scs1.org/,A0303129,30.45918,-97.69389,https://www.greatschools.org/texas/austin/11575-Shoreline-Christian-School/?s_cid=gsapi,https://www.greatschools.org/school/rating.page?state=TX&id=11575&s_cid=gsapi,https://www.greatschools.org/school/parentReviews.page?state=TX&id=11575&s_cid=gsapi,https://www.greatschools.org/cgi-bin/TX/otherprivate/11575,3,,,,
280,580,Sims Elementary School,public,PK-6,228,Austin,TX,"1203 Springdale Road, 
Austin, TX  78721",(512) 414-4488,(512) 841-1282,,480894000356,30.27941,-97.6854,https://www.greatschools.org/texas/austin/580-Sims-Elementary-School/?s_cid=gsapi,https://www.greatschools.org/school/rating.page?state=TX&id=580&s_cid=gsapi,https://www.greatschools.org/school/parentReviews.page?state=TX&id=580&s_cid=gsapi,https://www.greatschools.org/modperl/achievement/TX/580,5,115,Austin Independent School District,4808940,3
281,20086,Skybridge Academy,private,6-12,40,Austin,TX,"13317 Fitzhugh Rd, 
Austin, TX  78736",(512) 484-4976,(888) 309-5596,www.skybridgeatx.com,,30.231865,-98.001045,https://www.greatschools.org/texas/austin/20086-Skybridge-Academy/?s_cid=gsapi,https://www.greatschools.org/school/rating.page?state=TX&id=20086&s_cid=gsapi,https://www.greatschools.org/school/parentReviews.page?state=TX&id=20086&s_cid=gsapi,https://www.greatschools.org/cgi-bin/TX/otherprivate/20086,5,,,,
282,8615,Small Middle School,public,6-8,1003,Austin,TX,"4801 Monterey Oaks Boulevard, 
Austin, TX  78749",(512) 841-6700,(512) 841-6703,http://www.smallmiddleschool.org/,480894008390,30.233706,-97.842,https://www.greatschools.org/texas/austin/8615-Small-Middle-School/?s_cid=gsapi,https://www.greatschools.org/school/rating.page?state=TX&id=8615&s_cid=gsapi,https://www.greatschools.org/school/parentReviews.page?state=TX&id=8615&s_cid=gsapi,https://www.greatschools.org/modperl/achievement/TX/8615,4,115,Austin Independent School District,4808940,5
283,2033,Smith Elementary School,public,PK-5,830,Austin,TX,"4209 Smith School Road, 
Austin, TX  78744",(512) 386-3850,(512) 386-3855,www.dvisd.net,481662001427,30.195934,-97.71339,https://www.greatschools.org/texas/austin/2033-Smith-Elementary-School/?s_cid=gsapi,https://www.greatschools.org/school/rating.page?state=TX&id=2033&s_cid=gsapi,https://www.greatschools.org/school/parentReviews.page?state=TX&id=2033&s_cid=gsapi,https://www.greatschools.org/modperl/achievement/TX/2033,3,315,Del Valle Independent School District,4816620,5
284,18787,Southwest Austin Middle School,private,6-8,10,Austin,TX,"4021 So. Loop 360, 
Austin, TX  78704",(512) 415-3198,,,,30.2392,-97.79944,https://www.greatschools.org/texas/austin/18787-Southwest-Austin-Middle-School-/?s_cid=gsapi,https://www.greatschools.org/school/rating.page?state=TX&id=18787&s_cid=gsapi,https://www.greatschools.org/school/parentReviews.page?state=TX&id=18787&s_cid=gsapi,https://www.greatschools.org/cgi-bin/TX/otherprivate/18787,5,,,,
285,5877,Spicewood Elementary School,public,K-5,795,Austin,TX,"11601 Olson Drive, 
Austin, TX  78750",(512) 428-3600,(512) 428-3690,schools.roundrockisd.org/spicewood/,483808004257,30.444965,-97.80434,https://www.greatschools.org/texas/austin/5877-Spicewood-Elementary-School/?s_cid=gsapi,https://www.greatschools.org/school/rating.page?state=TX&id=5877&s_cid=gsapi,https://www.greatschools.org/school/parentReviews.page?state=TX&id=5877&s_cid=gsapi,https://www.greatschools.org/modperl/achievement/TX/5877,4,870,Round Rock Independent School District,4838080,10
286,7303,St Austin Catholic School,private,PK-8,220,Austin,TX,"1911 San Antonio Street, 
Austin, TX  78705",(512) 477-3751,(512) 477-3079,http://www.staustinschool.org,01323326,30.283016,-97.74282,https://www.greatschools.org/texas/austin/7303-St-Austin-Catholic-School/?s_cid=gsapi,https://www.greatschools.org/school/rating.page?state=TX&id=7303&s_cid=gsapi,https://www.greatschools.org/school/parentReviews.page?state=TX&id=7303&s_cid=gsapi,https://www.greatschools.org/cgi-bin/TX/otherprivate/7303,4,,,,
287,20569,St Dominic Savio Catholic High School,private,9-12,371,Austin,TX,"9300 Neenah Avenue, 
Austin, TX  78717",(512) 388-8846,,,A1190093,30.489943,-97.75919,https://www.greatschools.org/texas/austin/20569-St-Dominic-Savio-Catholic-High-School/?s_cid=gsapi,https://www.greatschools.org/school/rating.page?state=TX&id=20569&s_cid=gsapi,https://www.greatschools.org/school/parentReviews.page?state=TX&id=20569&s_cid=gsapi,https://www.greatschools.org/cgi-bin/TX/otherprivate/20569,5,,,,
288,581,St Elmo El,public,PK-5,292,Austin,TX,"600 West Saint Elmo Road, 
Austin, TX  78745",(512) 414-4477,(512) 442-6871,,480894000357,30.222063,-97.77338,https://www.greatschools.org/texas/austin/581-St-Elmo-El/?s_cid=gsapi,https://www.greatschools.org/school/rating.page?state=TX&id=581&s_cid=gsapi,https://www.greatschools.org/school/parentReviews.page?state=TX&id=581&s_cid=gsapi,https://www.greatschools.org/modperl/achievement/TX/581,4,115,Austin Independent School District,4808940,6
289,10057,St Francis School,private,PK-8,403,Austin,TX,"300 East Huntland Drive, 
Austin, TX  78752",(512) 454-0848,(512) 453-2982,http://www.stfrancis-school.org/,A0503477,30.331245,-97.71006,https://www.greatschools.org/texas/austin/10057-St-Francis-School/?s_cid=gsapi,https://www.greatschools.org/school/rating.page?state=TX&id=10057&s_cid=gsapi,https://www.greatschools.org/school/parentReviews.page?state=TX&id=10057&s_cid=gsapi,https://www.greatschools.org/cgi-bin/TX/otherprivate/10057,5,,,,
290,7302,St Ignatius Martyr School,private,PK-8,237,Austin,TX,"120 West Oltorf Street, 
Austin, TX  78704",(512) 442-8547,(512) 442-8685,,01323315,30.23927,-97.75429,https://www.greatschools.org/texas/austin/7302-St-Ignatius-Martyr-School/?s_cid=gsapi,https://www.greatschools.org/school/rating.page?state=TX&id=7302&s_cid=gsapi,https://www.greatschools.org/school/parentReviews.page?state=TX&id=7302&s_cid=gsapi,https://www.greatschools.org/cgi-bin/TX/otherprivate/7302,4,,,,
291,7305,St Louis School,private,PK-8,241,Austin,TX,"2114 Saint Joseph Boulevard, 
Austin, TX  78757",(512) 614-6622,(512) 454-7252,http://www.slcsaustin.org,01323348,30.35219,-97.733,https://www.greatschools.org/texas/austin/7305-St-Louis-School/?s_cid=gsapi,https://www.greatschools.org/school/rating.page?state=TX&id=7305&s_cid=gsapi,https://www.greatschools.org/school/parentReviews.page?state=TX&id=7305&s_cid=gsapi,https://www.greatschools.org/cgi-bin/TX/otherprivate/7305,4,,,,
292,7447,St Stephens Episcopal School,private,6-12,688,Austin,TX,"6500 Saint Stephens Drive, 
Austin, TX  78746",(512) 327-1213,,http://www.sstx.org/,01325924,30.331476,-97.815834,https://www.greatschools.org/texas/austin/7447-St-Stephens-Episcopal-School/?s_cid=gsapi,https://www.greatschools.org/school/rating.page?state=TX&id=7447&s_cid=gsapi,https://www.greatschools.org/school/parentReviews.page?state=TX&id=7447&s_cid=gsapi,https://www.greatschools.org/cgi-bin/TX/otherprivate/7447,4,,,,
293,7448,St. Andrew's Episcopal School,private,K-12,890,Austin,TX,"1112 W 31st St, 
Austin, TX  78705",(512) 299-9800,,,01325935,30.301983,-97.748276,https://www.greatschools.org/texas/austin/7448-St.-Andrew's-Episcopal-School/?s_cid=gsapi,https://www.greatschools.org/school/rating.page?state=TX&id=7448&s_cid=gsapi,https://www.greatschools.org/school/parentReviews.page?state=TX&id=7448&s_cid=gsapi,https://www.greatschools.org/cgi-bin/TX/otherprivate/7448,4,,,,
294,8428,St. Gabriel's Catholic School,private,PK-8,457,Austin,TX,"2500 Wimberly Ln, 
Austin, TX  78735",(512) 327-7755,(512) 327-4334,,A9904286,30.292027,-97.8712,https://www.greatschools.org/texas/austin/8428-St.-Gabriel's-Catholic-School/?s_cid=gsapi,https://www.greatschools.org/school/rating.page?state=TX&id=8428&s_cid=gsapi,https://www.greatschools.org/school/parentReviews.page?state=TX&id=8428&s_cid=gsapi,https://www.greatschools.org/cgi-bin/TX/otherprivate/8428,4,,,,
295,7755,St. Michael's Catholic Academy,private,9-12,364,Austin,TX,"3000 Barton Creek Blvd, 
Austin, TX  78735",(512) 328-2323,(512) 328-2327,,02121737,30.2864,-97.8749,https://www.greatschools.org/texas/austin/7755-St.-Michael's-Catholic-Academy/?s_cid=gsapi,https://www.greatschools.org/school/rating.page?state=TX&id=7755&s_cid=gsapi,https://www.greatschools.org/school/parentReviews.page?state=TX&id=7755&s_cid=gsapi,https://www.greatschools.org/cgi-bin/TX/otherprivate/7755,4,,,,
296,7495,St. Paul Lutheran School,private,PK-8,80,Austin,TX,"3407 Red River Street, 
Austin, TX  78705",(512) 472-3313,(512) 469-0785,http://www.splaustin.com,01326815,30.29324,-97.72531,https://www.greatschools.org/texas/austin/7495-St.-Paul-Lutheran-School/?s_cid=gsapi,https://www.greatschools.org/school/rating.page?state=TX&id=7495&s_cid=gsapi,https://www.greatschools.org/school/parentReviews.page?state=TX&id=7495&s_cid=gsapi,https://www.greatschools.org/cgi-bin/TX/otherprivate/7495,5,,,,
297,7771,St. Theresas Catholic School,private,PK-8,390,Austin,TX,"4311 Small Drive, 
Austin, TX  78731",(512) 451-7105,(512) 451-8808,http://www.st-theresa.org,02186149,30.342485,-97.77419,https://www.greatschools.org/texas/austin/7771-St.-Theresas-Catholic-School/?s_cid=gsapi,https://www.greatschools.org/school/rating.page?state=TX&id=7771&s_cid=gsapi,https://www.greatschools.org/school/parentReviews.page?state=TX&id=7771&s_cid=gsapi,https://www.greatschools.org/cgi-bin/TX/otherprivate/7771,4,,,,
298,4260,Steiner Ranch Elementary School,public,PK-5,655,Austin,TX,"4001 North Quinlan Park Road, 
Austin, TX  78732",(512) 570-5700,(512) 570-5705,http://steiner.leanderisd.org/,482703007498,30.379328,-97.88424,https://www.greatschools.org/texas/austin/4260-Steiner-Ranch-Elementary-School/?s_cid=gsapi,https://www.greatschools.org/school/rating.page?state=TX&id=4260&s_cid=gsapi,https://www.greatschools.org/school/parentReviews.page?state=TX&id=4260&s_cid=gsapi,https://www.greatschools.org/modperl/achievement/TX/4260,4,596,Leander Independent School District,4827030,9
299,7816,Strickland School,private,PK-8,180,Austin,TX,"P.O. Box 150413, 
Austin, TX  78715",(512) 447-1447,,,A9106521,30.447,-97.749,https://www.greatschools.org/texas/austin/7816-Strickland-School/?s_cid=gsapi,https://www.greatschools.org/school/rating.page?state=TX&id=7816&s_cid=gsapi,https://www.greatschools.org/school/parentReviews.page?state=TX&id=7816&s_cid=gsapi,https://www.greatschools.org/cgi-bin/TX/otherprivate/7816,4,,,,
300,582,Summitt Elementary School,public,PK-5,774,Austin,TX,"12207 Brigadoon Lane, 
Austin, TX  78727",(512) 414-4484,(512) 832-1458,http://summitteagles.org/,480894000358,30.418608,-97.71907,https://www.greatschools.org/texas/austin/582-Summitt-Elementary-School/?s_cid=gsapi,https://www.greatschools.org/school/rating.page?state=TX&id=582&s_cid=gsapi,https://www.greatschools.org/school/parentReviews.page?state=TX&id=582&s_cid=gsapi,https://www.greatschools.org/modperl/achievement/TX/582,4,115,Austin Independent School District,4808940,8
301,12005,TNS Academy,private,K-5,30,Austin,TX,"3901 Shoal Creek Blvd., 
Austin, TX  78756",(512) 626-3086,,http://www.tnsacademy.org,A0790176,30.3098,-97.7483,https://www.greatschools.org/texas/austin/12005-TNS-Academy/?s_cid=gsapi,https://www.greatschools.org/school/rating.page?state=TX&id=12005&s_cid=gsapi,https://www.greatschools.org/school/parentReviews.page?state=TX&id=12005&s_cid=gsapi,https://www.greatschools.org/cgi-bin/TX/otherprivate/12005,5,,,,
302,101,Texas Empowerment Academy,charter,3-12,108,Austin,TX,"3613 Bluestein Drive, 
Austin, TX  78721",(512) 494-1076,(512) 494-0199,http://www.texasempowerment.org/,480006608057,30.272999,-97.6724,https://www.greatschools.org/texas/austin/101-Texas-Empowerment-Academy/?s_cid=gsapi,https://www.greatschools.org/school/rating.page?state=TX&id=101&s_cid=gsapi,https://www.greatschools.org/school/parentReviews.page?state=TX&id=101&s_cid=gsapi,https://www.greatschools.org/modperl/achievement/TX/101,4,65,Texas Empowerment Academy,4800066,7
303,20006,Texas Empowerment Academy Elementary School,charter,K-2,163,Austin,TX,"6414 North Hampton Drive, 
Austin, TX  78723",(512) 494-1076,(512) 494-1009,,480006612411,30.314514,-97.68152,https://www.greatschools.org/texas/austin/20006-Texas-Empowerment-Academy-Elementary-School/?s_cid=gsapi,https://www.greatschools.org/school/rating.page?state=TX&id=20006&s_cid=gsapi,https://www.greatschools.org/school/parentReviews.page?state=TX&id=20006&s_cid=gsapi,https://www.greatschools.org/modperl/achievement/TX/20006,3,65,Texas Empowerment Academy,4800066,4
304,9367,Texas School For The Blind,public,1-12,146,Austin,TX,"1100 West 45th Street, 
Austin, TX  78756",(512) 206-9167,(512) 206-9453,,480025209536,30.314978,-97.73932,https://www.greatschools.org/texas/austin/9367-Texas-School-For-The-Blind/?s_cid=gsapi,https://www.greatschools.org/school/rating.page?state=TX&id=9367&s_cid=gsapi,https://www.greatschools.org/school/parentReviews.page?state=TX&id=9367&s_cid=gsapi,https://www.greatschools.org/modperl/achievement/TX/9367,5,1277,Texas Sch For The Blind & Visually Impaired,4800252,1
305,9369,Texas School For The Deaf,public,PK-12,530,Austin,TX,"1102 South Congress Avenue, 
Austin, TX  78704",(512) 462-5353,(512) 462-5313,www.tsd.state.tx.us,480025309537,30.253044,-97.75117,https://www.greatschools.org/texas/austin/9369-Texas-School-For-The-Deaf/?s_cid=gsapi,https://www.greatschools.org/school/rating.page?state=TX&id=9369&s_cid=gsapi,https://www.greatschools.org/school/parentReviews.page?state=TX&id=9369&s_cid=gsapi,https://www.greatschools.org/modperl/achievement/TX/9369,4,1279,Texas Sch For The Deaf,4800253,1
306,7789,The Children's School,private,PK-4,149,Austin,TX,"2825 Hancock Drive, 
Austin, TX  78731",(512) 453-1126,,http://thechildrensschool.org/,A9106444,30.327642,-97.7507,https://www.greatschools.org/texas/austin/7789-The-Children's-School/?s_cid=gsapi,https://www.greatschools.org/school/rating.page?state=TX&id=7789&s_cid=gsapi,https://www.greatschools.org/school/parentReviews.page?state=TX&id=7789&s_cid=gsapi,https://www.greatschools.org/cgi-bin/TX/otherprivate/7789,4,,,,
307,20007,The East Austin College Prep Acade,charter,PK-5,272,Austin,TX,"6002 Jain Lane, 
Austin, TX  78721",(512) 287-5000,(512) 928-1440,http://www.eaprep.org/,480141412335,30.26109,-97.682686,https://www.greatschools.org/texas/austin/20007-The-East-Austin-College-Prep-Acade/?s_cid=gsapi,https://www.greatschools.org/school/rating.page?state=TX&id=20007&s_cid=gsapi,https://www.greatschools.org/school/parentReviews.page?state=TX&id=20007&s_cid=gsapi,https://www.greatschools.org/modperl/achievement/TX/20007,2,1375,Promesa Public Schools,4801414,6
308,20402,The East Austin College Prep At Ml,charter,6-12,575,Austin,TX,"5800 East Martin Luther King Junior Boulevard, 
Austin, TX  78721",(512) 287-5050,(512) 928-1440,,,30.287785,-97.66676,https://www.greatschools.org/texas/austin/20402-The-East-Austin-College-Prep-At-Ml/?s_cid=gsapi,https://www.greatschools.org/school/rating.page?state=TX&id=20402&s_cid=gsapi,https://www.greatschools.org/school/parentReviews.page?state=TX&id=20402&s_cid=gsapi,https://www.greatschools.org/modperl/achievement/TX/20402,1,1375,Promesa Public Schools,4801414,3
309,25244,The Excel Center,charter,9-12,,Austin,TX,"1015 Norwood Park Boulevard, 
Austin, TX  78753",(512) 531-5500,(512) 531-5500,,,30.339088,-97.69408,https://www.greatschools.org/texas/austin/25244-The-Excel-Center/?s_cid=gsapi,https://www.greatschools.org/school/rating.page?state=TX&id=25244&s_cid=gsapi,https://www.greatschools.org/school/parentReviews.page?state=TX&id=25244&s_cid=gsapi,https://www.greatschools.org/modperl/achievement/TX/25244,,1447,The Excel Center,,
310,25102,The Excel Center (For Adults),charter,9-12,132,Austin,TX,"1015 Norwood Park Boulevard, 
Austin, TX  78753",(512) 531-5500,(512) 339-5299,,,30.339088,-97.69408,https://www.greatschools.org/texas/austin/25102-The-Excel-Center-(For-Adults)/?s_cid=gsapi,https://www.greatschools.org/school/rating.page?state=TX&id=25102&s_cid=gsapi,https://www.greatschools.org/school/parentReviews.page?state=TX&id=25102&s_cid=gsapi,https://www.greatschools.org/modperl/achievement/TX/25102,,1440,The Excel Center (For Adults),4801448,
311,8109,The Isely School,private,K-3,,Austin,TX,"2301 Shoal Creek Boulevard, 
Austin, TX  78705",(512) 478-1277,,,A9707982,30.2874,-97.7519,https://www.greatschools.org/texas/austin/8109-The-Isely-School/?s_cid=gsapi,https://www.greatschools.org/school/rating.page?state=TX&id=8109&s_cid=gsapi,https://www.greatschools.org/school/parentReviews.page?state=TX&id=8109&s_cid=gsapi,https://www.greatschools.org/cgi-bin/TX/otherprivate/8109,4,,,,
312,20796,The Joule School,private,PK-6,25,Austin,TX,"3402 Little Elm Trail, 
Austin, TX  78752",(818) 925-6853,,http://www.jouleschool.com,,30.462997,-97.81732,https://www.greatschools.org/texas/austin/20796-The-Joule-School/?s_cid=gsapi,https://www.greatschools.org/school/rating.page?state=TX&id=20796&s_cid=gsapi,https://www.greatschools.org/school/parentReviews.page?state=TX&id=20796&s_cid=gsapi,https://www.greatschools.org/cgi-bin/TX/otherprivate/20796,5,,,,
313,20119,The Keystone School,private,6-12,,Austin,TX,"1701 N. Congress Avenue, 
Austin, TX  78701",(800) 255-4937,,http://keystoneschoolonline.com/,,30.278719,-97.73881,https://www.greatschools.org/texas/austin/20119-The-Keystone-School/?s_cid=gsapi,https://www.greatschools.org/school/rating.page?state=TX&id=20119&s_cid=gsapi,https://www.greatschools.org/school/parentReviews.page?state=TX&id=20119&s_cid=gsapi,https://www.greatschools.org/cgi-bin/TX/otherprivate/20119,,,,,
314,20124,The Magellan International School,private,PK-8,432,Austin,TX,"7130 Chimney Corners, 
Austin, TX  78731",(512) 782-2327,(512) 519-8796,www.magellanschool.org,A0990126,30.358206,-97.76095,https://www.greatschools.org/texas/austin/20124-The-Magellan-International-School/?s_cid=gsapi,https://www.greatschools.org/school/rating.page?state=TX&id=20124&s_cid=gsapi,https://www.greatschools.org/school/parentReviews.page?state=TX&id=20124&s_cid=gsapi,https://www.greatschools.org/cgi-bin/TX/otherprivate/20124,5,,,,
315,20137,The Magnolia School,private,PK-8 & ungraded,15,Austin,TX,"2903 Ranch Road 620, 
Austin, TX  78734",(512) 590-2564,,http://themagnoliaschoolatx.com,,30.38985,-97.938255,https://www.greatschools.org/texas/austin/20137-The-Magnolia-School/?s_cid=gsapi,https://www.greatschools.org/school/rating.page?state=TX&id=20137&s_cid=gsapi,https://www.greatschools.org/school/parentReviews.page?state=TX&id=20137&s_cid=gsapi,https://www.greatschools.org/cgi-bin/TX/otherprivate/20137,5,,,,
316,7559,The Oaks School,private,6-12,,Austin,TX,"1407 W Stassney Lane, 
Austin, TX  78745",(512) 396-8500,,,01328426,30.2121,-97.7908,https://www.greatschools.org/texas/austin/7559-The-Oaks-School/?s_cid=gsapi,https://www.greatschools.org/school/rating.page?state=TX&id=7559&s_cid=gsapi,https://www.greatschools.org/school/parentReviews.page?state=TX&id=7559&s_cid=gsapi,https://www.greatschools.org/cgi-bin/TX/otherprivate/7559,2,,,,
317,20396,The Real Learning Academy,charter,PK-5,677,Austin,TX,"6405 South Interstate 35 Frontage Road, 
Austin, TX  78744",(512) 438-7325,(512) 842-9308,www.waysideschools.org/real,,30.191423,-97.767136,https://www.greatschools.org/texas/austin/20396-The-Real-Learning-Academy/?s_cid=gsapi,https://www.greatschools.org/school/rating.page?state=TX&id=20396&s_cid=gsapi,https://www.greatschools.org/school/parentReviews.page?state=TX&id=20396&s_cid=gsapi,https://www.greatschools.org/modperl/achievement/TX/20396,5,43,Wayside Schools,4800044,3
318,9929,Tnc Campus (Texas Neurorehabilitat,charter,K-12,72,Austin,TX,"1106 West Dittmar Road, 
Austin, TX  78745",(512) 633-0795,(512) 462-6665,www.utcharter.org,480007109408,30.18896,-97.8058,https://www.greatschools.org/texas/austin/9929-Tnc-Campus-(Texas-Neurorehabilitat/?s_cid=gsapi,https://www.greatschools.org/school/rating.page?state=TX&id=9929&s_cid=gsapi,https://www.greatschools.org/school/parentReviews.page?state=TX&id=9929&s_cid=gsapi,https://www.greatschools.org/modperl/achievement/TX/9929,,70,University Of Texas University Charter School,4800071,1
319,18840,Travis County Day School,public,6-12,15,Austin,TX,"8011 Cameron Road, 
Austin, TX  78754",(512) 414-1700,(512) 414-1486,,480894012204,30.335697,-97.68336,https://www.greatschools.org/texas/austin/18840-Travis-County-Day-School/?s_cid=gsapi,https://www.greatschools.org/school/rating.page?state=TX&id=18840&s_cid=gsapi,https://www.greatschools.org/school/parentReviews.page?state=TX&id=18840&s_cid=gsapi,https://www.greatschools.org/modperl/achievement/TX/18840,,115,Austin Independent School District,4808940,
320,11475,Travis County State Jail,public,n/a,,Austin,TX,"8101 Farm to Market 969, 
Austin, TX  78724",(512) 228-5210,(512) 228-5223,www.wsdtx.org,,30.278334,-97.64186,https://www.greatschools.org/texas/austin/11475-Travis-County-State-Jail/?s_cid=gsapi,https://www.greatschools.org/school/rating.page?state=TX&id=11475&s_cid=gsapi,https://www.greatschools.org/school/parentReviews.page?state=TX&id=11475&s_cid=gsapi,https://www.greatschools.org/modperl/achievement/TX/11475,,1249,Windham School District,4800291,
321,585,Travis Heights Elementary School,charter,PK-5,550,Austin,TX,"2010 Alameda Drive, 
Austin, TX  78704",(512) 414-4495,(512) 442-9537,http://www.travisheightselementary.com/,480894000361,30.24143,-97.74596,https://www.greatschools.org/texas/austin/585-Travis-Heights-Elementary-School/?s_cid=gsapi,https://www.greatschools.org/school/rating.page?state=TX&id=585&s_cid=gsapi,https://www.greatschools.org/school/parentReviews.page?state=TX&id=585&s_cid=gsapi,https://www.greatschools.org/modperl/achievement/TX/585,4,115,Austin Independent School District,4808940,6
322,584,Travis High School,public,9-12,1500,Austin,TX,"1211 East Oltorf Street, 
Austin, TX  78704",(512) 414-2527,(512) 707-0050,travisrebels.org,480894000360,30.233839,-97.743256,https://www.greatschools.org/texas/austin/584-Travis-High-School/?s_cid=gsapi,https://www.greatschools.org/school/rating.page?state=TX&id=584&s_cid=gsapi,https://www.greatschools.org/school/parentReviews.page?state=TX&id=584&s_cid=gsapi,https://www.greatschools.org/modperl/achievement/TX/584,4,115,Austin Independent School District,4808940,3
323,10662,Trinity Episcopal School of AU,private,K-8,514,Austin,TX,"3901 Bee Cave Road, 
Austin, TX  78746",(512) 472-9525,(512) 472-2337,http://www.austintrinity.org,A0303153,30.2815,-97.8086,https://www.greatschools.org/texas/austin/10662-Trinity-Episcopal-School-Of-AU/?s_cid=gsapi,https://www.greatschools.org/school/rating.page?state=TX&id=10662&s_cid=gsapi,https://www.greatschools.org/school/parentReviews.page?state=TX&id=10662&s_cid=gsapi,https://www.greatschools.org/cgi-bin/TX/otherprivate/10662,4,,,,
324,25112,University High School,charter,9-12,,Austin,TX,"2007 University Avenue, 
Austin, TX  78705",(512) 751-4553,(512) 232-9177,www.utcharter.org,,30.283306,-97.73917,https://www.greatschools.org/texas/austin/25112-University-High-School/?s_cid=gsapi,https://www.greatschools.org/school/rating.page?state=TX&id=25112&s_cid=gsapi,https://www.greatschools.org/school/parentReviews.page?state=TX&id=25112&s_cid=gsapi,https://www.greatschools.org/modperl/achievement/TX/25112,,70,University Of Texas University Charter School,4800071,
325,10329,University Of Texas Elementary Charter School,charter,PK-5,304,Austin,TX,"2200 East 6th Street, 
Austin, TX  78702",(512) 495-3300,(512) 495-9631,http://www.utexas.edu/provost/elementary/index.html,480025109530,30.260305,-97.71761,https://www.greatschools.org/texas/austin/10329-University-Of-Texas-Elementary-Charter-School/?s_cid=gsapi,https://www.greatschools.org/school/rating.page?state=TX&id=10329&s_cid=gsapi,https://www.greatschools.org/school/parentReviews.page?state=TX&id=10329&s_cid=gsapi,https://www.greatschools.org/modperl/achievement/TX/10329,5,1306,University Of Texas Elementary Charter School,4800251,5
326,9657,University of Texas at Austin High School,public,9-12,600,Austin,TX,"2901 N. IH35, 
Austin, TX  78713",(512) 232-5000,(512) 471-7853,www.highschool.utexas.edu,,30.28,-97.74,https://www.greatschools.org/texas/austin/9657-University-Of-Texas-At-Austin-High-School/?s_cid=gsapi,https://www.greatschools.org/school/rating.page?state=TX&id=9657&s_cid=gsapi,https://www.greatschools.org/school/parentReviews.page?state=TX&id=9657&s_cid=gsapi,https://www.greatschools.org/modperl/achievement/TX/9657,4,1273,University Of Texas At Austin High School,,
327,2205,Valley View Elementary School,public,K-5,493,Austin,TX,"360 Loop Court, 
Austin, TX  78746",(512) 732-9140,(512) 732-9149,,481776005699,30.302923,-97.83261,https://www.greatschools.org/texas/austin/2205-Valley-View-Elementary-School/?s_cid=gsapi,https://www.greatschools.org/school/rating.page?state=TX&id=2205&s_cid=gsapi,https://www.greatschools.org/school/parentReviews.page?state=TX&id=2205&s_cid=gsapi,https://www.greatschools.org/modperl/achievement/TX/2205,5,342,Eanes Independent School District,4817760,9
328,19335,Vandegrift High School,public,9-12,2062,Austin,TX,"9500 McNeil Drive, 
Austin, TX  78750",(512) 570-2300,(512) 570-2306,http://vhs.leanderisd.org/,482703012156,30.397078,-97.824104,https://www.greatschools.org/texas/austin/19335-Vandegrift-High-School/?s_cid=gsapi,https://www.greatschools.org/school/rating.page?state=TX&id=19335&s_cid=gsapi,https://www.greatschools.org/school/parentReviews.page?state=TX&id=19335&s_cid=gsapi,https://www.greatschools.org/modperl/achievement/TX/19335,4,596,Leander Independent School District,4827030,8
329,20730,Veritas Academy,private,PK-12,,Austin,TX,"Po Box 90517, 
Austin, TX  78709",(512) 891-1673,,,A0990128,30.23,-97.85,https://www.greatschools.org/texas/austin/20730-Veritas-Academy/?s_cid=gsapi,https://www.greatschools.org/school/rating.page?state=TX&id=20730&s_cid=gsapi,https://www.greatschools.org/school/parentReviews.page?state=TX&id=20730&s_cid=gsapi,https://www.greatschools.org/cgi-bin/TX/otherprivate/20730,,,,,
330,20143,Veritas Academy,private,K-12,500,Austin,TX,"4220 Monterey Oaks Blvd., 
Austin, TX  78749",(512) 891-1675,,,,30.23015,-97.83225,https://www.greatschools.org/texas/austin/20143-Veritas-Academy/?s_cid=gsapi,https://www.greatschools.org/school/rating.page?state=TX&id=20143&s_cid=gsapi,https://www.greatschools.org/school/parentReviews.page?state=TX&id=20143&s_cid=gsapi,https://www.greatschools.org/cgi-bin/TX/otherprivate/20143,5,,,,
331,24472,Victory Christian Center School,private,PK-12,,Austin,TX,"7625 South Interstate Highway 35, 
Austin, TX  78752",(512) 458-9100,,,BB122233,30.336903,-97.698166,https://www.greatschools.org/texas/austin/24472-Victory-Christian-Center-School/?s_cid=gsapi,https://www.greatschools.org/school/rating.page?state=TX&id=24472&s_cid=gsapi,https://www.greatschools.org/school/parentReviews.page?state=TX&id=24472&s_cid=gsapi,https://www.greatschools.org/cgi-bin/TX/otherprivate/24472,,,,,
332,11403,Wall Sp Prog,public,K-8,3,Austin,TX,"2515 Speedway, 
Austin, TX  78712",(325) 651-7790,,,483738008476,30.289062,-97.736496,https://www.greatschools.org/texas/austin/11403-Wall-Sp-Prog/?s_cid=gsapi,https://www.greatschools.org/school/rating.page?state=TX&id=11403&s_cid=gsapi,https://www.greatschools.org/school/parentReviews.page?state=TX&id=11403&s_cid=gsapi,https://www.greatschools.org/modperl/achievement/TX/11403,,855,Robert Lee Independent School District,4837380,
333,586,Walnut Creek Elementary School,public,PK-6,661,Austin,TX,"401 West Braker Lane, 
Austin, TX  78753",(512) 414-4499,(512) 837-6789,,480894000362,30.379194,-97.68413,https://www.greatschools.org/texas/austin/586-Walnut-Creek-Elementary-School/?s_cid=gsapi,https://www.greatschools.org/school/rating.page?state=TX&id=586&s_cid=gsapi,https://www.greatschools.org/school/parentReviews.page?state=TX&id=586&s_cid=gsapi,https://www.greatschools.org/modperl/achievement/TX/586,4,115,Austin Independent School District,4808940,3
334,593,Webb Middle School,public,6-8,691,Austin,TX,"601 East Saint Johns Avenue, 
Austin, TX  78752",(512) 414-3258,(512) 452-9683,http://www.webbecp.org/,480894002468,30.332413,-97.707405,https://www.greatschools.org/texas/austin/593-Webb-Middle-School/?s_cid=gsapi,https://www.greatschools.org/school/rating.page?state=TX&id=593&s_cid=gsapi,https://www.greatschools.org/school/parentReviews.page?state=TX&id=593&s_cid=gsapi,https://www.greatschools.org/modperl/achievement/TX/593,4,115,Austin Independent School District,4808940,2
335,20409,Webb Primary Center,public,PK-5,249,Austin,TX,"601 East Saint Johns Avenue, 
Austin, TX  78752",(512) 414-8831,(512) 452-9683,,480894012842,30.332413,-97.707405,https://www.greatschools.org/texas/austin/20409-Webb-Primary-Center/?s_cid=gsapi,https://www.greatschools.org/school/rating.page?state=TX&id=20409&s_cid=gsapi,https://www.greatschools.org/school/parentReviews.page?state=TX&id=20409&s_cid=gsapi,https://www.greatschools.org/modperl/achievement/TX/20409,5,115,Austin Independent School District,4808940,3
336,5886,Wells Branch Elementary School,public,PK-5,938,Austin,TX,"14650 Merrilltown Drive, 
Austin, TX  78728",(512) 428-3400,(512) 428-3490,schools.roundrockisd.org/wellsbranch/,483808006166,30.44641,-97.68799,https://www.greatschools.org/texas/austin/5886-Wells-Branch-Elementary-School/?s_cid=gsapi,https://www.greatschools.org/school/rating.page?state=TX&id=5886&s_cid=gsapi,https://www.greatschools.org/school/parentReviews.page?state=TX&id=5886&s_cid=gsapi,https://www.greatschools.org/modperl/achievement/TX/5886,4,870,Round Rock Independent School District,4838080,4
337,25154,West Cypress Hills Elementary School,public,PK-5,525,Austin,TX,"3322 Ranch Road 620 South, 
Austin, TX  78738",(512) 533-6000,(512) 533-6003,,,30.327839,-97.96536,https://www.greatschools.org/texas/austin/25154-West-Cypress-Hills-Elementary-School/?s_cid=gsapi,https://www.greatschools.org/school/rating.page?state=TX&id=25154&s_cid=gsapi,https://www.greatschools.org/school/parentReviews.page?state=TX&id=25154&s_cid=gsapi,https://www.greatschools.org/modperl/achievement/TX/25154,,583,Lake Travis Independent School District,4826470,9
338,2207,West Ridge Middle School,public,6-8,898,Austin,TX,"9201 Scenic Bluff Drive, 
Austin, TX  78733",(512) 732-9240,(512) 732-9249,http://wrms.eanesisd.net/,481776006398,30.302864,-97.88434,https://www.greatschools.org/texas/austin/2207-West-Ridge-Middle-School/?s_cid=gsapi,https://www.greatschools.org/school/rating.page?state=TX&id=2207&s_cid=gsapi,https://www.greatschools.org/school/parentReviews.page?state=TX&id=2207&s_cid=gsapi,https://www.greatschools.org/modperl/achievement/TX/2207,4,342,Eanes Independent School District,4817760,10
339,9661,Westlake Alternative School,public,9-12,,Austin,TX,"601 Camp Craft Road, 
Austin, TX  78746",(512) 327-2203,,,481776009079,30.278156,-97.81645,https://www.greatschools.org/texas/austin/9661-Westlake-Alternative-School/?s_cid=gsapi,https://www.greatschools.org/school/rating.page?state=TX&id=9661&s_cid=gsapi,https://www.greatschools.org/school/parentReviews.page?state=TX&id=9661&s_cid=gsapi,https://www.greatschools.org/modperl/achievement/TX/9661,4,342,Eanes Independent School District,4817760,
340,2204,Westlake High School,public,7-12,2541,Austin,TX,"4100 Westbank Drive, 
Austin, TX  78746",(512) 732-9280,(512) 732-9289,http://www.whschaps.com/,481776001549,30.275679,-97.81373,https://www.greatschools.org/texas/austin/2204-Westlake-High-School/?s_cid=gsapi,https://www.greatschools.org/school/rating.page?state=TX&id=2204&s_cid=gsapi,https://www.greatschools.org/school/parentReviews.page?state=TX&id=2204&s_cid=gsapi,https://www.greatschools.org/modperl/achievement/TX/2204,4,342,Eanes Independent School District,4817760,9
341,5414,Westview Middle School,public,6-8,863,Austin,TX,"1805 Scofield Lane, 
Austin, TX  78727",(512) 594-2200,(512) 594-2205,http://www.pfisd.net/Page/21,483483006596,30.416716,-97.689575,https://www.greatschools.org/texas/austin/5414-Westview-Middle-School/?s_cid=gsapi,https://www.greatschools.org/school/rating.page?state=TX&id=5414&s_cid=gsapi,https://www.greatschools.org/school/parentReviews.page?state=TX&id=5414&s_cid=gsapi,https://www.greatschools.org/modperl/achievement/TX/5414,3,793,Pflugerville Independent School District,4834830,4
342,5884,Westwood High School,public,9-12,2731,Austin,TX,"12400 Mellow Meadow Drive, 
Austin, TX  78750",(512) 464-4000,(512) 464-4020,schools.roundrockisd.org/westwood/,483808005805,30.456322,-97.7977,https://www.greatschools.org/texas/austin/5884-Westwood-High-School/?s_cid=gsapi,https://www.greatschools.org/school/rating.page?state=TX&id=5884&s_cid=gsapi,https://www.greatschools.org/school/parentReviews.page?state=TX&id=5884&s_cid=gsapi,https://www.greatschools.org/modperl/achievement/TX/5884,4,870,Round Rock Independent School District,4838080,9
343,611,Widen Elementary School,public,PK-5,589,Austin,TX,"5605 Nuckols Crossing Road, 
Austin, TX  78744",(512) 414-2556,(512) 441-8971,,480894006213,30.188713,-97.74008,https://www.greatschools.org/texas/austin/611-Widen-Elementary-School/?s_cid=gsapi,https://www.greatschools.org/school/rating.page?state=TX&id=611&s_cid=gsapi,https://www.greatschools.org/school/parentReviews.page?state=TX&id=611&s_cid=gsapi,https://www.greatschools.org/modperl/achievement/TX/611,2,115,Austin Independent School District,4808940,1
344,587,Williams Elementary School,public,PK-5,513,Austin,TX,"500 Mairo Street, 
Austin, TX  78748",(512) 414-2525,(512) 292-3041,williamswildcats.org,480894000364,30.180973,-97.79151,https://www.greatschools.org/texas/austin/587-Williams-Elementary-School/?s_cid=gsapi,https://www.greatschools.org/school/rating.page?state=TX&id=587&s_cid=gsapi,https://www.greatschools.org/school/parentReviews.page?state=TX&id=587&s_cid=gsapi,https://www.greatschools.org/modperl/achievement/TX/587,3,115,Austin Independent School District,4808940,4
345,588,Winn Elementary School,public,PK-6,338,Austin,TX,"3500 Susquehanna Lane, 
Austin, TX  78723",(512) 414-2390,(512) 926-9211,,480894000365,30.314882,-97.66498,https://www.greatschools.org/texas/austin/588-Winn-Elementary-School/?s_cid=gsapi,https://www.greatschools.org/school/rating.page?state=TX&id=588&s_cid=gsapi,https://www.greatschools.org/school/parentReviews.page?state=TX&id=588&s_cid=gsapi,https://www.greatschools.org/modperl/achievement/TX/588,3,115,Austin Independent School District,4808940,3
346,589,Wooldridge Elementary School,public,PK-5,572,Austin,TX,"1412 Norseman Terrace, 
Austin, TX  78758",(512) 414-2353,(512) 339-6583,http://wooldridge.weebly.com/,480894000366,30.364952,-97.70985,https://www.greatschools.org/texas/austin/589-Wooldridge-Elementary-School/?s_cid=gsapi,https://www.greatschools.org/school/rating.page?state=TX&id=589&s_cid=gsapi,https://www.greatschools.org/school/parentReviews.page?state=TX&id=589&s_cid=gsapi,https://www.greatschools.org/modperl/achievement/TX/589,4,115,Austin Independent School District,4808940,5
347,590,Wooten Elementary School,public,PK-5,725,Austin,TX,"1406 Dale Drive, 
Austin, TX  78757",(512) 414-2315,(512) 459-9227,http://wooten.austinschools.org/,480894000367,30.352917,-97.71915,https://www.greatschools.org/texas/austin/590-Wooten-Elementary-School/?s_cid=gsapi,https://www.greatschools.org/school/rating.page?state=TX&id=590&s_cid=gsapi,https://www.greatschools.org/school/parentReviews.page?state=TX&id=590&s_cid=gsapi,https://www.greatschools.org/modperl/achievement/TX/590,3,115,Austin Independent School District,4808940,6
348,591,Zavala Elementary School,public,PK-6,350,Austin,TX,"310 Robert Martinez Junior Street, 
Austin, TX  78702",(512) 414-2318,(512) 477-2361,https://www.austinisd.org/schools/zavala,480894000368,30.258272,-97.71954,https://www.greatschools.org/texas/austin/591-Zavala-Elementary-School/?s_cid=gsapi,https://www.greatschools.org/school/rating.page?state=TX&id=591&s_cid=gsapi,https://www.greatschools.org/school/parentReviews.page?state=TX&id=591&s_cid=gsapi,https://www.greatschools.org/modperl/achievement/TX/591,5,115,Austin Independent School District,4808940,4
349,592,Zilker Elementary School,public,PK-6,567,Austin,TX,"1900 Bluebonnet Lane, 
Austin, TX  78704",(512) 414-2327,(512) 442-3992,http://www.zilkerelem.org/,480894000369,30.252544,-97.77457,https://www.greatschools.org/texas/austin/592-Zilker-Elementary-School/?s_cid=gsapi,https://www.greatschools.org/school/rating.page?state=TX&id=592&s_cid=gsapi,https://www.greatschools.org/school/parentReviews.page?state=TX&id=592&s_cid=gsapi,https://www.greatschools.org/modperl/achievement/TX/592,4,115,Austin Independent School District,4808940,7
